<?xml version="1.0" encoding="UTF-8"?>
<kml xmlns="http://www.opengis.net/kml/2.2" xmlns:gx="http://www.google.com/kml/ext/2.2" xmlns:kml="http://www.opengis.net/kml/2.2" xmlns:atom="http://www.w3.org/2005/Atom">
<Document>
	<name>012021.kml</name>
	<StyleMap id="m_ylw-pushpin">
		<Pair>
			<key>normal</key>
			<styleUrl>#s_ylw-pushpin</styleUrl>
		</Pair>
		<Pair>
			<key>highlight</key>
			<styleUrl>#s_ylw-pushpin_hl</styleUrl>
		</Pair>
	</StyleMap>
	<Style id="s_ylw-pushpin">
		<IconStyle>
			<scale>1.1</scale>
			<Icon>
				<href>http://maps.google.com/mapfiles/kml/pushpin/ylw-pushpin.png</href>
			</Icon>
			<hotSpot x="20" y="2" xunits="pixels" yunits="pixels"/>
		</IconStyle>
	</Style>
	<Style id="s_ylw-pushpin_hl">
		<IconStyle>
			<scale>1.3</scale>
			<Icon>
				<href>http://maps.google.com/mapfiles/kml/pushpin/ylw-pushpin.png</href>
			</Icon>
			<hotSpot x="20" y="2" xunits="pixels" yunits="pixels"/>
		</IconStyle>
	</Style>
	<Placemark>
		<name>01/2021</name>
		<styleUrl>#m_ylw-pushpin</styleUrl>
		<LineString>
			<tessellate>1</tessellate>
			<coordinates>
				79.93620326424264,6.638264981588823,0 79.93627561745274,6.638048838901909,0 79.9362817798017,6.638034360109526,0 79.93638384268921,6.637797737959855,0 79.93648175673005,6.637511684596391,0 79.93655728207042,6.637289412277333,0 79.93655835612161,6.637280859060936,0 79.9366667403814,6.636992937727455,0 79.93674570101062,6.636769108316112,0 79.9368405315747,6.636482247052697,0 79.9369637507494,6.636130654138677,0 79.93696492203777,6.636118043004172,0 79.93703714530281,6.635827076310436,0 79.93703750119765,6.63582307882996,0 79.93711524622768,6.635527006829185,0 79.93722218234804,6.635164922592995,0 79.93732136005353,6.634814071300892,0 79.93743647784719,6.634503380997446,0 79.93755260680206,6.634255096623296,0 79.93765430240518,6.633993994978284,0 79.93778803458969,6.633683711057028,0 79.93794490973148,6.633288140918464,0 79.93808165013058,6.632929381120785,0 79.93823723187853,6.632610933185733,0 79.938403166646,6.632167823350279,0 79.93858313820444,6.631755953296024,0 79.93869502396041,6.631445462987635,0 79.93887869584371,6.631030776655306,0 79.93905440478864,6.630608114856627,0 79.93926909677103,6.630052715176057,0 79.93937151842989,6.629768057666228,0 79.93949532486538,6.629402883985787,0 79.93972353052155,6.628779322953166,0 79.93981804247451,6.628449816916349,0 79.93998004587287,6.627940055368555,0 79.94012111061556,6.62765943021042,0 79.94027132180349,6.627228381788577,0 79.94034793760137,6.626984966265042,0 79.94052285435924,6.626461209586847,0 79.94066679012121,6.625998064586294,0 79.94076398871164,6.62575403100329,0 79.9408062019367,6.625573715887607,0 79.94091164056634,6.625291276825987,0 79.94104417462032,6.624949455079452,0 79.94121913779122,6.624522350049948,0 79.94136463540606,6.624163282676349,0 79.94149075795247,6.62377973958926,0 79.94158998694637,6.623473400890677,0 79.94169918423472,6.623171170382571,0 79.94180662979075,6.622922794544456,0 79.94187827622623,6.622734523114678,0 79.9419458197667,6.622566227934337,0 79.9420469262526,6.622364791269095,0 79.94212979937976,6.622202868914668,0 79.9422091751326,6.622127187460233,0 79.94219994185325,6.62211289824215,0 79.94218777512121,6.622024396939339,0 79.94224165178213,6.621944185430677,0 79.9422720598463,6.621848114008086,0 79.94232407119929,6.621730665654994,0 79.94239227932562,6.621582435559711,0 79.9424517676763,6.621434170256998,0 79.94251215927463,6.62135589086154,0 79.94253165501554,6.621235063598839,0 79.94255940368161,6.621145227679006,0 79.94262837174021,6.62106733846466,0 79.9426675483995,6.620945681459943,0 79.94268945494102,6.620870577895066,0 79.94275887486226,6.620700143123155,0 79.94281478574575,6.62059269051039,0 79.94287009459987,6.620476457927468,0 79.94294206892283,6.62035907340027,0 79.94297482952518,6.620178470004671,0 79.94297553299867,6.620155777888362,0 79.9430609234841,6.619951852778178,0 79.94306101065256,6.619948213028127,0 79.94312415591286,6.61983651653997,0 79.94324161886692,6.619565868100232,0 79.94335028635795,6.619336382982115,0 79.94343542986736,6.619112045802663,0 79.94352731195198,6.618909016891783,0 79.94365179713918,6.618612943142627,0 79.94380263796653,6.618309481548268,0 79.94389841907727,6.618063656934738,0 79.94401798772348,6.617797943157759,0 79.9441214257709,6.617467563610592,0 79.94423042049617,6.617198232870082,0 79.94434835350431,6.616969532631166,0 79.94449882153216,6.616640322483867,0 79.94461561702315,6.616365753464271,0 79.94474150330612,6.616112766274854,0 79.94487717977015,6.615831201101732,0 79.94504057469348,6.615605913953336,0 79.94517929559407,6.615330670450221,0 79.94530696196834,6.615097077790534,0 79.94550400184809,6.614717673167646,0 79.94565054781873,6.614435874094265,0 79.94581821579987,6.614006632623216,0 79.94597990073552,6.613576689543584,0 79.9461221291849,6.613214538511936,0 79.94632529818472,6.612739819520176,0 79.94646743782451,6.612522192168454,0 79.94653224529284,6.612340957562652,0 79.94660231719678,6.612169747303165,0 79.94663713338696,6.612004191584393,0 79.94668197341903,6.611861934238736,0 79.94674569170637,6.61167850158888,0 79.94677738181223,6.611643195429518,0 79.94707944359966,6.611673007546747,0 
			</coordinates>
		</LineString>
		<atom:link rel="app" href="https://www.google.com/earth/about/versions/#earth-pro" title="Google Earth Pro 7.3.7.1155"></atom:link>
	</Placemark>
</Document>
</kml>
