<?xml version="1.0" encoding="UTF-8"?>
<kml xmlns="http://www.opengis.net/kml/2.2" xmlns:gx="http://www.google.com/kml/ext/2.2" xmlns:kml="http://www.opengis.net/kml/2.2" xmlns:atom="http://www.w3.org/2005/Atom">
<Document>
	<name>012015.kml</name>
	<StyleMap id="m_ylw-pushpin">
		<Pair>
			<key>normal</key>
			<styleUrl>#s_ylw-pushpin</styleUrl>
		</Pair>
		<Pair>
			<key>highlight</key>
			<styleUrl>#s_ylw-pushpin_hl</styleUrl>
		</Pair>
	</StyleMap>
	<Style id="s_ylw-pushpin">
		<IconStyle>
			<scale>1.1</scale>
			<Icon>
				<href>http://maps.google.com/mapfiles/kml/pushpin/ylw-pushpin.png</href>
			</Icon>
			<hotSpot x="20" y="2" xunits="pixels" yunits="pixels"/>
		</IconStyle>
	</Style>
	<Style id="s_ylw-pushpin_hl">
		<IconStyle>
			<scale>1.3</scale>
			<Icon>
				<href>http://maps.google.com/mapfiles/kml/pushpin/ylw-pushpin.png</href>
			</Icon>
			<hotSpot x="20" y="2" xunits="pixels" yunits="pixels"/>
		</IconStyle>
	</Style>
	<Placemark>
		<name>01/2015</name>
		<styleUrl>#m_ylw-pushpin</styleUrl>
		<LineString>
			<tessellate>1</tessellate>
			<coordinates>
				79.93620826313835,6.638305047105186,0 79.93625842354118,6.63830834376004,0 79.93631183396987,6.638123613533854,0 79.93646418138938,6.63775529995764,0 79.93658417008962,6.637420556626006,0 79.9367191895868,6.63702969155425,0 79.93682173216794,6.636733542206105,0 79.93691017742394,6.636465786518359,0 79.93700505397058,6.636151063765903,0 79.93708623291131,6.635915263972708,0 79.93716113506669,6.635727471479952,0 79.9372312677894,6.635514430712044,0 79.93725527400009,6.635334091080281,0 79.93731521844251,6.635136242357344,0 79.93738270965018,6.634910515818265,0 79.93741004223507,6.634780471670525,0 79.93745012837721,6.6346609646971,0 79.93748511722789,6.63458917632722,0 79.93748519453297,6.634587041808648,0 79.93750803624401,6.634457120070191,0 79.93757142517478,6.634280574023842,0 79.93764476711186,6.63399376426621,0 79.93773470761846,6.633721980927253,0 79.93782844165092,6.633457626661438,0 79.93789363180775,6.633198703463592,0 79.93791413589794,6.633094320924117,0 79.93797054708573,6.632963147074737,0 79.93801679951511,6.632830577332166,0 79.93806375353286,6.632718570906293,0 79.93818993113074,6.632528905345665,0 79.93826311356564,6.632404919781719,0 79.93832481940187,6.632230853101892,0 79.93842299536986,6.631994374883255,0 79.93848993660004,6.631805004965265,0 79.9386067106807,6.63156741552902,0 79.93869198880159,6.631368837632574,0 79.93884117097926,6.631020840917929,0 79.93896323732581,6.630701496398709,0 79.93906304170503,6.630473083282429,0 79.93914534529335,6.630253193228264,0 79.93916837157913,6.630123823096424,0 79.93921263457874,6.630044773285536,0 79.93923428379988,6.629967536669122,0 79.93926324550564,6.629859613241937,0 79.93930672880263,6.629786403226985,0 79.9393208379454,6.629670627135287,0 79.93932074981386,6.629668608539986,0 79.93936755928223,6.629569059933091,0 79.93939107487118,6.629460961855605,0 79.93943475597939,6.629334813957608,0 79.93947408366137,6.629213030877933,0 79.93950994776405,6.629087381330564,0 79.93954532466594,6.628997015712639,0 79.93958839026986,6.628843941543613,0 79.93964313307258,6.628679301617494,0 79.93969090028196,6.628551061050358,0 79.93973948344093,6.628420871993177,0 79.93973944093452,6.628418807787206,0 79.93978514659599,6.628247593678812,0 79.93987035804879,6.628011317633439,0 79.9399401809364,6.627801647617286,0 79.93993818703316,6.627801651508124,0 79.94004069851024,6.627549502073806,0 79.94008808694832,6.6273889189813,0 79.94014101248533,6.627276111223495,0 79.94017787290375,6.627154940174266,0 79.9402350340837,6.626993666914193,0 79.94028262300964,6.6268503434252,0 79.94037392171863,6.626669384558201,0 79.94040294546939,6.626516116912018,0 79.94046899096922,6.626409742664219,0 79.94049059051206,6.626304805018207,0 79.94051873983926,6.62619622385501,0 79.94057995596125,6.626090461330779,0 79.94060671785417,6.62599938421807,0 79.94063815569481,6.625910187589588,0 79.94069400660676,6.625859814315949,0 79.94071402018206,6.625776952618783,0 79.9407181290819,6.625704115897297,0 79.94074932388214,6.625611470660035,0 79.94080649557772,6.625566844193137,0 79.94087676809583,6.625447675268584,0 79.9409419612374,6.625278136851792,0 79.94099427260389,6.625108096563277,0 79.94103791903126,6.624977381035245,0 79.94109288116577,6.624799953293711,0 79.94112451844634,6.624666694414342,0 79.94118123282867,6.624524288952879,0 79.94118128999628,6.624522297840427,0 79.94122960743331,6.624399055474758,0 79.94126841870313,6.62428944410645,0 79.94135558869368,6.624078501633957,0 79.94135566576995,6.624076529912533,0 79.94145737434704,6.623904298273379,0 79.94151662833049,6.623788007543497,0 79.94158903374742,6.623646509199109,0 79.9416446898659,6.623505244290929,0 79.94171111073342,6.623305772211343,0 79.94173636954562,6.623195002213163,0 79.94180769612211,6.623015640421455,0 79.94186404510727,6.622889860361716,0 79.94190694405239,6.622766686084153,0 79.94200405034168,6.622499390914742,0 79.94213383172365,6.622174728190376,0 79.94222297280639,6.621895595367881,0 79.94236561156144,6.621573730094664,0 79.94249399925728,6.621275790331272,0 79.94258334255562,6.621108208203361,0 79.94258378996558,6.62110463211573,0 79.94269102056565,6.620799726063193,0 79.94279877080319,6.62053342335222,0 79.942896995949,6.620322746370846,0 79.94301380740463,6.620015182306683,0 79.94312443744303,6.619771221327678,0 79.94333448290702,6.619334407142813,0 79.94346996911743,6.619009302041647,0 79.94356848409356,6.618757515552018,0 79.94368455407101,6.618450638814039,0 79.94382043534617,6.61809244199663,0 79.94393169428248,6.617791796615006,0 79.944072377033,6.617451468241127,0 79.94421613400452,6.617097609999489,0 79.94436498021437,6.616785931223965,0 79.94456205771566,6.616367218150351,0 79.94471697937303,6.616058064596062,0 79.94490994778806,6.615742828049532,0 79.94504602168057,6.615445907578239,0 79.94516607132671,6.615186629191035,0 79.94528105363838,6.614925425986266,0 79.94543515329909,6.614610949032824,0 79.9455868938909,6.614324062435104,0 79.94582455558574,6.613897184884934,0 79.94593435847337,6.613627542516599,0 79.94611757561421,6.613225091313084,0 79.94629711132808,6.612809161908895,0 79.94650185687766,6.612328378530377,0 79.94668740497542,6.611924879231647,0 79.94681805928074,6.611592150508969,0 79.94707985928886,6.611650858604809,0 
			</coordinates>
		</LineString>
		<atom:link rel="app" href="https://www.google.com/earth/about/versions/#earth-pro" title="Google Earth Pro 7.3.7.1155"></atom:link>
	</Placemark>
</Document>
</kml>
