<?xml version="1.0" encoding="UTF-8"?>
<kml xmlns="http://www.opengis.net/kml/2.2" xmlns:gx="http://www.google.com/kml/ext/2.2" xmlns:kml="http://www.opengis.net/kml/2.2" xmlns:atom="http://www.w3.org/2005/Atom">
<Document>
	<name>012013.kml</name>
	<StyleMap id="m_ylw-pushpin">
		<Pair>
			<key>normal</key>
			<styleUrl>#s_ylw-pushpin</styleUrl>
		</Pair>
		<Pair>
			<key>highlight</key>
			<styleUrl>#s_ylw-pushpin_hl</styleUrl>
		</Pair>
	</StyleMap>
	<Style id="s_ylw-pushpin">
		<IconStyle>
			<scale>1.1</scale>
			<Icon>
				<href>http://maps.google.com/mapfiles/kml/pushpin/ylw-pushpin.png</href>
			</Icon>
			<hotSpot x="20" y="2" xunits="pixels" yunits="pixels"/>
		</IconStyle>
	</Style>
	<Style id="s_ylw-pushpin_hl">
		<IconStyle>
			<scale>1.3</scale>
			<Icon>
				<href>http://maps.google.com/mapfiles/kml/pushpin/ylw-pushpin.png</href>
			</Icon>
			<hotSpot x="20" y="2" xunits="pixels" yunits="pixels"/>
		</IconStyle>
	</Style>
	<Placemark>
		<name>12013</name>
		<visibility>0</visibility>
		<styleUrl>#m_ylw-pushpin</styleUrl>
		<LineString>
			<tessellate>1</tessellate>
			<coordinates>
				79.93623988321831,6.63837009209089,0 79.93632258901563,6.638384511673622,0 79.93637575527369,6.638242029467006,0 79.93653376832587,6.637845846964619,0 79.93667150315105,6.637469659944054,0 79.93681533065271,6.636968121668197,0 79.93692445146937,6.636593413258041,0 79.93706178231527,6.636134469192115,0 79.93716139964845,6.635740612792304,0 79.9372589639861,6.635364294035261,0 79.9374015808275,6.634789507061054,0 79.93759073030567,6.634247452584964,0 79.93772287839388,6.633856704444168,0 79.93787999727026,6.633393266147858,0 79.93810600197148,6.632843998213475,0 79.93857473136796,6.631807868420892,0 79.93885859527084,6.631029168461759,0 79.93913087662607,6.63024486870842,0 79.93939488575549,6.629473824044434,0 79.93958854267234,6.628836537445693,0 79.93990966067882,6.62779250459256,0 79.94014602832316,6.627129874846947,0 79.94031366252062,6.626662710811212,0 79.94051856075026,6.626016813098789,0 79.94082242338146,6.62525919336379,0 79.94109786743724,6.62458994822849,0 79.94135602139195,6.624008139611131,0 79.94163926784495,6.623438116053062,0 79.94193455975559,6.622739627581161,0 79.94218496825674,6.622136611808405,0 79.94240826863381,6.621583172325475,0 79.94264060269117,6.620992797179148,0 79.94284845093506,6.620501849397035,0 79.94306927595521,6.619925818271441,0 79.94329893820817,6.619388049587614,0 79.94348907089335,6.618944144410394,0 79.94366251109606,6.618533538297579,0 79.94392105968646,6.617943300330907,0 79.94411936930851,6.617476839323997,0 79.94435561399808,6.616978921297948,0 79.94457719130574,6.616544721171884,0 79.94473169051734,6.616206378544252,0 79.9450098482473,6.615618892744703,0 79.94531887877018,6.615028521158772,0 79.94540654304561,6.614852977172412,0 79.9455789324511,6.614493095679832,0 79.94563939671413,6.614340525998238,0 79.94569928290258,6.614149504719522,0 79.94581834559899,6.613894963437479,0 79.94594338272739,6.613636789056117,0 79.94609937589196,6.613365462650242,0 79.94617649699182,6.613193395887369,0 79.94628994960593,6.612883545077323,0 79.94641348191884,6.612611797991988,0 79.94653420198415,6.612296784835794,0 79.94667149120536,6.611949187431212,0 79.94679065506976,6.61167812230105,0 79.94708514081854,6.611693229696527,0 
			</coordinates>
		</LineString>
		<atom:link rel="app" href="https://www.google.com/earth/about/versions/#earth-pro" title="Google Earth Pro 7.3.7.1155"></atom:link>
	</Placemark>
</Document>
</kml>
