<?xml version="1.0" encoding="UTF-8"?>
<kml xmlns="http://www.opengis.net/kml/2.2" xmlns:gx="http://www.google.com/kml/ext/2.2" xmlns:kml="http://www.opengis.net/kml/2.2" xmlns:atom="http://www.w3.org/2005/Atom">
<Document>
	<name>022024.kml</name>
	<StyleMap id="m_ylw-pushpin">
		<Pair>
			<key>normal</key>
			<styleUrl>#s_ylw-pushpin</styleUrl>
		</Pair>
		<Pair>
			<key>highlight</key>
			<styleUrl>#s_ylw-pushpin_hl</styleUrl>
		</Pair>
	</StyleMap>
	<Style id="s_ylw-pushpin">
		<IconStyle>
			<scale>1.1</scale>
			<Icon>
				<href>http://maps.google.com/mapfiles/kml/pushpin/ylw-pushpin.png</href>
			</Icon>
			<hotSpot x="20" y="2" xunits="pixels" yunits="pixels"/>
		</IconStyle>
	</Style>
	<Style id="s_ylw-pushpin_hl">
		<IconStyle>
			<scale>1.3</scale>
			<Icon>
				<href>http://maps.google.com/mapfiles/kml/pushpin/ylw-pushpin.png</href>
			</Icon>
			<hotSpot x="20" y="2" xunits="pixels" yunits="pixels"/>
		</IconStyle>
	</Style>
	<Placemark>
		<name>02/2024</name>
		<styleUrl>#m_ylw-pushpin</styleUrl>
		<LineString>
			<tessellate>1</tessellate>
			<coordinates>
				79.93621938713298,6.638300510084603,0 79.93627017709217,6.638298133441609,0 79.93629713162441,6.63821209086786,0 79.93635290146925,6.638063394156085,0 79.93637781437197,6.63798476803174,0 79.93640789187151,6.63790993256659,0 79.93643413799813,6.637815973270368,0 79.9364680258868,6.637711080939233,0 79.93648884813734,6.637639695172794,0 79.93651481674925,6.637574013899679,0 79.93654122877854,6.637484027602161,0 79.93657349076483,6.637408657198605,0 79.9365974930822,6.637332838318265,0 79.93664099191372,6.637221106665949,0 79.93667106690242,6.637138215508868,0 79.93669887679908,6.637053110231049,0 79.93672857545954,6.636945308255222,0 79.93676561211159,6.63683991269401,0 79.9367948691787,6.636747851877991,0 79.93681734194102,6.636653802988829,0 79.9368539013807,6.636565349946099,0 79.936882509154,6.636466576907695,0 79.93691566647895,6.636378563933574,0 79.93693670376331,6.636288781896216,0 79.93696548778348,6.636222459254271,0 79.93700929999167,6.636075163453308,0 79.93703428268256,6.635996244133494,0 79.93706939525717,6.635865052496565,0 79.93708413614326,6.635787154606066,0 79.93711810706199,6.63565018864522,0 79.93714836897306,6.635531308891551,0 79.93717972218278,6.635412557798027,0 79.93721407350401,6.635329400989466,0 79.93723574714414,6.635264697175902,0 79.93726124570969,6.63518360237503,0 79.93729938665803,6.635045131026163,0 79.93734092878256,6.634938602872769,0 79.93737537106931,6.634782193622847,0 79.9373755115566,6.63477624333794,0 79.93741981863094,6.634668924351608,0 79.93746105087318,6.634551880050296,0 79.93750881199244,6.634428940543524,0 79.93756057939494,6.634324847614058,0 79.93762278182388,6.634163813958899,0 79.93765701925102,6.634077411743124,0 79.93772912841298,6.633874436204009,0 79.93779057156064,6.633735201472994,0 79.93787196480228,6.63352756377237,0 79.93792556692436,6.633405228001404,0 79.93799457538279,6.633216487948498,0 79.93804200585703,6.633121631940178,0 79.93813105052303,6.632947190658155,0 79.93819066947168,6.632846332268673,0 79.93824746690122,6.63273220165331,0 79.93830857565797,6.632612006564657,0 79.9383541674362,6.632505272355233,0 79.93839398061276,6.632425552001239,0 79.93846141497632,6.6322800270943,0 79.93851253737743,6.632151289779936,0 79.93859165567272,6.631965154236243,0 79.9386618716219,6.631793533155605,0 79.93866194433912,6.631791653638519,0 79.93870490494655,6.631684393210374,0 79.93875738932334,6.631552277945792,0 79.93881331605863,6.631420418847298,0 79.93887472306633,6.631280861049682,0 79.93894011484497,6.631110209707982,0 79.93902471566511,6.630927600577643,0 79.93907141410813,6.630791473245251,0 79.93912517583499,6.630673309339181,0 79.93918563901056,6.630534828281402,0 79.93923950321418,6.630392877159893,0 79.93929964553807,6.630206359623172,0 79.93932918784009,6.630066592264638,0 79.93937825725796,6.629917973745143,0 79.93941280003399,6.629817410214058,0 79.93947126697383,6.629617734019424,0 79.93949831916636,6.629496090332355,0 79.93956385583424,6.629240813392606,0 79.9395818980565,6.629117472783305,0 79.93962892255566,6.629029869638122,0 79.9396702096967,6.628839725155992,0 79.93969256900552,6.628712236286432,0 79.93973829594503,6.628500603084089,0 79.93979922310604,6.628303607698552,0 79.93979945761336,6.628301591844438,0 79.93983962964455,6.628119075880045,0 79.93988393686264,6.627956785319873,0 79.9399726570161,6.62769672625081,0 79.93997429995338,6.627678874469895,0 79.94001530028754,6.627541197269522,0 79.94001613372653,6.627531709338601,0 79.94005855169154,6.627407079047327,0 79.94012233975093,6.627224380926372,0 79.94012492062377,6.627216314555022,0 79.94017637054141,6.627070381907957,0 79.94022496003566,6.626913815649504,0 79.94026530892937,6.626803255881481,0 79.94032640774428,6.626605877143849,0 79.94038090582895,6.626452247163251,0 79.94045910081314,6.626301523878699,0 79.94050929995309,6.626217846574137,0 79.94057382840469,6.626060514395073,0 79.94057434973237,6.626051111378645,0 79.94057664126385,6.62604360708498,0 79.94063052701925,6.625936637930925,0 79.9406967598615,6.625779076360882,0 79.94077274232711,6.625616676558258,0 79.94084237634112,6.625430469388432,0 79.94090908905294,6.625260774817963,0 79.94090933350486,6.625257058360875,0 79.9409419207479,6.625152838343171,0 79.94100527829904,6.625081607279565,0 79.94102195571489,6.624990745973525,0 79.94101864969358,6.624983285778276,0 79.94102483329263,6.62490957049946,0 79.94106907647563,6.624876907690528,0 79.94107926631831,6.624821431576985,0 79.94107944711119,6.624817884693851,0 79.94108610560073,6.624758170477794,0 79.94108636857744,6.624752954091751,0 79.94113423236071,6.624679532914983,0 79.94117120857777,6.624647033849671,0 79.9411718440175,6.6246362767413,0 79.94118116122173,6.624570709118018,0 79.94118146745657,6.624565450380947,0 79.94117825238838,6.624558453534251,0 79.94117695661323,6.624549727428014,0 79.94117550926681,6.624513331289292,0 79.94117581733275,6.624508164983728,0 79.94122395987961,6.624450753431769,0 79.94126753315703,6.624378396907525,0 79.94126609657241,6.624373167162909,0 79.94126787940007,6.624323038250545,0 79.94126824773628,6.62431789668782,0 79.94129708309904,6.624267133932475,0 79.94129851118387,6.624253835710878,0 79.94129932471758,6.624246260140753,0 79.94135917260107,6.624175108258236,0 79.94136393287924,6.624127299135834,0 79.94136465918073,6.624120004628947,0 79.94136538389027,6.624112726107925,0 79.94137644157659,6.624056853390666,0 79.94142399600869,6.624017754034959,0 79.94146721895834,6.623963315030177,0 79.94146752557157,6.623959661735968,0 79.94145391161587,6.623882087484011,0 79.94149680783947,6.623810088489074,0 79.94155268911119,6.623666543130678,0 79.94160204035136,6.623563747843108,0 79.94167988032935,6.623392533875735,0 79.94177265311014,6.623162687969466,0 79.94181618805339,6.623027946312819,0 79.94188550798671,6.622826638969365,0 79.94188568619744,6.622824802757235,0 79.94191977526572,6.622737829132449,0 79.94196968796186,6.622570882888498,0 79.9419702309345,6.622565383257832,0 79.9419729856366,6.62255623662228,0 79.94200841529464,6.622475032260404,0 79.94206412796993,6.622287566559084,0 79.94222552993213,6.621887923350652,0 79.94229528889443,6.621703729758428,0 79.94243540259342,6.621347408560434,0 79.94257393281653,6.621043732890998,0 79.94270826932483,6.620773499736986,0 79.94292624007396,6.620280669934498,0 79.94308094847587,6.619986386147159,0 79.94311371736751,6.619973629717778,0 79.94320776280888,6.619788849445516,0 79.94329670072635,6.619655907508962,0 79.94330183115835,6.619559978352503,0 79.9433717011198,6.619470354733703,0 79.9434025422072,6.619395677241092,0 79.9434614469411,6.619254040332696,0 79.9434618224535,6.619246154100344,0 79.94352720533077,6.619097760237745,0 79.94354154773896,6.619015810576292,0 79.94356485533665,6.618949683579311,0 79.94362874219827,6.618888448679443,0 79.94366352713467,6.618788159551438,0 79.94366375572955,6.618784361253007,0 79.94371402737221,6.618647541438439,0 79.94377644948435,6.618543760909573,0 79.94377078976174,6.618499701178669,0 79.94377284733254,6.618495895677906,0 79.94382477035184,6.618369014796625,0 79.94387803402303,6.618217219415222,0 79.94394414292402,6.618048980801507,0 79.94400111404973,6.617904965957536,0 79.94407833388391,6.617750161116901,0 79.94414030957051,6.617653515737868,0 79.94420673070078,6.617532458043037,0 79.94424417284513,6.6174806337453,0 79.94429310955104,6.617376951840439,0 79.94434800174217,6.617246209126328,0 79.94434807826028,6.617244351447278,0 79.94440940713987,6.617138320323653,0 79.94444499950136,6.617061969528674,0 79.94450647829375,6.616875940900576,0 79.94455194407085,6.616785779578921,0 79.94465409704419,6.616542797004346,0 79.94472976249672,6.616357189819929,0 79.9448134303356,6.616166835891513,0 79.94491197185641,6.61593393819211,0 79.94501247251348,6.615792416275312,0 79.94510826585595,6.615607783892433,0 79.9451791218398,6.615465082916513,0 79.94527011201345,6.615317122335042,0 79.9453508339959,6.615132379845742,0 79.94545625090619,6.61494424788242,0 79.94557150558721,6.614743668740334,0 79.94565173949215,6.614574498409477,0 79.94573315058953,6.614401315795166,0 79.94576046432756,6.614315577771566,0 79.94581029973946,6.614165718096105,0 79.94587245312724,6.614043572374086,0 79.94593162893291,6.613897232586157,0 79.94593169809983,6.613895348861472,0 79.94599264744932,6.613764275868229,0 79.94607831840278,6.613566541096753,0 79.9461699895996,6.613374188190138,0 79.94622342147932,6.613235789391538,0 79.94631265636404,6.613043546136304,0 79.9463743116218,6.612871996635701,0 79.94644136309959,6.612756918823558,0 79.94649295764755,6.612625423099126,0 79.94657051759718,6.612457851548783,0 79.94667531734885,6.612253519511502,0 79.94674940580991,6.612105790436837,0 79.94681238279458,6.611975653548408,0 79.94685421086606,6.611919470510921,0 79.9468839597339,6.611862232833439,0 79.94690578723205,6.61180208989729,0 79.94693725632735,6.611727905152499,0 79.94696365624461,6.611673781063478,0 79.94698712078443,6.611640619394829,0 79.94708684450592,6.611664484427859,0 
			</coordinates>
		</LineString>
		<atom:link rel="app" href="https://www.google.com/earth/about/versions/#earth-pro" title="Google Earth Pro 7.3.7.1155"></atom:link>
	</Placemark>
</Document>
</kml>
