<?xml version="1.0" encoding="UTF-8"?>
<kml xmlns="http://www.opengis.net/kml/2.2" xmlns:gx="http://www.google.com/kml/ext/2.2" xmlns:kml="http://www.opengis.net/kml/2.2" xmlns:atom="http://www.w3.org/2005/Atom">
<Document>
	<name>022014.kml</name>
	<StyleMap id="m_ylw-pushpin">
		<Pair>
			<key>normal</key>
			<styleUrl>#s_ylw-pushpin</styleUrl>
		</Pair>
		<Pair>
			<key>highlight</key>
			<styleUrl>#s_ylw-pushpin_hl</styleUrl>
		</Pair>
	</StyleMap>
	<Style id="s_ylw-pushpin">
		<IconStyle>
			<scale>1.1</scale>
			<Icon>
				<href>http://maps.google.com/mapfiles/kml/pushpin/ylw-pushpin.png</href>
			</Icon>
			<hotSpot x="20" y="2" xunits="pixels" yunits="pixels"/>
		</IconStyle>
	</Style>
	<Style id="s_ylw-pushpin_hl">
		<IconStyle>
			<scale>1.3</scale>
			<Icon>
				<href>http://maps.google.com/mapfiles/kml/pushpin/ylw-pushpin.png</href>
			</Icon>
			<hotSpot x="20" y="2" xunits="pixels" yunits="pixels"/>
		</IconStyle>
	</Style>
	<Placemark>
		<name>02/2014</name>
		<styleUrl>#m_ylw-pushpin</styleUrl>
		<LineString>
			<tessellate>1</tessellate>
			<coordinates>
				79.9362394562969,6.638322872285026,0 79.93636686293441,6.637984329803691,0 79.93657988251177,6.637372666562703,0 79.936748484029,6.636854417180962,0 79.9368964639406,6.63642767730003,0 79.93699983710741,6.636088070717898,0 79.937058875649,6.635841266730599,0 79.93716805418809,6.635432944841999,0 79.93723448535445,6.635171159695735,0 79.93733392739702,6.63491745446872,0 79.93743044142461,6.634634499145794,0 79.93750644939799,6.634426473067389,0 79.93763061780481,6.634069119499035,0 79.93773096011066,6.63377872756874,0 79.93791508800453,6.633277318556321,0 79.93804825359217,6.632950171656248,0 79.93813824989613,6.63275220329524,0 79.93824759477579,6.632536865192278,0 79.93833534468908,6.632365731711593,0 79.93845683919184,6.632119757308771,0 79.93857708080883,6.631826670275856,0 79.93872688211567,6.631482007656114,0 79.93883641831306,6.631237950686989,0 79.93899434880478,6.630885453836481,0 79.93914486621793,6.630489881270169,0 79.9392480677069,6.630216094794282,0 79.93941407907067,6.629766684166663,0 79.93948553496543,6.629534960252423,0 79.93958467869741,6.629213148406727,0 79.93966794488708,6.62894755038942,0 79.93978550324334,6.6285364751165,0 79.93985999572064,6.628315197906681,0 79.93996194250832,6.62798160439067,0 79.94005255427365,6.627753998788338,0 79.94019484879038,6.627314282909428,0 79.94036343544713,6.626915153017945,0 79.9404437718586,6.626708714542515,0 79.94052853871423,6.626445622272978,0 79.94052871225468,6.62644144752664,0 79.94060606664986,6.626197182277927,0 79.94071737506576,6.625860370357211,0 79.94080382414677,6.625586614092351,0 79.94093326671145,6.62526402100637,0 79.94111501869865,6.624886345722036,0 79.9412560216138,6.62459985174655,0 79.9413541687564,6.624364206220108,0 79.94146633140106,6.624110607190572,0 79.94155968568234,6.623844008358747,0 79.94166381489796,6.623570000239287,0 79.94176144268616,6.623315790765354,0 79.94184462879588,6.623078020361457,0 79.94193649132299,6.622812227715547,0 79.94209293403895,6.622400558086943,0 79.94226497426247,6.62197211290476,0 79.94236599336975,6.621611707720651,0 79.94248552535957,6.621302513534409,0 79.94258852965326,6.621072761175071,0 79.94267188522217,6.620846338105134,0 79.94280033351959,6.620540709589368,0 79.94292295632087,6.620258171472872,0 79.94305152754893,6.619962597276978,0 79.9432129514212,6.619620586199627,0 79.94336032626575,6.619277486165915,0 79.94348857422052,6.618981544658175,0 79.94362426768252,6.61861903183314,0 79.94373630360039,6.618296698387299,0 79.94380444168533,6.618162896416239,0 79.94388045106851,6.617963476284432,0 79.94390971025595,6.617887225756674,0 79.94395541774007,6.617800364992872,0 79.94401775223517,6.617607768568148,0 79.94410139588588,6.617403943749944,0 79.94420802406646,6.61717043748509,0 79.94433059289645,6.616899491249183,0 79.9444464136383,6.6166521673553,0 79.94455336752036,6.616439578104565,0 79.94466470576796,6.616225639987057,0 79.94477145788484,6.616029849408368,0 79.94487676268503,6.615801447635479,0 79.94495589713722,6.615666422441278,0 79.94501750976913,6.615594289473139,0 79.94502408628885,6.61558249383159,0 79.94506747848122,6.615482243556237,0 79.9451502998218,6.615332718859146,0 79.94523828589617,6.615145242068223,0 79.9453987489991,6.614823248956585,0 79.94561572899885,6.614439759914331,0 79.94580664511115,6.614124889714343,0 79.94595021419568,6.613746336015674,0 79.94613529091204,6.613317196841646,0 79.94632596750111,6.612869467648395,0 79.94653236631422,6.612434562210341,0 
			</coordinates>
		</LineString>
		<atom:link rel="app" href="https://www.google.com/earth/about/versions/#earth-pro" title="Google Earth Pro 7.3.7.1155"></atom:link>
	</Placemark>
</Document>
</kml>
