<?xml version="1.0" encoding="UTF-8"?>
<kml xmlns="http://www.opengis.net/kml/2.2" xmlns:gx="http://www.google.com/kml/ext/2.2" xmlns:kml="http://www.opengis.net/kml/2.2" xmlns:atom="http://www.w3.org/2005/Atom">
<Document>
	<name>042016.kml</name>
	<StyleMap id="m_ylw-pushpin">
		<Pair>
			<key>normal</key>
			<styleUrl>#s_ylw-pushpin</styleUrl>
		</Pair>
		<Pair>
			<key>highlight</key>
			<styleUrl>#s_ylw-pushpin_hl</styleUrl>
		</Pair>
	</StyleMap>
	<Style id="s_ylw-pushpin">
		<IconStyle>
			<scale>1.1</scale>
			<Icon>
				<href>http://maps.google.com/mapfiles/kml/pushpin/ylw-pushpin.png</href>
			</Icon>
			<hotSpot x="20" y="2" xunits="pixels" yunits="pixels"/>
		</IconStyle>
	</Style>
	<Style id="s_ylw-pushpin_hl">
		<IconStyle>
			<scale>1.3</scale>
			<Icon>
				<href>http://maps.google.com/mapfiles/kml/pushpin/ylw-pushpin.png</href>
			</Icon>
			<hotSpot x="20" y="2" xunits="pixels" yunits="pixels"/>
		</IconStyle>
	</Style>
	<Placemark>
		<name>04/2016</name>
		<styleUrl>#m_ylw-pushpin</styleUrl>
		<LineString>
			<tessellate>1</tessellate>
			<coordinates>
				79.93620184028154,6.638312956525686,0 79.93627678598079,6.638293373053821,0 79.93635483571829,6.638158425577401,0 79.93647968266464,6.637856461425941,0 79.93664912103698,6.637377970722292,0 79.93677149745929,6.636994846934798,0 79.93690261886695,6.63654945621641,0 79.93702639641008,6.636139197843034,0 79.937165979803,6.635582323160444,0 79.9372717903714,6.635074776054742,0 79.93733550740886,6.634811615901966,0 79.93745217361108,6.634442921717029,0 79.93758361363963,6.634098048814255,0 79.93773959790884,6.633714604339025,0 79.93791675115226,6.633198252396093,0 79.93808652711316,6.632796615621625,0 79.9382718575698,6.632425790530682,0 79.93838662171737,6.632119993967748,0 79.93850520147951,6.631755892860278,0 79.93870381465592,6.631329265293205,0 79.93887441713107,6.630913754988027,0 79.93901367504809,6.630608069459845,0 79.93909153064294,6.630321598922638,0 79.93921512464217,6.630012343457476,0 79.93933318345098,6.629763751723448,0 79.93944183468106,6.629422740290728,0 79.93958981038224,6.628989926063403,0 79.93972880336152,6.628599491620792,0 79.9398955234887,6.628085132118014,0 79.94005421939991,6.62766593601314,0 79.94013672317776,6.627447725623585,0 79.94021295637991,6.62722842418545,0 79.94035118273342,6.626822372898975,0 79.94044161251517,6.626471176800174,0 79.94057764139168,6.626110300086957,0 79.94073998837965,6.625653309415458,0 79.94089991239832,6.625224248801052,0 79.94110670742107,6.624875451655607,0 79.94128564333259,6.624458850311091,0 79.94139683087785,6.624163114774126,0 79.9416237582589,6.623678000953231,0 79.94180735305741,6.623191273894798,0 79.94202567632195,6.622592803217042,0 79.94223847784068,6.62204309584461,0 79.94246673514137,6.621431972289861,0 79.94267722793771,6.620913990769098,0 79.94285399154464,6.620518136614667,0 79.94292398238584,6.620312226644571,0 79.94303911380076,6.620055432404444,0 79.94312523941942,6.619841702870333,0 79.94322031289146,6.619606734009333,0 79.94332718014242,6.619326372463516,0 79.9434546953627,6.619023050614487,0 79.94355308989432,6.618761711097553,0 79.94373605755733,6.618333145911595,0 79.94387920881989,6.617962224814085,0 79.94387943111641,6.617957570130053,0 79.94401504069995,6.617646340809707,0 79.94420742781004,6.617198236649052,0 79.94434024403506,6.616915480868398,0 79.94451981917787,6.616562310289775,0 79.94470489543782,6.616177733409415,0 79.94489812348233,6.615785490641234,0 79.94513018806158,6.615380745167466,0 79.94536444438876,6.614937278120423,0 79.94560938821314,6.614433820383077,0 79.94584186780794,6.613988051612069,0 79.94608882966769,6.613468518709282,0 79.94619827142614,6.613222984373591,0 79.9462695111782,6.613124538516195,0 79.94638601232069,6.612864045905493,0 79.94648905580277,6.612555568507229,0 79.94672424025089,6.61190283466955,0 79.94689051250954,6.611559967276389,0 79.94708788132972,6.611642883059231,0 
			</coordinates>
		</LineString>
		<atom:link rel="app" href="https://www.google.com/earth/about/versions/#earth-pro" title="Google Earth Pro 7.3.7.1155"></atom:link>
	</Placemark>
</Document>
</kml>
