<?xml version="1.0" encoding="UTF-8"?>
<kml xmlns="http://www.opengis.net/kml/2.2" xmlns:gx="http://www.google.com/kml/ext/2.2" xmlns:kml="http://www.opengis.net/kml/2.2" xmlns:atom="http://www.w3.org/2005/Atom">
<Document>
	<name>052019.kml</name>
	<StyleMap id="m_ylw-pushpin">
		<Pair>
			<key>normal</key>
			<styleUrl>#s_ylw-pushpin</styleUrl>
		</Pair>
		<Pair>
			<key>highlight</key>
			<styleUrl>#s_ylw-pushpin_hl</styleUrl>
		</Pair>
	</StyleMap>
	<Style id="s_ylw-pushpin">
		<IconStyle>
			<scale>1.1</scale>
			<Icon>
				<href>http://maps.google.com/mapfiles/kml/pushpin/ylw-pushpin.png</href>
			</Icon>
			<hotSpot x="20" y="2" xunits="pixels" yunits="pixels"/>
		</IconStyle>
	</Style>
	<Style id="s_ylw-pushpin_hl">
		<IconStyle>
			<scale>1.3</scale>
			<Icon>
				<href>http://maps.google.com/mapfiles/kml/pushpin/ylw-pushpin.png</href>
			</Icon>
			<hotSpot x="20" y="2" xunits="pixels" yunits="pixels"/>
		</IconStyle>
	</Style>
	<Placemark>
		<name>05/2019</name>
		<styleUrl>#m_ylw-pushpin</styleUrl>
		<LineString>
			<tessellate>1</tessellate>
			<coordinates>
				79.93622031758967,6.638266789452935,0 79.93633093704366,6.637968276494353,0 79.93645148523635,6.637661772963423,0 79.93662558992295,6.637192948553836,0 79.93674542656441,6.636806145515703,0 79.93681268095666,6.636571902059457,0 79.93689630861461,6.636191406471125,0 79.93694926023177,6.636047092976141,0 79.93700941571521,6.635913612933643,0 79.93707908390816,6.635606317363784,0 79.93711767146144,6.635445620665465,0 79.93722244239257,6.63510548880345,0 79.93727875684237,6.634980563528852,0 79.93735981394104,6.634617058390125,0 79.93743619077519,6.63443430064576,0 79.93748072677263,6.63425993416323,0 79.93754145627953,6.634085098289025,0 79.93757929691026,6.634003412543816,0 79.93764586586707,6.633853165488279,0 79.93771289476143,6.633659177858294,0 79.93776391666471,6.633525675822447,0 79.93781816873064,6.633360239462064,0 79.93786150193966,6.633222197065018,0 79.9379414194316,6.633019613003417,0 79.93801039511052,6.632862686572023,0 79.93813334240262,6.632614226166664,0 79.9382392683477,6.632420510976906,0 79.9383289516737,6.632219675875788,0 79.93839921655859,6.63206855278148,0 79.9384664541829,6.631893298098199,0 79.93861566447187,6.631609048415594,0 79.93869792152805,6.63137282929984,0 79.93880173064177,6.631160510951922,0 79.93894098668825,6.630803392999061,0 79.93906332021001,6.630539715398174,0 79.93916970429855,6.630229037628579,0 79.93923149997055,6.63002842959649,0 79.939388370731,6.62961267749224,0 79.93955542691803,6.62916875476971,0 79.93974576556458,6.628598722441954,0 79.93988615123807,6.628190326654803,0 79.94001244805956,6.627795996991677,0 79.94016004243083,6.627429487150306,0 79.94031489574539,6.627019762326272,0 79.94045925381634,6.626609641055626,0 79.94063887343678,6.626082398394264,0 79.94078325329063,6.625684046831998,0 79.9409876851567,6.625176221752076,0 79.9411355211349,6.6247907724391,0 79.94131968960401,6.624333812007604,0 79.94154941803707,6.623753970250293,0 79.94171866493672,6.623332035896288,0 79.94191146515317,6.622815840302532,0 79.94209265998684,6.622369679572506,0 79.94220819486486,6.622060168989604,0 79.94237787354145,6.621648719984695,0 79.94253874866639,6.621242916378522,0 79.94265746462506,6.620980272180353,0 79.94277963079649,6.620672435017885,0 79.94290009370903,6.620335698480597,0 79.94309693655239,6.619864578083889,0 79.94325251665295,6.61951978624655,0 79.94329817913308,6.619365679298501,0 79.94333705165288,6.619296298844285,0 79.94337157935188,6.619208276736377,0 79.9434072726801,6.619102748103561,0 79.94349086098718,6.61890571011609,0 79.94356999829624,6.618726608682741,0 79.94364380787179,6.61852574727805,0 79.94370988071414,6.61837836842407,0 79.94378341361622,6.618226858963326,0 79.94388156668357,6.617992876464298,0 79.94398422999899,6.617727844957172,0 79.94413062780227,6.617438385095483,0 79.94424040419477,6.617185399659717,0 79.94441242254459,6.616824208964133,0 79.94454570273511,6.61651267596647,0 79.94471497623506,6.616227289556983,0 79.94480821819617,6.616059645028076,0 79.94495792353327,6.615790538893521,0 79.94505738747033,6.615586157029986,0 79.94512508186254,6.615408945912802,0 79.94519387869396,6.615301220608186,0 79.94525517966568,6.615122335261716,0 79.94538490617714,6.614887827025757,0 79.94547975636276,6.614706600814547,0 79.94559406901477,6.614460213971175,0 79.94572745752961,6.614187549661692,0 79.94589714419114,6.613802103801503,0 79.94600259157416,6.613603197849011,0 79.94614154472646,6.613318384553396,0 79.94628694246067,6.612993814289235,0 79.94637600726323,6.612749215613936,0 79.94646097395001,6.612543817331354,0 79.94657657744699,6.612271402250238,0 79.94665319976849,6.612049343620817,0 79.94675077975241,6.61179116137177,0 79.94683761171635,6.611587595278619,0 79.9470825605403,6.611682077317335,0 
			</coordinates>
		</LineString>
		<atom:link rel="app" href="https://www.google.com/earth/about/versions/#earth-pro" title="Google Earth Pro 7.3.7.1155"></atom:link>
	</Placemark>
</Document>
</kml>
