<?xml version="1.0" encoding="UTF-8"?>
<kml xmlns="http://www.opengis.net/kml/2.2" xmlns:gx="http://www.google.com/kml/ext/2.2" xmlns:kml="http://www.opengis.net/kml/2.2" xmlns:atom="http://www.w3.org/2005/Atom">
<Document>
	<name>052012.kml</name>
	<StyleMap id="m_ylw-pushpin">
		<Pair>
			<key>normal</key>
			<styleUrl>#s_ylw-pushpin</styleUrl>
		</Pair>
		<Pair>
			<key>highlight</key>
			<styleUrl>#s_ylw-pushpin_hl</styleUrl>
		</Pair>
	</StyleMap>
	<Style id="s_ylw-pushpin">
		<IconStyle>
			<scale>1.1</scale>
			<Icon>
				<href>http://maps.google.com/mapfiles/kml/pushpin/ylw-pushpin.png</href>
			</Icon>
			<hotSpot x="20" y="2" xunits="pixels" yunits="pixels"/>
		</IconStyle>
	</Style>
	<Style id="s_ylw-pushpin_hl">
		<IconStyle>
			<scale>1.3</scale>
			<Icon>
				<href>http://maps.google.com/mapfiles/kml/pushpin/ylw-pushpin.png</href>
			</Icon>
			<hotSpot x="20" y="2" xunits="pixels" yunits="pixels"/>
		</IconStyle>
	</Style>
	<Placemark>
		<name>52012</name>
		<styleUrl>#m_ylw-pushpin</styleUrl>
		<LineString>
			<tessellate>1</tessellate>
			<coordinates>
				79.93619859121385,6.6383168876722,0 79.93620546747663,6.638323810452165,0 79.93623650081464,6.638342423006984,0 79.93627348030969,6.638338838446253,0 79.93631699566255,6.638317833654087,0 79.93633738104641,6.638298324192848,0 79.93634282387812,6.638270178703268,0 79.93636032027004,6.63823389561625,0 79.93641267151777,6.638111735553418,0 79.93646926167769,6.637977554832185,0 79.9365076823227,6.637859543466493,0 79.93656901320952,6.637726834373869,0 79.93663731211421,6.637537149833958,0 79.936680337068,6.637433582504904,0 79.93673414801052,6.637302583211888,0 79.93678914746563,6.637155462367632,0 79.93683150239946,6.637035404194732,0 79.93687855337474,6.636884299315483,0 79.9369717760988,6.636641725128184,0 79.93709085904671,6.636336357338283,0 79.93714885207477,6.636178706287396,0 79.93720724996639,6.635884271617901,0 79.93727439315956,6.635635909642897,0 79.93731962236764,6.63542098942961,0 79.93739334456531,6.635033215865069,0 79.93759105994486,6.634662230120876,0 79.93777554233959,6.634416900820345,0 79.93798710523278,6.634339898508427,0 79.93806667650249,6.634135964193617,0 79.93817931869266,6.633734619508906,0 79.93822384102761,6.633273795278338,0 79.93826380608957,6.632913245416602,0 79.93830437063639,6.632547294334866,0 79.93838799216715,6.632215467850258,0 79.93849351798235,6.631753405337959,0 79.93862680669578,6.631200532694673,0 79.93876913840623,6.630739811521737,0 79.93891444797995,6.630209618542111,0 79.93909525598859,6.629772770087604,0 79.93934797254673,6.629146034501254,0 79.93962175467131,6.628417976649009,0 79.9399080373486,6.62768313457128,0 79.94021367270663,6.626798879329299,0 79.94053928626832,6.625939167353404,0 79.94083516778608,6.625151762273753,0 79.94117434033971,6.624393162167199,0 79.94143889720041,6.623757166296597,0 79.94173370863062,6.623006980040208,0 79.94200618583747,6.62232515846947,0 79.94229283921533,6.62168224964723,0 79.94257001958042,6.6210067685655,0 79.94296336705381,6.620104121132329,0 79.94334013936977,6.619245714629062,0 79.94377749788484,6.618201975897636,0 79.94419042722306,6.617258917041301,0 79.94464549590434,6.616263605691069,0 79.94507108225201,6.61548822925744,0 79.94549350605143,6.614653586273264,0 79.94598894657041,6.613598055935701,0 79.94644794522753,6.612510446870084,0 79.94679535208971,6.611677103918564,0 79.94708880231431,6.61170413713882,0 
			</coordinates>
		</LineString>
		<atom:link rel="app" href="https://www.google.com/earth/about/versions/#earth-pro" title="Google Earth Pro 7.3.7.1155"></atom:link>
	</Placemark>
</Document>
</kml>
