<?xml version="1.0" encoding="UTF-8"?>
<kml xmlns="http://www.opengis.net/kml/2.2" xmlns:gx="http://www.google.com/kml/ext/2.2" xmlns:kml="http://www.opengis.net/kml/2.2" xmlns:atom="http://www.w3.org/2005/Atom">
<Document>
	<name>072020.kml</name>
	<StyleMap id="m_ylw-pushpin">
		<Pair>
			<key>normal</key>
			<styleUrl>#s_ylw-pushpin</styleUrl>
		</Pair>
		<Pair>
			<key>highlight</key>
			<styleUrl>#s_ylw-pushpin_hl</styleUrl>
		</Pair>
	</StyleMap>
	<Style id="s_ylw-pushpin">
		<IconStyle>
			<scale>1.1</scale>
			<Icon>
				<href>http://maps.google.com/mapfiles/kml/pushpin/ylw-pushpin.png</href>
			</Icon>
			<hotSpot x="20" y="2" xunits="pixels" yunits="pixels"/>
		</IconStyle>
	</Style>
	<Style id="s_ylw-pushpin_hl">
		<IconStyle>
			<scale>1.3</scale>
			<Icon>
				<href>http://maps.google.com/mapfiles/kml/pushpin/ylw-pushpin.png</href>
			</Icon>
			<hotSpot x="20" y="2" xunits="pixels" yunits="pixels"/>
		</IconStyle>
	</Style>
	<Placemark>
		<name>07/2020</name>
		<styleUrl>#m_ylw-pushpin</styleUrl>
		<LineString>
			<tessellate>1</tessellate>
			<coordinates>
				79.93620999784319,6.638268522302802,0 79.93629933976663,6.638050128991854,0 79.93638973197029,6.637771388291622,0 79.93651930201163,6.637429182063035,0 79.93662512896201,6.637109045284286,0 79.9367385944405,6.636672336848611,0 79.93686641917168,6.636249942981368,0 79.93698090175853,6.635914509703237,0 79.93711815932335,6.635665680289848,0 79.93711446173862,6.635647673010894,0 79.93721957499753,6.635357154071007,0 79.93729630894867,6.635148216790266,0 79.93734367540945,6.634880440634293,0 79.93742206631428,6.634546835864168,0 79.93751740133264,6.634272130570082,0 79.93763354562131,6.633953843596688,0 79.93774751440689,6.633697647788416,0 79.93787588140017,6.633366937998414,0 79.93800735375709,6.633038985476349,0 79.93816135965896,6.632694531943153,0 79.93831037166076,6.632371311631132,0 79.93846723206731,6.632056304624919,0 79.93862341296368,6.631676001006786,0 79.93882617807536,6.631153155287252,0 79.93899402400898,6.630727686302614,0 79.93918482143317,6.630303624659319,0 79.93932870373612,6.629922168497491,0 79.93946331547419,6.629540031678259,0 79.93958035628189,6.629198383347255,0 79.93967524342133,6.628894357428578,0 79.93980965625661,6.628566054645327,0 79.93993485959807,6.628225135848066,0 79.94006778166958,6.627782813436332,0 79.94024619517897,6.627222123215164,0 79.94033441840111,6.626901899334216,0 79.9404524353068,6.626664224938138,0 79.94055107939604,6.626431136000435,0 79.94066085500523,6.626120335238803,0 79.94080202650085,6.625826420377853,0 79.94090598408872,6.625481631423368,0 79.94104682850748,6.625151966969417,0 79.94113874337566,6.624902310091636,0 79.94132505389679,6.624384081118171,0 79.94144746202149,6.624047199763287,0 79.94158591283656,6.623731480250511,0 79.94170269323726,6.623453078882761,0 79.94184576621817,6.623138358291641,0 79.94196224252811,6.622849129382929,0 79.94205989520894,6.622623744320708,0 79.94220403952387,6.622316464512859,0 79.94231526593809,6.622031891244903,0 79.94240014449466,6.62178657738649,0 79.94251368956834,6.621492744338864,0 79.94262428403574,6.621137583135615,0 79.94274465608321,6.620875494861223,0 79.94283345335236,6.620561970801137,0 79.94293369118378,6.620318414335034,0 79.94307248917245,6.619982507030694,0 79.94320445430932,6.619689529845892,0 79.9432926746708,6.619440070896755,0 79.94344552512663,6.619150380303823,0 79.94355212548867,6.618860024254572,0 79.943647495492,6.618641174439801,0 79.94383604462789,6.618259627519071,0 79.94395167564883,6.617966553940631,0 79.94409590938298,6.617535319409373,0 79.94422937769994,6.617240817192098,0 79.94434803039488,6.616973818343233,0 79.94453072741089,6.61658081728759,0 79.94468690222533,6.616248508258026,0 79.94482642314446,6.615963285119414,0 79.94503732505264,6.615535799913371,0 79.94527139349839,6.615123514101527,0 79.94551961623311,6.614655733484642,0 79.9457239126708,6.614253859381507,0 79.94587056023929,6.613964453553514,0 79.94606533331172,6.61355119696633,0 79.94625562056147,6.613151878422642,0 79.94641541220369,6.612824485017438,0 79.94658623200594,6.612469376035323,0 79.94678342354919,6.612088836425468,0 79.9469494289297,6.611700393339162,0 79.94697793297786,6.611637352839403,0 79.94707804729975,6.611656295938616,0 
			</coordinates>
		</LineString>
		<atom:link rel="app" href="https://www.google.com/earth/about/versions/#earth-pro" title="Google Earth Pro 7.3.7.1155"></atom:link>
	</Placemark>
</Document>
</kml>
