<?xml version="1.0" encoding="UTF-8"?>
<kml xmlns="http://www.opengis.net/kml/2.2" xmlns:gx="http://www.google.com/kml/ext/2.2" xmlns:kml="http://www.opengis.net/kml/2.2" xmlns:atom="http://www.w3.org/2005/Atom">
<Document>
	<name>082014.kml</name>
	<StyleMap id="m_ylw-pushpin">
		<Pair>
			<key>normal</key>
			<styleUrl>#s_ylw-pushpin</styleUrl>
		</Pair>
		<Pair>
			<key>highlight</key>
			<styleUrl>#s_ylw-pushpin_hl</styleUrl>
		</Pair>
	</StyleMap>
	<Style id="s_ylw-pushpin">
		<IconStyle>
			<scale>1.1</scale>
			<Icon>
				<href>http://maps.google.com/mapfiles/kml/pushpin/ylw-pushpin.png</href>
			</Icon>
			<hotSpot x="20" y="2" xunits="pixels" yunits="pixels"/>
		</IconStyle>
	</Style>
	<Style id="s_ylw-pushpin_hl">
		<IconStyle>
			<scale>1.3</scale>
			<Icon>
				<href>http://maps.google.com/mapfiles/kml/pushpin/ylw-pushpin.png</href>
			</Icon>
			<hotSpot x="20" y="2" xunits="pixels" yunits="pixels"/>
		</IconStyle>
	</Style>
	<Placemark>
		<name>08/2014</name>
		<styleUrl>#m_ylw-pushpin</styleUrl>
		<LineString>
			<tessellate>1</tessellate>
			<coordinates>
				79.93626061975671,6.638314019791864,0 79.93634674183005,6.638210478579222,0 79.93642092950213,6.638016293326958,0 79.93650844742224,6.637744203179233,0 79.93658678784379,6.637479015807907,0 79.93658773429262,6.637472637466987,0 79.93669713262906,6.637175336862917,0 79.93680615272402,6.636878268885908,0 79.93691210141941,6.63652257560387,0 79.93699507241169,6.636288029600554,0 79.93707873985308,6.635964389648625,0 79.93715430380028,6.635701883062479,0 79.93723058858855,6.635398139366036,0 79.93728527898746,6.635218915577796,0 79.93735571427339,6.635002192324949,0 79.93746310223038,6.634633604109414,0 79.93755100704148,6.634389431210823,0 79.93770274651436,6.634030656986818,0 79.93785352345999,6.633679495644708,0 79.9379903726806,6.633360700892907,0 79.93812694870768,6.632996579560031,0 79.93822778348502,6.632760347261995,0 79.93830427319271,6.632615376849235,0 79.93837606356024,6.632449698802924,0 79.93842805819135,6.632349216214913,0 79.93850198431306,6.632192541111859,0 79.93856375627757,6.632038875129297,0 79.93859981641201,6.631937822512234,0 79.93864506381838,6.631804468922087,0 79.9387144666136,6.631642701935793,0 79.93883378590436,6.631379309615289,0 79.93892307243915,6.631174137651679,0 79.93902105165282,6.630916940371212,0 79.93912210208464,6.630633107143467,0 79.93922384426541,6.630355658097162,0 79.9393320480593,6.630082577711289,0 79.93941562620201,6.62985258681103,0 79.93951071096609,6.629551361446626,0 79.93956810479567,6.629350595886229,0 79.93969212979067,6.62888737689831,0 79.93982793741191,6.628428591067415,0 79.93996681347026,6.627992404242562,0 79.94007042060385,6.627708440550205,0 79.94019710366886,6.627320646311052,0 79.94041351774747,6.626791790213701,0 79.94061919403798,6.626246451364786,0 79.94079062318178,6.625671885547344,0 79.94099555301572,6.625186402133538,0 79.94122030456774,6.624664262523817,0 79.94146578175598,6.624125883686047,0 79.94162544044472,6.623660650754419,0 79.94182801891778,6.623148965685604,0 79.94202155718048,6.622719752070174,0 79.94224983129961,6.622216556366876,0 79.94242528817168,6.62179691871073,0 79.94266110956187,6.621234442860694,0 79.94287154386269,6.620735669769566,0 79.94311633127563,6.620057044805262,0 79.94333735498978,6.619477840973039,0 79.94355298870151,6.618885037289535,0 79.9438121721204,6.61817375843215,0 79.94402225836386,6.617647658519758,0 79.94401761032574,6.617647667099942,0 79.94425458283372,6.617103913912938,0 79.94452054007941,6.616491075274999,0 79.94478945248427,6.61599728731946,0 79.94500844075615,6.615608905608428,0 79.94549254542173,6.614654758971387,0 79.94576424149921,6.614097096393849,0 79.94602962834738,6.613554372248876,0 79.94635053610577,6.61296687481087,0 79.94635097655332,6.612957303487248,0 79.94652262808962,6.612546426630155,0 79.94668442295961,6.61214884854324,0 79.94685506307657,6.611783286803343,0 79.94691671493055,6.611623186949577,0 79.94708386998718,6.611653855372034,0 
			</coordinates>
		</LineString>
		<atom:link rel="app" href="https://www.google.com/earth/about/versions/#earth-pro" title="Google Earth Pro 7.3.7.1155"></atom:link>
	</Placemark>
</Document>
</kml>
