<?xml version="1.0" encoding="UTF-8"?>
<kml xmlns="http://www.opengis.net/kml/2.2" xmlns:gx="http://www.google.com/kml/ext/2.2" xmlns:kml="http://www.opengis.net/kml/2.2" xmlns:atom="http://www.w3.org/2005/Atom">
<Document>
	<name>082015.kml</name>
	<StyleMap id="m_ylw-pushpin">
		<Pair>
			<key>normal</key>
			<styleUrl>#s_ylw-pushpin</styleUrl>
		</Pair>
		<Pair>
			<key>highlight</key>
			<styleUrl>#s_ylw-pushpin_hl</styleUrl>
		</Pair>
	</StyleMap>
	<Style id="s_ylw-pushpin">
		<IconStyle>
			<scale>1.1</scale>
			<Icon>
				<href>http://maps.google.com/mapfiles/kml/pushpin/ylw-pushpin.png</href>
			</Icon>
			<hotSpot x="20" y="2" xunits="pixels" yunits="pixels"/>
		</IconStyle>
	</Style>
	<Style id="s_ylw-pushpin_hl">
		<IconStyle>
			<scale>1.3</scale>
			<Icon>
				<href>http://maps.google.com/mapfiles/kml/pushpin/ylw-pushpin.png</href>
			</Icon>
			<hotSpot x="20" y="2" xunits="pixels" yunits="pixels"/>
		</IconStyle>
	</Style>
	<Placemark>
		<name>08/2015</name>
		<visibility>0</visibility>
		<styleUrl>#m_ylw-pushpin</styleUrl>
		<LineString>
			<tessellate>1</tessellate>
			<coordinates>
				79.93625866192988,6.63829922799277,0 79.93632457144615,6.638232119499433,0 79.9363978449507,6.638046047076012,0 79.93647627533929,6.637775432884569,0 79.93657430901465,6.637479880329054,0 79.93667260061794,6.637183997650959,0 79.93677329773644,6.636911588387216,0 79.93684930519862,6.636717719520314,0 79.93693235569663,6.636487439471688,0 79.93698542730091,6.636296216500207,0 79.93706102755095,6.63608045379676,0 79.93713852449166,6.63588219575086,0 79.93719831572886,6.635690438940729,0 79.93724551461023,6.635530226099437,0 79.93734394095107,6.635196562277947,0 79.93741783210294,6.634898272697008,0 79.93747181820983,6.634661172371499,0 79.93750986528282,6.634486708318229,0 79.93756190539571,6.634393856372655,0 79.93757461185002,6.634275711296731,0 79.93763097647407,6.634105628023452,0 79.93768753506134,6.63391829269287,0 79.93776915411723,6.633758675198114,0 79.93782599824318,6.633614638170577,0 79.93789534030064,6.633403718713303,0 79.93797882868041,6.633186948710531,0 79.93810934688952,6.632843437484961,0 79.93822604065596,6.632547638023658,0 79.93834518651556,6.632286450345966,0 79.93842899720553,6.632067590220545,0 79.93856194156959,6.63175054573014,0 79.93864022890638,6.631533656914701,0 79.93874306567206,6.631251435904855,0 79.93886546858988,6.631065899708666,0 79.9389294431794,6.630922187827823,0 79.9390237575751,6.630697161251646,0 79.93908800035834,6.630495246816093,0 79.93916232454183,6.630294900484382,0 79.93925145676175,6.63006375883953,0 79.93932230681641,6.629868206951936,0 79.93941507388018,6.629618614084495,0 79.93950317474635,6.629330583238219,0 79.93959133653198,6.62903058397351,0 79.93965011362985,6.628840747163544,0 79.93973871259691,6.628563257142077,0 79.93981679756135,6.628308556264408,0 79.93987203229044,6.628102909193792,0 79.93993443353219,6.627995079594706,0 79.93997346491324,6.627896094561642,0 79.94004730094093,6.62767082610941,0 79.94004744041807,6.627668300642518,0 79.94012429962777,6.627490205646424,0 79.94016481108571,6.627382657726749,0 79.94022419263068,6.627222759725142,0 79.94030861340727,6.627047636881839,0 79.94036229614797,6.626853607561204,0 79.94041114885496,6.626703218336178,0 79.94049015348105,6.626477521066267,0 79.94053881472141,6.626326518070904,0 79.94062859649704,6.626088309409797,0 79.9407032884488,6.625887513465995,0 79.94078622837914,6.625700614868035,0 79.94088881208991,6.625464371677708,0 79.94096932059085,6.625273176300372,0 79.94105952366894,6.625054302555575,0 79.94116021464012,6.624755380346027,0 79.941216576703,6.62460952518191,0 79.94128330073504,6.624413998005648,0 79.94136328961233,6.624201760468812,0 79.94136970412994,6.624189150516018,0 79.9413739644246,6.624174074861928,0 79.94137760757911,6.624164052600135,0 79.94138094227385,6.624156550257683,0 79.94139002168068,6.624141580626592,0 79.94139605676773,6.62413163037458,0 79.94140236985105,6.624119227995876,0 79.94141137126994,6.624104390493076,0 79.94141465261002,6.624096993794887,0 79.94142332375436,6.624084688483821,0 79.94142715394075,6.624072428957926,0 79.94143040889877,6.624065088547335,0 79.94143393913919,6.624055323001596,0 79.94143829862648,6.624038291790467,0 79.9414444800983,6.624026163057148,0 79.94145091814529,6.624011657121522,0 79.94145549279902,6.623992402466942,0 79.9414616153617,6.623980407188103,0 79.94146745190399,6.623970834065833,0 79.94147354121425,6.62395890123784,0 79.94148224758079,6.623944624504282,0 79.94148777386175,6.623937502340537,0 79.9414911839047,6.623928033132838,0 79.94149957012115,6.623916219019446,0 79.94150531772539,6.623906794138631,0 79.94151366190314,6.623895041131517,0 79.94151937850501,6.623885664816533,0 79.94152533060365,6.62387397699928,0 79.94152867139711,6.623864653547267,0 79.9415345949201,6.623853025786381,0 79.94153816045663,6.623841435785658,0 79.94154147330488,6.623832186598554,0 79.94154735502214,6.623820651334977,0 79.94155088825474,6.623809153405416,0 79.94155160554209,6.623802273029308,0 79.94155536228725,6.623788542814049,0 79.94155910622736,6.623774859196724,0 79.9415646874571,6.62376575650961,0 79.9415681723692,6.623754413862741,0 79.94157164740899,6.623743103169874,0 79.94157719252428,6.623734072107474,0 79.94158064615324,6.623722818605237,0 79.94158616714915,6.623713833145424,0 79.94158959943151,6.623702636401285,0 79.94159279807018,6.623693700712523,0 79.94159850769451,6.623682555784789,0 79.9416019093302,6.623671446473828,0 79.941605081744,6.623662580473603,0 79.94161303822506,6.6236515179426,0 79.94161640645966,6.623640495054868,0 79.94162411144914,6.623631689096297,0 79.94170465486195,6.623412098562017,0 79.94182308221691,6.623123257606916,0 79.94190162658442,6.622935244224515,0 79.94197914434237,6.622755325449177,0 79.94204615152172,6.622590131933963,0 79.94209469660717,6.622507188517199,0 79.9421483204294,6.622370133504384,0 79.94221271961952,6.622183363226193,0 79.94228706311944,6.62200653176553,0 79.94233693361286,6.621839282811557,0 79.94239725724715,6.621692108235579,0 79.94248236363785,6.621522151512337,0 79.94257152510096,6.621335399422758,0 79.94264650067855,6.621129844215101,0 79.94271641811261,6.620954139928885,0 79.94281697524777,6.620670799754086,0 79.94287406563167,6.620563843099387,0 79.94291791885476,6.620474729202106,0 79.94298523105115,6.620304408633547,0 79.94303334776305,6.620158438961501,0 79.94309082157284,6.620004904577404,0 79.94316346970776,6.619875870169678,0 79.94316569790654,6.619802298374091,0 79.94323767369424,6.619640144972252,0 79.9432726861221,6.619502504732185,0 79.94332743231126,6.619359273437165,0 79.94338922874675,6.619202286543394,0 79.94344548055747,6.619081744027978,0 79.94353302525003,6.618864019981401,0 79.94360244381286,6.618691656159481,0 79.94367831381795,6.618492761977514,0 79.94381126133344,6.6181174905131,0 79.9438932608148,6.617889669337999,0 79.94402744728977,6.617583680942056,0 79.94411446362129,6.617356235651594,0 79.94421698732553,6.617133043632322,0 79.9443040419317,6.616930450076428,0 79.94440456314285,6.616736181753545,0 79.94448462509129,6.616541455773912,0 79.94459981398043,6.616289667379153,0 79.9446000950759,6.616287309982901,0 79.94467912456668,6.616150463249321,0 79.9448005144483,6.615878187039824,0 79.94497761170713,6.615507815699498,0 79.94515509258179,6.615145945353915,0 79.94525960723942,6.614904637869787,0 79.94538360324347,6.614709818469904,0 79.94548046666922,6.614539583900356,0 79.9455915901126,6.614360280420229,0 79.94565838807482,6.614247374266184,0 79.94574241276003,6.614100755641262,0 79.94587656673113,6.613805490060418,0 79.94595472192691,6.613645976051751,0 79.94607475275124,6.613377918631079,0 79.94614719833518,6.613198127716312,0 79.94619899861455,6.613066583740015,0 79.9463526441891,6.612649906911767,0 79.94645993866503,6.612371114214879,0 79.94657528322494,6.6121242332153,0 79.94665529168336,6.611937020098098,0 79.94673190033922,6.611778929605536,0 79.94680802259022,6.611631244432412,0 79.94683513498329,6.611586173074937,0 79.9470754696414,6.611657976325,0 
			</coordinates>
		</LineString>
		<atom:link rel="app" href="https://www.google.com/earth/about/versions/#earth-pro" title="Google Earth Pro 7.3.7.1155"></atom:link>
	</Placemark>
</Document>
</kml>
