<?xml version="1.0" encoding="UTF-8"?>
<kml xmlns="http://www.opengis.net/kml/2.2" xmlns:gx="http://www.google.com/kml/ext/2.2" xmlns:kml="http://www.opengis.net/kml/2.2" xmlns:atom="http://www.w3.org/2005/Atom">
<Document>
	<name>112022.kml</name>
	<StyleMap id="m_ylw-pushpin">
		<Pair>
			<key>normal</key>
			<styleUrl>#s_ylw-pushpin</styleUrl>
		</Pair>
		<Pair>
			<key>highlight</key>
			<styleUrl>#s_ylw-pushpin_hl</styleUrl>
		</Pair>
	</StyleMap>
	<Style id="s_ylw-pushpin">
		<IconStyle>
			<scale>1.1</scale>
			<Icon>
				<href>http://maps.google.com/mapfiles/kml/pushpin/ylw-pushpin.png</href>
			</Icon>
			<hotSpot x="20" y="2" xunits="pixels" yunits="pixels"/>
		</IconStyle>
	</Style>
	<Style id="s_ylw-pushpin_hl">
		<IconStyle>
			<scale>1.3</scale>
			<Icon>
				<href>http://maps.google.com/mapfiles/kml/pushpin/ylw-pushpin.png</href>
			</Icon>
			<hotSpot x="20" y="2" xunits="pixels" yunits="pixels"/>
		</IconStyle>
	</Style>
	<Placemark>
		<name>11/2022</name>
		<styleUrl>#m_ylw-pushpin</styleUrl>
		<LineString>
			<tessellate>1</tessellate>
			<coordinates>
				79.93620490141399,6.638271449910666,0 79.93623297595737,6.638163343030783,0 79.93628118060469,6.638035302268224,0 79.93633374307593,6.637905444560867,0 79.93639139559163,6.637763545875432,0 79.93645607168152,6.637610964722753,0 79.93651006015125,6.637476038937276,0 79.93656329240186,6.637310998002001,0 79.93662340079484,6.637170942262289,0 79.93666820612782,6.637043407317431,0 79.93670917784279,6.636919523096087,0 79.93674633482614,6.636801715782385,0 79.93676069067918,6.636677090903023,0 79.93676096424545,6.636672082666465,0 79.93680564145635,6.636522169908486,0 79.93684215911736,6.636370696991634,0 79.93688962022023,6.636216268455941,0 79.93694439600954,6.636100751579195,0 79.93699803682264,6.635975731297803,0 79.93705452900623,6.635878838803163,0 79.93708332345668,6.63576400190944,0 79.93714841619999,6.635619559667234,0 79.93719147560748,6.635509985333655,0 79.93724947898811,6.635322298008377,0 79.93728857423463,6.63511903547489,0 79.93732434363629,6.634993736562293,0 79.93732424347249,6.634986338913363,0 79.93737110983984,6.634878970761871,0 79.93740394315329,6.634800505280047,0 79.93744088481343,6.634685487367565,0 79.9374623165146,6.634593244969629,0 79.93749258530063,6.634507839868046,0 79.93756401277189,6.634346611857345,0 79.93760110284376,6.634209559803121,0 79.93764127700176,6.634091668306308,0 79.93764160426259,6.634084257129445,0 79.93768062125342,6.633969850941459,0 79.93776565665246,6.633740814953443,0 79.93781683087084,6.633609704566482,0 79.93791986080701,6.633320660658887,0 79.93799513287018,6.633135337753414,0 79.93805303592897,6.632980506511477,0 79.93816666909157,6.632762781670749,0 79.93822450768795,6.632618626042351,0 79.938289634558,6.632486632748497,0 79.93837237720638,6.632300937593626,0 79.93844477806942,6.632144241420073,0 79.93848917667022,6.632042138734621,0 79.93857118042381,6.631861914320045,0 79.9386412741645,6.631722902550254,0 79.93871660382592,6.631585925178827,0 79.93880201414157,6.631396755095379,0 79.9388661678947,6.631239670235948,0 79.93891858776273,6.631083679700949,0 79.93898442360512,6.630913368162474,0 79.93906771909315,6.630697033505196,0 79.93913818256752,6.630512479956769,0 79.93918759738752,6.630405082222752,0 79.9392496075324,6.63025956881496,0 79.93931225551744,6.630084995477619,0 79.93935286182477,6.629947347850035,0 79.93942216502101,6.629760556446084,0 79.93944868365087,6.629652700370987,0 79.93947883456084,6.629524185486575,0 79.9395233512704,6.629359550828027,0 79.93955030527742,6.629220392688628,0 79.93958113736542,6.629085846778573,0 79.93961549438417,6.629032802303217,0 79.93964455402525,6.628982721050784,0 79.93968301868631,6.628886443732245,0 79.939726721329,6.628774525723522,0 79.93978024885496,6.628642476694766,0 79.93980603911861,6.628554209223327,0 79.93984213827399,6.628436142789226,0 79.9398614628393,6.628364048233897,0 79.93989058201643,6.628249712339215,0 79.93994239964238,6.628110886457831,0 79.93996200125446,6.628009671290496,0 79.93999349496673,6.627913340886497,0 79.94002176762928,6.627824099803352,0 79.94006372345588,6.627718983175076,0 79.94011839786955,6.627643754125867,0 79.94013919474683,6.627569840054426,0 79.94017847702226,6.627461331489237,0 79.94021382913628,6.627370510894049,0 79.94024080389121,6.627291422720344,0 79.94030313603653,6.627091174623786,0 79.94035651110842,6.626991365786246,0 79.94039410268982,6.626878235848269,0 79.94043526275324,6.626780719138774,0 79.94046323212559,6.626682957324768,0 79.94050823836615,6.626536621840904,0 79.94055133196734,6.626416898618749,0 79.94059285072676,6.626325522631699,0 79.94064565943177,6.626245947433663,0 79.94070896917225,6.626051623747729,0 79.94076705193069,6.625938766203029,0 79.94082113296679,6.625828852798937,0 79.94088546058184,6.625670459762792,0 79.94092949618221,6.625576865734712,0 79.94100853549337,6.625366059612828,0 79.94107110819103,6.625171371830208,0 79.94113820353863,6.624983027388098,0 79.94121012321487,6.624778622393362,0 79.9412949650241,6.624524515038402,0 79.94136045426161,6.624358300968097,0 79.94147784934438,6.624072478542763,0 79.94158036031733,6.623832100508193,0 79.94165206071305,6.623645877512604,0 79.94177757747109,6.623350376780246,0 79.94185669840725,6.62318491012685,0 79.94191040817316,6.623074836619645,0 79.94197837382301,6.622916767395386,0 79.94202378477382,6.622791689198145,0 79.94206515050099,6.622677485863248,0 79.94215087572329,6.62241384372614,0 79.94219344782681,6.622230099891198,0 79.94228833370575,6.622002627376984,0 79.94238920994307,6.621790855800587,0 79.94245362719306,6.621620132930236,0 79.94254665129922,6.621402098142245,0 79.94260779288447,6.62119750120929,0 79.94271048199313,6.620912570570075,0 79.94278478753172,6.620763930363698,0 79.9428839113223,6.620561488751511,0 79.94294691038644,6.620435843653836,0 79.9430199196061,6.620225628576303,0 79.94307129307397,6.620038980401059,0 79.94317072680798,6.619811567416322,0 79.94324297971727,6.619617552341047,0 79.94329904850473,6.619511836559346,0 79.94339564102432,6.619249974674372,0 79.94345526297661,6.619099386645384,0 79.94356430492616,6.618882216484259,0 79.94361834451166,6.618761880425952,0 79.94366874134791,6.618639087763328,0 79.9437829372435,6.618379714186559,0 79.94384091360793,6.618195323479966,0 79.94390093628054,6.618052581153155,0 79.9439993434794,6.617842365841212,0 79.94406607022704,6.617690097800528,0 79.94420372283399,6.617464809206815,0 79.94429410867113,6.617300611516193,0 79.94440834324375,6.617051393629767,0 79.94450710462931,6.616855012088557,0 79.94460168090121,6.616626266075899,0 79.94466491109503,6.61648256370225,0 79.94473487130254,6.616380823788009,0 79.94477983308568,6.616241293263845,0 79.94482487402645,6.616129909078273,0 79.94487023857772,6.616030765158592,0 79.9449509508292,6.61586557975669,0 79.94502277704817,6.615668452165766,0 79.94512186892321,6.615410827245563,0 79.94520030770627,6.615290932194663,0 79.94524153204655,6.615192113711449,0 79.94529046397474,6.615081841007945,0 79.94537457291563,6.614910714829834,0 79.94543457274271,6.614788822849216,0 79.9455434432701,6.614565970787751,0 79.9456652426818,6.614303247008994,0 79.945759253905,6.614121936468323,0 79.94588628699444,6.613898838292711,0 79.9459476483879,6.613756674567451,0 79.94607054083504,6.613482454513946,0 79.94615748760098,6.613277771005238,0 79.94626545160521,6.613003957094102,0 79.94637379006862,6.612736536838501,0 79.94644900184325,6.61254108031816,0 79.94655508294257,6.612277929882011,0 79.9465881853997,6.612193166107501,0 79.94663425424454,6.612118714409451,0 79.94667723112255,6.612045948623257,0 79.94673990272607,6.61192531808624,0 79.94674028946923,6.611921088879541,0 79.94678713124102,6.611817090487802,0 79.94682617877108,6.611744234315139,0 79.94685975669692,6.611653513629894,0 79.94688872381438,6.611580485642406,0 79.94707620863281,6.611646624375811,0 
			</coordinates>
		</LineString>
		<atom:link rel="app" href="https://www.google.com/earth/about/versions/#earth-pro" title="Google Earth Pro 7.3.7.1155"></atom:link>
	</Placemark>
</Document>
</kml>
