<?xml version="1.0" encoding="UTF-8"?>
<kml xmlns="http://www.opengis.net/kml/2.2" xmlns:gx="http://www.google.com/kml/ext/2.2" xmlns:kml="http://www.opengis.net/kml/2.2" xmlns:atom="http://www.w3.org/2005/Atom">
<Document>
	<name>112013.kml</name>
	<StyleMap id="m_ylw-pushpin">
		<Pair>
			<key>normal</key>
			<styleUrl>#s_ylw-pushpin</styleUrl>
		</Pair>
		<Pair>
			<key>highlight</key>
			<styleUrl>#s_ylw-pushpin_hl</styleUrl>
		</Pair>
	</StyleMap>
	<Style id="s_ylw-pushpin">
		<IconStyle>
			<scale>1.1</scale>
			<Icon>
				<href>http://maps.google.com/mapfiles/kml/pushpin/ylw-pushpin.png</href>
			</Icon>
			<hotSpot x="20" y="2" xunits="pixels" yunits="pixels"/>
		</IconStyle>
	</Style>
	<Style id="s_ylw-pushpin_hl">
		<IconStyle>
			<scale>1.3</scale>
			<Icon>
				<href>http://maps.google.com/mapfiles/kml/pushpin/ylw-pushpin.png</href>
			</Icon>
			<hotSpot x="20" y="2" xunits="pixels" yunits="pixels"/>
		</IconStyle>
	</Style>
	<Placemark>
		<name>112013</name>
		<visibility>0</visibility>
		<styleUrl>#m_ylw-pushpin</styleUrl>
		<LineString>
			<tessellate>1</tessellate>
			<coordinates>
				79.93626639432651,6.6383215792065,0 79.93631462533608,6.63824596411703,0 79.93642203806745,6.637871359246739,0 79.93663869694379,6.637200716432776,0 79.93682060253684,6.636633243577713,0 79.93695962211865,6.63613477302952,0 79.93708505279983,6.635685606754309,0 79.93722998084218,6.635180765536595,0 79.93736570249779,6.634808953246783,0 79.93747180267209,6.634514368544011,0 79.93764686691587,6.634042727661522,0 79.93775042956442,6.63368074125813,0 79.93790041968249,6.633312101080875,0 79.93800494168705,6.632977594077924,0 79.93813979247031,6.63271897190151,0 79.93830970671648,6.632414818058217,0 79.93838322582914,6.632300975238332,0 79.93842664791683,6.6321514578145,0 79.93859993082525,6.631751785697871,0 79.93868661049585,6.631549364991642,0 79.93880137650841,6.631281733965556,0 79.93892604460389,6.631031444628685,0 79.93911760270431,6.630577901172838,0 79.93927006301232,6.630147515196681,0 79.93942510100197,6.629669569340058,0 79.93952254449607,6.629328611910086,0 79.9396792781845,6.628788860451571,0 79.93981832366359,6.628424520120525,0 79.93993730681498,6.628042101959331,0 79.94007683803845,6.6276023923978,0 79.94022608638041,6.627225605624767,0 79.94036959553729,6.626866683563354,0 79.94054260657391,6.626429544627863,0 79.94065113999326,6.626061337240306,0 79.94073763194228,6.625774202722882,0 79.94086217862672,6.625430583556753,0 79.94103903907759,6.625043715358883,0 79.94126462064263,6.624555092570493,0 79.94145775720091,6.624086873910149,0 79.94162901633912,6.623603224850106,0 79.94179043998544,6.623182292207209,0 79.94194039641327,6.622765292832138,0 79.94211649974665,6.622291584998587,0 79.94227488235609,6.621941113850061,0 79.94258738764607,6.62119635734943,0 79.94289318956012,6.620556442111294,0 79.94311431424161,6.620033972493579,0 79.94336680293318,6.619386769975907,0 79.94357513797588,6.618904068681369,0 79.94374761414285,6.618376551320073,0 79.94391254665186,6.617987335035041,0 79.94412586918907,6.617471655308756,0 79.94434219139663,6.616987945276955,0 79.94455900810327,6.61655142166923,0 79.94482615279077,6.616050716019862,0 79.94488181933116,6.615917211427267,0 79.94493229954189,6.615728391129807,0 79.94522965953395,6.615107151468573,0 79.9453903864438,6.614796717273114,0 79.94557077196529,6.614492066161568,0 79.94575197706955,6.614164318851381,0 79.94585963128409,6.614008557750255,0 79.9460051188732,6.613720474579028,0 79.94619827582534,6.613293537450829,0 79.94631636028778,6.612984000613791,0 79.94645634362315,6.612609667622888,0 79.94659849280751,6.612205983309369,0 79.9467561589173,6.61178509231336,0 79.94683891750469,6.611593744243974,0 79.94708789675103,6.611686162263707,0 
			</coordinates>
		</LineString>
		<atom:link rel="app" href="https://www.google.com/earth/about/versions/#earth-pro" title="Google Earth Pro 7.3.7.1155"></atom:link>
	</Placemark>
</Document>
</kml>
