<?xml version="1.0" encoding="UTF-8"?>
<kml xmlns="http://www.opengis.net/kml/2.2" xmlns:gx="http://www.google.com/kml/ext/2.2" xmlns:kml="http://www.opengis.net/kml/2.2" xmlns:atom="http://www.w3.org/2005/Atom">
<Document>
	<name>112018.kml</name>
	<StyleMap id="m_ylw-pushpin">
		<Pair>
			<key>normal</key>
			<styleUrl>#s_ylw-pushpin</styleUrl>
		</Pair>
		<Pair>
			<key>highlight</key>
			<styleUrl>#s_ylw-pushpin_hl</styleUrl>
		</Pair>
	</StyleMap>
	<Style id="s_ylw-pushpin">
		<IconStyle>
			<scale>1.1</scale>
			<Icon>
				<href>http://maps.google.com/mapfiles/kml/pushpin/ylw-pushpin.png</href>
			</Icon>
			<hotSpot x="20" y="2" xunits="pixels" yunits="pixels"/>
		</IconStyle>
	</Style>
	<Style id="s_ylw-pushpin_hl">
		<IconStyle>
			<scale>1.3</scale>
			<Icon>
				<href>http://maps.google.com/mapfiles/kml/pushpin/ylw-pushpin.png</href>
			</Icon>
			<hotSpot x="20" y="2" xunits="pixels" yunits="pixels"/>
		</IconStyle>
	</Style>
	<Placemark>
		<name>11/2018</name>
		<styleUrl>#m_ylw-pushpin</styleUrl>
		<LineString>
			<tessellate>1</tessellate>
			<coordinates>
				79.93620003121256,6.638280990814243,0 79.93626406632197,6.638135749460899,0 79.93633146188895,6.637956932955746,0 79.93639068405672,6.63782990837998,0 79.93647006017983,6.637628982183832,0 79.93651889283322,6.637447785317356,0 79.93659749930643,6.637212994810648,0 79.93670205928449,6.63691520928155,0 79.93675865192792,6.636645818525716,0 79.93684847953917,6.636341748418117,0 79.93689746716606,6.636128917692633,0 79.93693522542375,6.635986075293726,0 79.93698415330472,6.635861990795285,0 79.93701660499075,6.635728387867772,0 79.93701669381589,6.635726858318793,0 79.93706306273818,6.635614677375151,0 79.93709482700271,6.635488960770767,0 79.93713459129285,6.635394875135718,0 79.93716073707596,6.635275515341449,0 79.93718994518726,6.635197054567873,0 79.9372261302361,6.635107574293336,0 79.93726844264307,6.635019302971607,0 79.93728630685213,6.634924805036727,0 79.937311502076,6.634821433963077,0 79.93734595408606,6.634723705980392,0 79.93737684719579,6.634630789024595,0 79.93737706414895,6.634625990348609,0 79.93739801958723,6.6345288251773,0 79.93743983203707,6.634450178178133,0 79.93746170333245,6.634376761918046,0 79.93746997519388,6.634304499593481,0 79.937509070978,6.634212811182048,0 79.93752881737373,6.634115602249786,0 79.93758046692277,6.634018952853543,0 79.93761248874421,6.633919840131955,0 79.93765800122769,6.633792882988891,0 79.93769195371215,6.63367254206719,0 79.93772230239767,6.633569502896024,0 79.93775944040738,6.633421703548889,0 79.93776781907088,6.633360991876607,0 79.93779332492034,6.633285282256287,0 79.93782182256376,6.633223460976185,0 79.93784534686694,6.6330992433402,0 79.93789308678865,6.633039603195605,0 79.93790275199758,6.633001145531046,0 79.93791658141092,6.63293786843518,0 79.93795830888541,6.632821314990659,0 79.93800513201006,6.63273269200411,0 79.93806957687879,6.632623143306938,0 79.93810368425183,6.632542470284433,0 79.93815090425355,6.632465140386431,0 79.93818109526397,6.632411118940838,0 79.93819917800667,6.632345199284557,0 79.93823367198701,6.632290835518037,0 79.93826792694944,6.632208305860081,0 79.93831777090161,6.63208759252822,0 79.9383903507869,6.631953616786944,0 79.93845194883023,6.63181372646544,0 79.93850690313899,6.631692957033064,0 79.93857292314831,6.631539092465626,0 79.93863441967578,6.631405263943965,0 79.93871604819878,6.631218888569032,0 79.93875223116157,6.63113661825777,0 79.93879439065952,6.631057735006938,0 79.93882153058837,6.630993999180561,0 79.93883787376795,6.630922119184522,0 79.93887982403241,6.630843452120436,0 79.93890175761322,6.630751204173128,0 79.93892542139814,6.630699267457517,0 79.93895077922532,6.630606461094134,0 79.93898704287872,6.630508076231829,0 79.93901495063386,6.630435501676215,0 79.93904821264454,6.63038592979032,0 79.93908118470345,6.63032480295207,0 79.93910060780888,6.630281475000507,0 79.93910919396929,6.630223266024267,0 79.93913900176349,6.630171634236275,0 79.93916817485211,6.630085141829118,0 79.93917349168156,6.630020493705134,0 79.93919422540895,6.629979459721718,0 79.93922330929568,6.629944033104287,0 79.93923552929155,6.629882301039935,0 79.93927235991492,6.629851217610321,0 79.93929280637182,6.629781172410137,0 79.93929666807658,6.62972871117036,0 79.93930634042771,6.629677641206134,0 79.93933129997566,6.629612379690379,0 79.93937204797218,6.629566712089404,0 79.9394039653765,6.6294975328566,0 79.9394280297598,6.629457820444283,0 79.93944635060372,6.629398869262986,0 79.93946974363011,6.62932700682722,0 79.93949941547361,6.629243838127642,0 79.93952240535683,6.629171475363823,0 79.93954064730062,6.629093170185675,0 79.93956933236205,6.629003424038118,0 79.93959258832562,6.628920758889845,0 79.93962625556676,6.628855125803311,0 79.93965352969994,6.628776775834396,0 79.93966611272943,6.628720906870136,0 79.93969423814551,6.628633045692803,0 79.93972351312554,6.628545725454435,0 79.93975567439496,6.628457954920457,0 79.93978020490115,6.628349002414997,0 79.93980324103732,6.628288310349838,0 79.93983694246609,6.628194739876801,0 79.93985299025854,6.628127157223638,0 79.93988676971134,6.62804609570891,0 79.93991096415324,6.627977136232414,0 79.93992646287077,6.627933887490493,0 79.93994244993544,6.627909749459324,0 79.93995556566455,6.627866126517715,0 79.93997571748719,6.62781396231387,0 79.93998471345793,6.627756109006069,0 79.94000965521658,6.627680865287667,0 79.9400595501297,6.627613307489863,0 79.94007415389929,6.627541976276243,0 79.94008713851375,6.627481636222404,0 79.94012869681653,6.627410584708624,0 79.94013903613185,6.627350192054031,0 79.94017379100964,6.627272802615407,0 79.94018573181705,6.627214813545854,0 79.94021927393507,6.627123228707405,0 79.94027211365295,6.627030783755835,0 79.94030174384005,6.626975921490557,0 79.94030662753262,6.626912683188174,0 79.94034129890227,6.626803596051804,0 79.94037902821488,6.626718312971567,0 79.94039489896718,6.626661892704575,0 79.94041954889219,6.626604207848623,0 79.9404412217921,6.626569200152953,0 79.94046138673046,6.626501065636997,0 79.9404904690367,6.626399411396482,0 79.94052831784138,6.626314019465308,0 79.94055020631207,6.626228614007396,0 79.94056816642595,6.626179266951477,0 79.94058380602638,6.626151700158998,0 79.94058626680518,6.626126465606208,0 79.94060975425077,6.626060995905587,0 79.94063644939239,6.626004626543807,0 79.94065699335566,6.62596065390603,0 79.94068514326827,6.625905914585389,0 79.94068315534433,6.625903654449871,0 79.94069541511271,6.625849837804306,0 79.94071864467642,6.625794685920367,0 79.94073455334197,6.625744750689297,0 79.94075735200067,6.625672538967599,0 79.94079175263899,6.625610791959077,0 79.94078827402424,6.625601394289752,0 79.94079881085223,6.625547841769299,0 79.94079932851199,6.625543224903474,0 79.94080113478307,6.625527115258825,0 79.94083343215759,6.625456673996485,0 79.94088905426477,6.625346102600934,0 79.94091354601795,6.62527511327615,0 79.94096623444052,6.625119465415009,0 79.94100178540873,6.625043815472477,0 79.9410442190697,6.624927979180304,0 79.94109870402498,6.624797739504469,0 79.94114697421357,6.624674696080556,0 79.94119680835199,6.624544214785217,0 79.94125433521745,6.624409596383996,0 79.94130070156595,6.624259684278259,0 79.94134938823176,6.624105139480434,0 79.94140368110301,6.623979945071656,0 79.94144423800465,6.623876855077534,0 79.94152700982846,6.62369441000564,0 79.94160160436003,6.623522482153932,0 79.94168861421397,6.62335697619926,0 79.94175338305214,6.623182828811916,0 79.94183029666159,6.623047022646653,0 79.9418589200493,6.622925564695561,0 79.94191640331164,6.622769764408573,0 79.94195905174183,6.622640556822579,0 79.94200298969317,6.622505853911281,0 79.94206264050732,6.622340261803593,0 79.94212834123455,6.622186821954806,0 79.9421776073068,6.622064095793637,0 79.94224960617896,6.621879647885801,0 79.94232123837719,6.621713386752902,0 79.94238915315503,6.621574287545013,0 79.94243411464781,6.621430972062882,0 79.94249996192607,6.621266076576036,0 79.94256667653254,6.621104859786606,0 79.94262517655442,6.620992819688936,0 79.94266616632466,6.620862972417602,0 79.9427487434554,6.620667903666761,0 79.94281747507902,6.620489833014514,0 79.94285524416068,6.62039002575008,0 79.94288527105114,6.620288511826629,0 79.94296865654874,6.620093964550444,0 79.94302528732172,6.619965668241495,0 79.94306192924611,6.619864988467004,0 79.94310435866477,6.619810058067235,0 79.94311931065035,6.61971827750647,0 79.94315830356332,6.619597502505829,0 79.94321409599526,6.619520119525547,0 79.9432286982012,6.61943316728107,0 79.9432518983653,6.619351998853373,0 79.94332108428436,6.619248927159943,0 79.94332800470626,6.619164638637286,0 79.94335683425243,6.619078352099891,0 79.94341768639863,6.618990140347691,0 79.94341804750509,6.618980741121206,0 79.94344659059368,6.618876742912658,0 79.94351248876059,6.618735944788018,0 79.9435576373675,6.618612016954812,0 79.94360576450092,6.618485836138966,0 79.94367345034719,6.618335115267241,0 79.94373826551974,6.618193601761591,0 79.94379138614754,6.618046670425779,0 79.94386928273124,6.617821114363032,0 79.94394465267987,6.617652835497692,0 79.94400801674463,6.617480931337216,0 79.94409107776674,6.617323114337766,0 79.94415723560486,6.617215162739954,0 79.94423243395767,6.617046338680709,0 79.94429143144536,6.616909497763476,0 79.94433781673825,6.616806133012907,0 79.94441056977624,6.616620881061606,0 79.94450381357075,6.616428091714012,0 79.94457711886473,6.61629369343616,0 79.94465898160098,6.616133448031698,0 79.94480332762403,6.61593112529486,0 79.94492290892759,6.615708842737649,0 79.9450048576753,6.615547843439617,0 79.9450787521622,6.615338312769569,0 79.94517782864442,6.615119270886468,0 79.94527872761368,6.614939291792381,0 79.94537849355353,6.61469886188635,0 79.94551383916765,6.6144341194976,0 79.94559610615308,6.614285128578632,0 79.94565249916377,6.614132815111232,0 79.94576551984713,6.613888302895417,0 79.94589611594135,6.613637566440058,0 79.94609087583476,6.613277260593176,0 79.94622411044244,6.612963020232804,0 79.94629447645015,6.61272923028605,0 79.9463782534504,6.612564727818687,0 79.94644877908094,6.612390876605765,0 79.94652718400783,6.612204490967759,0 79.94659163749958,6.612018828721179,0 79.94659226401765,6.612006279007272,0 79.94659320009168,6.611987528601905,0 79.9466545860471,6.611855673458998,0 79.94670315699931,6.611713583059654,0 79.94675746872652,6.61160471014291,0 79.94681762884309,6.611537518916436,0 79.94708757112296,6.611658596306635,0 
			</coordinates>
		</LineString>
		<atom:link rel="app" href="https://www.google.com/earth/about/versions/#earth-pro" title="Google Earth Pro 7.3.7.1155"></atom:link>
	</Placemark>
</Document>
</kml>
