<?xml version="1.0" encoding="UTF-8"?>
<kml xmlns="http://www.opengis.net/kml/2.2" xmlns:gx="http://www.google.com/kml/ext/2.2" xmlns:kml="http://www.opengis.net/kml/2.2" xmlns:atom="http://www.w3.org/2005/Atom">
<Document>
	<name>112021.kml</name>
	<StyleMap id="m_ylw-pushpin">
		<Pair>
			<key>normal</key>
			<styleUrl>#s_ylw-pushpin</styleUrl>
		</Pair>
		<Pair>
			<key>highlight</key>
			<styleUrl>#s_ylw-pushpin_hl</styleUrl>
		</Pair>
	</StyleMap>
	<Style id="s_ylw-pushpin">
		<IconStyle>
			<scale>1.1</scale>
			<Icon>
				<href>http://maps.google.com/mapfiles/kml/pushpin/ylw-pushpin.png</href>
			</Icon>
			<hotSpot x="20" y="2" xunits="pixels" yunits="pixels"/>
		</IconStyle>
	</Style>
	<Style id="s_ylw-pushpin_hl">
		<IconStyle>
			<scale>1.3</scale>
			<Icon>
				<href>http://maps.google.com/mapfiles/kml/pushpin/ylw-pushpin.png</href>
			</Icon>
			<hotSpot x="20" y="2" xunits="pixels" yunits="pixels"/>
		</IconStyle>
	</Style>
	<Placemark>
		<name>11/2021</name>
		<styleUrl>#m_ylw-pushpin</styleUrl>
		<LineString>
			<tessellate>1</tessellate>
			<coordinates>
				79.93620562848874,6.638254425414787,0 79.93622673539194,6.638168881339535,0 79.93622532256386,6.638167092630693,0 79.936270503881,6.638041423761629,0 79.93630669545908,6.637939666308802,0 79.93634595273848,6.637829430784283,0 79.93640231691671,6.637674004080619,0 79.93639936901843,6.637670425508535,0 79.93645736200189,6.637532863032159,0 79.93652223897682,6.637362234857305,0 79.93652386582181,6.637362234020484,0 79.93657142891308,6.637247551413053,0 79.93660627481917,6.637134736385319,0 79.93669500144433,6.636890277211147,0 79.93687599367767,6.636266438391479,0 79.9369358172563,6.636078903254559,0 79.93697710416313,6.635974149087944,0 79.9370205754756,6.635837155527081,0 79.93706373877704,6.635689827101875,0 79.93714224831147,6.635441703674186,0 79.93719860564048,6.635260424031958,0 79.93724521796861,6.635120964503749,0 79.9373173817102,6.634892996411038,0 79.93734776639656,6.634781466921668,0 79.93738766806501,6.634660432508378,0 79.93742080362568,6.634583474103485,0 79.93749258347439,6.634401131107355,0 79.93749316265264,6.634392848302364,0 79.93752609650296,6.634274989097518,0 79.93756752829192,6.634171653104882,0 79.93762416385138,6.63398221936589,0 79.93765550724545,6.633887307423271,0 79.93768731264456,6.63383535967189,0 79.93771823683117,6.633718223142962,0 79.93774720181214,6.633661701138482,0 79.93778026263341,6.633588361771257,0 79.93782174631986,6.633448960013054,0 79.93784660175766,6.633369533227153,0 79.93790171161415,6.633232004958962,0 79.93796544854683,6.633076993389341,0 79.9380082605707,6.632983367544393,0 79.93806924213763,6.63283667391017,0 79.93806992897538,6.632830333137523,0 79.9381319082666,6.632672570608301,0 79.93817726877106,6.632510866154131,0 79.93824817761815,6.632378896194097,0 79.93830198258003,6.632237058162712,0 79.93836185176716,6.632086300516138,0 79.93845876707447,6.63188755758804,0 79.93853793117724,6.631722921877609,0 79.93863850692908,6.631488094326357,0 79.93871552233,6.631311578085935,0 79.93881860477353,6.631099830499137,0 79.9389436404674,6.630828089559939,0 79.93903406645072,6.63056992782785,0 79.93914301664249,6.63031043234359,0 79.93926083704262,6.630011040560978,0 79.93936835407266,6.629737832402638,0 79.93948557678274,6.629381066054893,0 79.93956159687484,6.629124820757903,0 79.93958222312733,6.629038652375757,0 79.93963150729311,6.628881391323683,0 79.93963093912163,6.628872173241688,0 79.93965270847296,6.62877747936401,0 79.93971354201207,6.628560172311793,0 79.93974698729986,6.628446897852515,0 79.93984017839813,6.628237491796089,0 79.93987984406964,6.628137370253375,0 79.93992139674302,6.628007540787563,0 79.93999807339445,6.627813956808827,0 79.94003934825392,6.627658533937209,0 79.94009554500279,6.627561645845411,0 79.94012726945601,6.627465541915578,0 79.94018918433451,6.627292670261879,0 79.94021617588933,6.627187215662016,0 79.94024483415096,6.627118983691636,0 79.94024202597578,6.627117555296227,0 79.94027479893987,6.626994833604474,0 79.94032021400437,6.626914360532532,0 79.94035087938994,6.626833511527964,0 79.94040017922119,6.626689412893295,0 79.9404471268822,6.626589745687289,0 79.94050839151477,6.626483768601882,0 79.94058173786627,6.626356972084528,0 79.9406196264795,6.626282337260349,0 79.94062015122782,6.626277750026609,0 79.94067614824044,6.626126268213182,0 79.94067671865406,6.626121495394225,0 79.94073546365999,6.625969077850027,0 79.94080278590006,6.625800069962044,0 79.94084717072819,6.625675614784788,0 79.9409111698146,6.625507963324205,0 79.94095473136419,6.625381807738409,0 79.94103213738894,6.625190669047375,0 79.94107196918303,6.625068456427447,0 79.94115018467772,6.624841032854015,0 79.9411589526124,6.624767273407034,0 79.94119198017422,6.624683156691959,0 79.94123267825144,6.624576402917932,0 79.94129357563932,6.6244162196346,0 79.94134475135397,6.624258233221456,0 79.94139452355057,6.624171493024669,0 79.94139810395593,6.624101082891785,0 79.94143823021479,6.624051419880719,0 79.94146863636166,6.623955775061537,0 79.94146983218938,6.623943379580352,0 79.94151187748612,6.623799474238002,0 79.94157026397417,6.62373311183365,0 79.94162964921118,6.623646758372281,0 79.94168889728536,6.623479840532085,0 79.94168927097041,6.623475083498743,0 79.94176886311736,6.623296550450262,0 79.94184926560355,6.623101224394656,0 79.94189684866622,6.62299743282661,0 79.94198339161915,6.622851740595108,0 79.94202593049364,6.622834294619763,0 79.94209562364016,6.622781830483969,0 79.94208920427904,6.62273527206482,0 79.94208806144823,6.622728919816806,0 79.94208671751255,6.622725750318102,0 79.94209580087093,6.622608282435782,0 79.94208025816378,6.622529450282242,0 79.94214225558528,6.622380580176128,0 79.94214440404107,6.622375421187376,0 79.94219860504512,6.6222465282896,0 79.94224942355892,6.622131833724449,0 79.94225010057821,6.622124069018888,0 79.94230114935813,6.622019408476443,0 79.94236014054862,6.621887973983201,0 79.94242212262687,6.621736460609377,0 79.94248526206954,6.621573466900343,0 79.9425529197546,6.621419787212314,0 79.94262857007982,6.621230934164752,0 79.94265762712655,6.621108058762467,0 79.94269313026382,6.621017572300354,0 79.94278460357368,6.620825200266612,0 79.9428511172969,6.620668788523885,0 79.94293697165404,6.620460341634224,0 79.94299761447475,6.620324729102966,0 79.94309095701738,6.620092080750749,0 79.9431583696396,6.619902110974762,0 79.94326118984297,6.619670425849243,0 79.94333306816996,6.619516017258404,0 79.94343231966398,6.619317922786607,0 79.94348264425972,6.619177853455136,0 79.94355573066669,6.619009418641324,0 79.94367194334536,6.618736446386531,0 79.94378265630287,6.61848322167532,0 79.9438457312003,6.618324875274049,0 79.94394936091358,6.618128520580073,0 79.94398528990992,6.618021975934017,0 79.94400269122335,6.61790978125593,0 79.94404600322066,6.617836250903456,0 79.94406968359043,6.617761760431133,0 79.94412928554067,6.617608906811891,0 79.9441948560478,6.617467540433172,0 79.94425466020829,6.617322374650359,0 79.94430775062273,6.617213810435342,0 79.94437725744584,6.617072507561643,0 79.94440560243622,6.616965693851589,0 79.94447105670815,6.616817494575957,0 79.94451461584092,6.616727041290927,0 79.94458286287805,6.61656227108998,0 79.94463194983138,6.616429367834591,0 79.94471152389279,6.616259980677902,0 79.94476941963686,6.616130216332313,0 79.94480483788037,6.61602707610227,0 79.94489797878735,6.61585197720146,0 79.94496879216528,6.615675186132759,0 79.94500592592215,6.615569633518469,0 79.94505680786224,6.615455073433769,0 79.94509229976954,6.615362967192479,0 79.94513101119281,6.615299741184514,0 79.94513135857876,6.615292667330968,0 79.94518230782323,6.615201966963477,0 79.94522177301747,6.615104755308265,0 79.94530828443571,6.614912750331835,0 79.94535174467373,6.614848369425339,0 79.94542741728812,6.614701844453866,0 79.94552993088577,6.61450629177989,0 79.94566519763465,6.614258733693929,0 79.94578326222148,6.613973164745072,0 79.94584629067303,6.613820763782361,0 79.94594881240232,6.613575777912241,0 79.94605875805956,6.613343655966535,0 79.94618488737441,6.61301206105985,0 79.9462420756447,6.612882955553238,0 79.94632187649187,6.612691875950225,0 79.9463919508386,6.612579398764429,0 79.94645977146949,6.612456036048106,0 79.94651313116192,6.612314777848539,0 79.94656131715433,6.612193394211308,0 79.94659516582391,6.612113446761683,0 79.9465937675381,6.612112019524644,0 79.94663345095371,6.611976434398501,0 79.94673234653342,6.611764500301181,0 79.94679120768949,6.61166173481674,0 79.94708302921947,6.611688634908834,0 
			</coordinates>
		</LineString>
		<atom:link rel="app" href="https://www.google.com/earth/about/versions/#earth-pro" title="Google Earth Pro 7.3.7.1155"></atom:link>
	</Placemark>
</Document>
</kml>
