<?xml version="1.0" encoding="UTF-8"?>
<kml xmlns="http://www.opengis.net/kml/2.2" xmlns:gx="http://www.google.com/kml/ext/2.2" xmlns:kml="http://www.opengis.net/kml/2.2" xmlns:atom="http://www.w3.org/2005/Atom">
<Document>
	<name>122016.kml</name>
	<StyleMap id="m_ylw-pushpin">
		<Pair>
			<key>normal</key>
			<styleUrl>#s_ylw-pushpin</styleUrl>
		</Pair>
		<Pair>
			<key>highlight</key>
			<styleUrl>#s_ylw-pushpin_hl</styleUrl>
		</Pair>
	</StyleMap>
	<Style id="s_ylw-pushpin">
		<IconStyle>
			<scale>1.1</scale>
			<Icon>
				<href>http://maps.google.com/mapfiles/kml/pushpin/ylw-pushpin.png</href>
			</Icon>
			<hotSpot x="20" y="2" xunits="pixels" yunits="pixels"/>
		</IconStyle>
	</Style>
	<Style id="s_ylw-pushpin_hl">
		<IconStyle>
			<scale>1.3</scale>
			<Icon>
				<href>http://maps.google.com/mapfiles/kml/pushpin/ylw-pushpin.png</href>
			</Icon>
			<hotSpot x="20" y="2" xunits="pixels" yunits="pixels"/>
		</IconStyle>
	</Style>
	<Placemark>
		<name>12/2016</name>
		<visibility>0</visibility>
		<styleUrl>#m_ylw-pushpin</styleUrl>
		<LineString>
			<tessellate>1</tessellate>
			<coordinates>
				79.93621643313892,6.638257260521129,0 79.93629734303231,6.638109460813947,0 79.93635062030421,6.637940140600663,0 79.93643295792815,6.637702520652267,0 79.93649082795093,6.637498338644775,0 79.93661382099053,6.637149699771522,0 79.93667760130744,6.636932856412534,0 79.93675656219061,6.636664688656812,0 79.93683707641601,6.636451774345201,0 79.93692521261931,6.636256527096201,0 79.93697781440714,6.636074563085332,0 79.93702696777382,6.635916295134961,0 79.93711335384926,6.635553099116971,0 79.93717149110526,6.635322776636366,0 79.9372571931714,6.635026477881257,0 79.93737068970975,6.634685592895979,0 79.93747295440581,6.634314312426418,0 79.93746789059054,6.634308687374451,0 79.93756758874551,6.633986494735407,0 79.93771126247948,6.633629151704157,0 79.93786934149983,6.633242682958566,0 79.93802103192871,6.632928476025358,0 79.9381628884413,6.632644248791106,0 79.93834524012739,6.632270400147361,0 79.93852883044178,6.631816990530401,0 79.9387117285538,6.631384638728279,0 79.93890635224818,6.630958040761748,0 79.9390987549765,6.63043906408459,0 79.93934824493061,6.629746888325231,0 79.93955024982259,6.62920147948004,0 79.93970911740179,6.628705177722258,0 79.9399141534527,6.628121325496712,0 79.94007840448151,6.627601242054968,0 79.94027360321259,6.627040934769765,0 79.94041496436488,6.62655644027617,0 79.94060712523101,6.626048186899725,0 79.94074099713431,6.625697785832428,0 79.94087124650827,6.625319629303983,0 79.94098677593431,6.625040857917007,0 79.94112571615717,6.624765286422998,0 79.94123069308175,6.624560930661801,0 79.94132358072989,6.624348814050913,0 79.94143589929679,6.624082051302351,0 79.94153642035293,6.623854617454938,0 79.94164950980726,6.623527756711916,0 79.94173270266224,6.623305646476127,0 79.94183469777327,6.623028210018753,0 79.94189803796591,6.622885747196998,0 79.9419730738483,6.622698418247904,0 79.94205367203263,6.622535326029007,0 79.942093592098,6.622424109052906,0 79.94219813343997,6.622185560992951,0 79.94225114291213,6.622099780837276,0 79.94228068011297,6.621954750727214,0 79.94234458719917,6.621883735584999,0 79.94238692053483,6.621763444036474,0 79.94244467173773,6.621589800644888,0 79.9424956224736,6.621425853073268,0 79.94256395864444,6.621278343910828,0 79.94262717168451,6.621094283867222,0 79.94270498948774,6.620877685742688,0 79.94278667827983,6.620695917857644,0 79.94285259712602,6.620565954507158,0 79.9428527322985,6.620562914028904,0 79.94287066733382,6.620484467786564,0 79.94292217101268,6.620421906234792,0 79.94296116886402,6.620290623098444,0 79.94305352649423,6.620104691231331,0 79.9431167976867,6.619918551948817,0 79.94316897431179,6.619737949732602,0 79.94326668372778,6.61950966357796,0 79.94335971020922,6.619299951865941,0 79.9434446854161,6.61904161566202,0 79.94345247368312,6.618950966295741,0 79.94348710034944,6.618838403568565,0 79.94354227418302,6.618762003731743,0 79.94359129618284,6.618639341596471,0 79.94364576425873,6.618504844303542,0 79.94370537660029,6.618356715149297,0 79.94375391311831,6.618232443117256,0 79.94386620138474,6.618011816541507,0 79.94393796684622,6.61787839902502,0 79.94399066579417,6.617703239136289,0 79.94410240636321,6.617427395448853,0 79.94418162165994,6.617260839444914,0 79.94425576754593,6.617037954371051,0 79.94438281797495,6.61682349807508,0 79.94446908974376,6.616580974039062,0 79.9445366056985,6.616421957855573,0 79.94469091032055,6.616133055025971,0 79.94482255585032,6.615892589366408,0 79.94502522049959,6.615559392370955,0 79.94515257692345,6.615320914161688,0 79.94531214506492,6.615014352222595,0 79.94545500513388,6.614711197988677,0 79.94558067693893,6.614409166885163,0 79.94580261927977,6.613977448774492,0 79.94598333726968,6.613584832912783,0 79.94614625079068,6.613254791591448,0 79.9463225060593,6.612824167515349,0 79.94647636344048,6.612558380518306,0 79.94657663667306,6.612211059681394,0 79.94672510712682,6.611781813542524,0 79.94680881078938,6.611625122657423,0 79.94708531927765,6.611665876773967,0 
			</coordinates>
		</LineString>
		<atom:link rel="app" href="https://www.google.com/earth/about/versions/#earth-pro" title="Google Earth Pro 7.3.7.1155"></atom:link>
	</Placemark>
</Document>
</kml>
