<?xml version="1.0" encoding="UTF-8"?>
<kml xmlns="http://www.opengis.net/kml/2.2" xmlns:gx="http://www.google.com/kml/ext/2.2" xmlns:kml="http://www.opengis.net/kml/2.2" xmlns:atom="http://www.w3.org/2005/Atom">
<Document>
	<name>122019.kml</name>
	<StyleMap id="m_ylw-pushpin">
		<Pair>
			<key>normal</key>
			<styleUrl>#s_ylw-pushpin</styleUrl>
		</Pair>
		<Pair>
			<key>highlight</key>
			<styleUrl>#s_ylw-pushpin_hl</styleUrl>
		</Pair>
	</StyleMap>
	<Style id="s_ylw-pushpin">
		<IconStyle>
			<scale>1.1</scale>
			<Icon>
				<href>http://maps.google.com/mapfiles/kml/pushpin/ylw-pushpin.png</href>
			</Icon>
			<hotSpot x="20" y="2" xunits="pixels" yunits="pixels"/>
		</IconStyle>
	</Style>
	<Style id="s_ylw-pushpin_hl">
		<IconStyle>
			<scale>1.3</scale>
			<Icon>
				<href>http://maps.google.com/mapfiles/kml/pushpin/ylw-pushpin.png</href>
			</Icon>
			<hotSpot x="20" y="2" xunits="pixels" yunits="pixels"/>
		</IconStyle>
	</Style>
	<Placemark>
		<name>12/2019</name>
		<visibility>0</visibility>
		<styleUrl>#m_ylw-pushpin</styleUrl>
		<LineString>
			<tessellate>1</tessellate>
			<coordinates>
				79.93622692510112,6.638247784058085,0 79.93623125556266,6.638221840158048,0 79.93643902750271,6.637749709672569,0 79.93663981151103,6.637142989980574,0 79.9368104395439,6.636622036160408,0 79.9369336418568,6.636129548942789,0 79.93693576754085,6.636114673184017,0 79.93709974857386,6.635593818462667,0 79.93727770772648,6.634977191733661,0 79.93738020949149,6.634619945834788,0 79.93748969930789,6.634232775346173,0 79.9377437862085,6.633556901236683,0 79.93794831695698,6.633005642809175,0 79.93821292487372,6.632485682155011,0 79.93846015341011,6.631884871795482,0 79.93860416070133,6.631592564732979,0 79.93881070743629,6.631124312709931,0 79.93905433940874,6.630545802745395,0 79.93931436616769,6.629810150330605,0 79.93970368474848,6.628728811731067,0 79.94000840736841,6.627821505779131,0 79.9403555815627,6.626920879540604,0 79.94051636620931,6.626475577923459,0 79.94061738450286,6.626225484155971,0 79.94069041495331,6.626020031228497,0 79.94078917018322,6.625774310342217,0 79.94087713084006,6.625483342663849,0 79.94099116212881,6.625212305802483,0 79.94113664314119,6.624811819550663,0 79.94129040240149,6.624459880103803,0 79.94149418353391,6.623993967839468,0 79.94163852016817,6.623693731572367,0 79.94179845908275,6.623332001830128,0 79.94189972332285,6.623072657525275,0 79.9419703839548,6.622876689280702,0 79.9420033556991,6.622742053167859,0 79.94208318989379,6.622603214456773,0 79.94211231788455,6.622534230733939,0 79.94212161167546,6.622466500478608,0 79.94218402237132,6.622351948642621,0 79.94224497843979,6.622221023069798,0 79.94231616581843,6.622038513200295,0 79.94239136299433,6.621824617323448,0 79.94246070979635,6.621670206356014,0 79.94254420423505,6.621442400792549,0 79.9426344734661,6.621199374755657,0 79.94272176341397,6.620976434505319,0 79.94283610142577,6.620658823819824,0 79.94300560050392,6.62021743140728,0 79.94318343156847,6.619803658607573,0 79.94333291086141,6.619420104818443,0 79.94347739622557,6.619058655978041,0 79.94362739592439,6.6186310345945,0 79.94377997162343,6.618289220817086,0 79.94388259335047,6.618043061754744,0 79.94404072968933,6.617655635866702,0 79.94421144928539,6.617247638462761,0 79.94438937805123,6.616848420490029,0 79.94456929545429,6.616466707066337,0 79.94470244116397,6.616175561589867,0 79.9449026707204,6.615778026687824,0 79.94505550684576,6.615435258906372,0 79.94521199006479,6.615136413784716,0 79.94541862620166,6.614757879340877,0 79.94559794763988,6.614419651518847,0 79.94576809876733,6.614057797125756,0 79.9459776128421,6.613641648556577,0 79.9460867281897,6.613412718100911,0 79.94621175140828,6.613126975740265,0 79.94628897553754,6.612980729185534,0 79.94644052388431,6.612585732294819,0 79.9465763547351,6.612261710262747,0 79.94668951316251,6.611944830992976,0 79.94678568474463,6.61170952365834,0 79.94683863943091,6.611585264402576,0 79.94708598098292,6.611687446038639,0 
			</coordinates>
		</LineString>
		<atom:link rel="app" href="https://www.google.com/earth/about/versions/#earth-pro" title="Google Earth Pro 7.3.7.1155"></atom:link>
	</Placemark>
</Document>
</kml>
