<?xml version="1.0" encoding="UTF-8"?>
<kml xmlns="http://www.opengis.net/kml/2.2" xmlns:gx="http://www.google.com/kml/ext/2.2" xmlns:kml="http://www.opengis.net/kml/2.2" xmlns:atom="http://www.w3.org/2005/Atom">
<Document>
	<name>122017.kml</name>
	<StyleMap id="m_ylw-pushpin">
		<Pair>
			<key>normal</key>
			<styleUrl>#s_ylw-pushpin</styleUrl>
		</Pair>
		<Pair>
			<key>highlight</key>
			<styleUrl>#s_ylw-pushpin_hl</styleUrl>
		</Pair>
	</StyleMap>
	<Style id="s_ylw-pushpin">
		<IconStyle>
			<scale>1.1</scale>
			<Icon>
				<href>http://maps.google.com/mapfiles/kml/pushpin/ylw-pushpin.png</href>
			</Icon>
			<hotSpot x="20" y="2" xunits="pixels" yunits="pixels"/>
		</IconStyle>
	</Style>
	<Style id="s_ylw-pushpin_hl">
		<IconStyle>
			<scale>1.3</scale>
			<Icon>
				<href>http://maps.google.com/mapfiles/kml/pushpin/ylw-pushpin.png</href>
			</Icon>
			<hotSpot x="20" y="2" xunits="pixels" yunits="pixels"/>
		</IconStyle>
	</Style>
	<Placemark>
		<name>12/2017</name>
		<styleUrl>#m_ylw-pushpin</styleUrl>
		<LineString>
			<tessellate>1</tessellate>
			<coordinates>
				79.93620471000366,6.63828611806431,0 79.93627814155259,6.638084713594371,0 79.93639700786096,6.637797984536463,0 79.9365014909106,6.637521098251892,0 79.93651595603126,6.637496394567785,0 79.93652113860311,6.637465629342503,0 79.93652423849638,6.637447227473062,0 79.93653450730899,6.637416650146856,0 79.93654167070339,6.637374043909586,0 79.93654881105809,6.637361910510828,0 79.936562007113,6.637313570930914,0 79.93657010907522,6.637295518668632,0 79.93657512215262,6.63726552810499,0 79.93658517558877,6.637235649783277,0 79.9365891492119,6.637211831390966,0 79.93660012738229,6.637176237629919,0 79.93660504515653,6.637146702309076,0 79.93661691593798,6.637105538847448,0 79.93662775591247,6.637070429244262,0 79.93663451567996,6.637029672058929,0 79.93665427213932,6.637000684292563,0 79.93666305755272,6.636977576024599,0 79.93667181655454,6.636954537172009,0 79.93667652966458,6.636925838976233,0 79.93668122512547,6.636897248212913,0 79.93668590302947,6.636868764320477,0 79.93669549486704,6.636840384331022,0 79.93670012876898,6.636812112397705,0 79.93671457109974,6.636783940846319,0 79.936724968523,6.636750276226229,0 79.93673441345425,6.636722336211646,0 79.93674870702769,6.63669449711637,0 79.93675319833351,6.636666765353802,0 79.93675677946902,6.636644653454431,0 79.93676609971038,6.636617102747731,0 79.93677538596683,6.636589653178526,0 79.93678463798801,6.636562304093003,0 79.9367947297234,6.636529617614322,0 79.93680390932037,6.636502487804748,0 79.93681305571117,6.636475456786719,0 79.93682782894956,6.636443147408301,0 79.93683295451524,6.63641098311486,0 79.93684283912003,6.636378956194042,0 79.93685099673392,6.636357681291702,0 79.93685520315474,6.63633117676678,0 79.93686974184956,6.636299492768579,0 79.93687389798116,6.636273197447235,0 79.93688029979342,6.636262703531963,0 79.9368883393674,6.636241763042967,0 79.93689880924063,6.636205262943218,0 79.93690679058516,6.636184486710595,0 79.93691555783471,6.636158600250505,0 79.9369218800349,6.636148270167074,0 79.93693609571584,6.636117370202303,0 79.93694318084646,6.636101969578766,0 79.93695341488815,6.636066164913022,0 79.93696748333345,6.636035613701976,0 79.93698149246626,6.636005191756174,0 79.93699544222733,6.635974898256831,0 79.93700469294696,6.63594473449988,0 79.93701162160765,6.635929699201237,0 79.93703081410837,6.635894738078194,0 79.93703919041542,6.635869872941027,0 79.93705288822075,6.635840147509064,0 79.93706431736302,6.63582532925278,0 79.93707791994572,6.635795789632501,0 79.93709074037238,6.635771266487606,0 79.9370974953453,6.635756593794139,0 79.93711024622357,6.635732206292388,0 79.93711838993833,6.635707905061804,0 79.93712579592906,6.635688524006532,0 79.93713459287034,6.635659553444918,0 79.93713670625544,6.635645113998016,0 79.93714998739466,6.635616320168093,0 79.93715207842429,6.635601969760577,0 79.93716459634601,6.635578113661782,0 79.93716735585852,6.635559090746035,0 79.93717148101803,6.635530653607847,0 79.93718322125801,6.635511756044609,0 79.93718662140473,6.635488211391663,0 79.93719068636258,6.635460063158265,0 79.93719406121114,6.635436693635723,0 79.93719809595947,6.635408754533006,0 79.93720657154438,6.635380926434258,0 79.9372099003306,6.635357823854872,0 79.93721321791716,6.635334798982212,0 79.93721586396936,6.635316434709212,0 79.93721916156494,6.635293548540429,0 79.93722244811777,6.635270738989968,0 79.93722572370203,6.635248005543349,0 79.93723715250167,6.635229869517236,0 79.93725359626913,6.635207266468735,0 79.93726934890336,6.635189236910201,0 79.93727189226941,6.635171261117438,0 79.93727442888638,6.635153333011854,0 79.93727822122062,6.63512652982057,0 79.93728573731752,6.635104273132176,0 79.9372932286178,6.635082089862873,0 79.93730007497378,6.635064395407778,0 79.93730255445489,6.635046749555277,0 79.93730937035102,6.635029148058885,0 79.93731183113735,6.635011594663818,0 79.93731489803582,6.634989717704158,0 79.93732166876545,6.634972265832898,0 79.93732902797537,6.634950515407779,0 79.93733576058645,6.634933165927742,0 79.93734247546409,6.634915861542191,0 79.93734976969409,6.634894294939883,0 79.93735274809328,6.634872800232002,0 79.93736000203549,6.634851373226823,0 79.93736723267887,6.63483001569843,0 79.93737016841882,6.634808729034216,0 79.9373719253159,6.634795989995891,0 79.93737542891816,6.634770585799904,0 79.93737717564298,6.634757920499518,0 79.93738432735722,6.63473686414529,0 79.93738836739161,6.634707501139702,0 79.93740450701139,6.634682432260369,0 79.93740621411061,6.634669936555833,0 79.93740848515942,6.634653312817229,0 79.93741131581085,6.634632592855067,0 79.93747178685322,6.634455174068449,0 79.93751808561854,6.634297895828833,0 79.93758019591782,6.634082489761781,0 79.9375820088238,6.634068501822983,0 79.93758381587598,6.634054559043332,0 79.93758606650633,6.634037193711351,0 79.93759087283588,6.634023350268701,0 79.93759566380247,6.634009551275877,0 79.93760043933787,6.633995796531475,0 79.93760563817384,6.633978665321544,0 79.93761081618787,6.633961602496762,0 79.93761510800616,6.633951396882193,0 79.93762366084951,6.633931058704428,0 79.93763174846974,6.633914183757421,0 79.93763599150166,6.633904091182298,0 79.93764106446558,6.633887324393624,0 79.93764570034811,6.633873958370697,0 79.93764990684454,6.63386396119183,0 79.93765451600953,6.633850668838643,0 79.9376620579108,6.633837416924569,0 79.93766703988433,6.63382091262877,0 79.93767453554732,6.63380775410677,0 79.93768240660634,6.633791364556427,0 79.93768652892058,6.633781561834712,0 79.93768811296356,6.633768529052945,0 79.93769339604876,6.633749054591123,0 79.93769748471567,6.633739350739603,0 79.93770233997792,6.633723228761882,0 79.93771007795827,6.633707167859167,0 79.93771161149613,6.633694366010218,0 79.93772257397983,6.633675233251599,0 79.93772370570044,6.633665702077204,0 79.93773134903822,6.633649862949234,0 79.93773571638833,6.633637236219204,0 79.93774367747842,6.633618368045492,0 79.93774477718316,6.633608967759544,0 79.93774910225198,6.633596466254037,0 79.93775627254175,6.633584001557075,0 79.9377612833585,6.633565378333175,0 79.93776591593769,6.633549923594975,0 79.93777372387059,6.633531454169976,0 79.93777901179187,6.63351001413811,0 79.93778392573141,6.633491726887406,0 79.93779163717885,6.633473520895891,0 79.93779863577456,6.633461428326815,0 79.93780594942307,6.633446364244403,0 79.93781043083943,6.633431357872277,0 79.93781489545167,6.63341640752116,0 79.9378186848714,6.63340746363248,0 79.93782623825574,6.633389635716052,0 79.93783065026039,6.633374840687443,0 79.93783504595757,6.633360100585604,0 79.93784188171333,6.633348346296808,0 79.93784592552667,6.633336628046692,0 79.93785027193216,6.633322029185973,0 79.93786012518459,6.633307481667017,0 79.93786136394706,6.63329588513662,0 79.93786841195009,6.633281434965418,0 79.93787603955379,6.633261294629415,0 79.93788606836397,6.633244111923457,0 79.93789302500134,6.63322985111824,0 79.93789995630451,6.633215642213546,0 79.93790355768901,6.633207141937634,0 79.93791374344303,6.633187379137937,0 79.93792331396607,6.63317332319066,0 79.93793014037931,6.633159319242539,0 79.93793721809251,6.633142581699762,0 79.93794344621729,6.633134238867962,0 79.93794723472332,6.633123145176437,0 79.93795101228201,6.633112083299079,0 79.9379577351322,6.633098299755068,0 79.9379585349661,6.633090054755994,0 79.93796280901763,6.633073616629607,0 79.93796947721864,6.633059970612568,0 79.93797345167637,6.633046374401697,0 79.93798059022104,6.633027420115296,0 79.9379813583289,6.633019326710881,0 79.93799085412947,6.63300318798558,0 79.93799790925011,6.632984447784716,0 79.93800443790474,6.63297111791507,0 79.93801094357437,6.632957834911863,0 79.93801742636624,6.632944598679966,0 79.93802388640781,6.632931408897186,0 79.93803032381865,6.632918265319404,0 79.93803126332888,6.632907785360135,0 79.93803743564808,6.63289733238665,0 79.93804120706741,6.632884308954878,0 79.93804757399232,6.632871329713685,0 79.93805131475074,6.632858396716903,0 79.93806001896267,6.632848080083894,0 79.93806610221527,6.632837793264059,0 79.93806935655529,6.632830097375674,0 79.93807260408194,6.632822417455653,0 79.93807864894619,6.632812201538536,0 79.93808187907307,6.63280455868642,0 79.9381156602357,6.632721049717432,0 79.9381198109724,6.632704055606134,0 79.93812394524362,6.632687129049219,0 79.93813423369424,6.632666903283117,0 79.93813809856071,6.632653474218777,0 79.93814239300539,6.632633410884272,0 79.93814940261068,6.63261676233173,0 79.93815365180068,6.63259687242622,0 79.93815745429485,6.632583664100248,0 79.93816439317794,6.632567210902271,0 79.93817109757843,6.632554094157799,0 79.93817798543,6.63253775653386,0 79.93818172328164,6.632524733114283,0 79.93819148246432,6.632508508506492,0 79.93819809786662,6.632495574741903,0 79.93820488527921,6.632479464641733,0 79.93821435831934,6.632466619596276,0 79.93822109070234,6.63245062148351,0 79.93823068737603,6.632434683746132,0 79.9382342979743,6.632421979622698,0 79.93823771925089,6.632412476843065,0 79.93824723978589,6.632396685766612,0 79.93825063567623,6.632387241242506,0 79.93825689408875,6.632377817129095,0 79.93826364036991,6.632359036319695,0 79.93827002697705,6.63234656269862,0 79.93827321297471,6.632340340157207,0 79.9382827418786,6.632321729326655,0 79.93828922683453,6.632306285739082,0 79.93829553347327,6.632293972516488,0 79.93830197213967,6.632278634045248,0 79.9383083864869,6.632263353507969,0 79.93831492227177,6.632245093380321,0 79.93831832321212,6.632232966209498,0 79.93832467071718,6.632217857535869,0 79.93832804555835,6.632205812105203,0 79.93833141028801,6.632193802799627,0 79.93834036823066,6.632181826874055,0 79.93834370450965,6.632169889253113,0 79.93835274729675,6.632155015026412,0 79.93835884206497,6.632143156024204,0 79.93836504360611,6.632128382459782,0 79.93836844441103,6.632113664871936,0 79.938374484354,6.632101928548084,0 79.93838074331875,6.632084390307591,0 79.93838950625032,6.63207273920691,0 79.9383955965649,6.632058225764477,0 79.93840177451999,6.632040880459793,0 79.93840496198352,6.632029359757259,0 79.9384137337376,6.632015004141934,0 79.93841678926297,6.632006416962109,0 79.93842277865383,6.631992146406735,0 79.93842864691801,6.631980766915277,0 79.93843459512851,6.631966589706144,0 79.93844052173621,6.63195246402295,0 79.93844923451964,6.631935580010761,0 79.93845511106998,6.631921566614315,0 79.9384609664038,6.631907603774175,0 79.93846680063452,6.631893691257015,0 79.93847253160634,6.631882596877517,0 79.93848371004357,6.631868771909191,0 79.93849231111913,6.631849503220573,0 79.93849790001693,6.631841273933476,0 79.93851171841247,6.631824867086627,0 79.93851472799241,6.631811252110477,0 79.93852032949222,6.631800393568378,0 79.93852331414386,6.631786865629937,0 79.93853154499612,6.631776075294971,0 79.93853450026685,6.631762633487957,0 79.93853732917084,6.63175459079993,0 79.93854291309245,6.631741223839861,0 79.93855111987504,6.63172790285583,0 79.93855665986565,6.631714629926627,0 79.93856486157027,6.631698763233996,0 79.93857031019274,6.631688222520649,0 79.93857311858171,6.631677712573524,0 79.93857862616957,6.631662002110968,0 79.93858926054115,6.631651561951839,0 79.93859467809128,6.631638556168255,0 79.93860004160049,6.631628183626657,0 79.93860021733562,6.631615261383879,0 79.93860815587733,6.631604952414797,0 79.93861094324086,6.631589546564396,0 79.9386162196449,6.631581865881643,0 79.93868240988604,6.63143951815911,0 79.93868615221305,6.631426774672771,0 79.93868657502973,6.631420418337568,0 79.93869669057264,6.631398244119506,0 79.93870080209251,6.631379334474599,0 79.93870715626923,6.631369910284546,0 79.93871082924839,6.631357380504193,0 79.93871755005333,6.63134177111757,0 79.93872424525063,6.631326221205383,0 79.93873053154846,6.631316918634639,0 79.93873699269858,6.631304549036445,0 79.93874362055108,6.631289140487942,0 79.93874985624707,6.631279922356414,0 79.93875342432406,6.631267666187159,0 79.938759991127,6.631252397079199,0 79.93876653318264,6.631237185512968,0 79.93877005736124,6.631225058252414,0 79.93877655839906,6.631209949464006,0 79.93878005564757,6.631197903944507,0 79.93878634826025,6.63118589327345,0 79.9387929523625,6.631167945829258,0 79.9387964068805,6.631156025938896,0 79.93880280318416,6.631141175067989,0 79.93880623149253,6.631129334876221,0 79.93880980735398,6.631114584351129,0 79.93881305761097,6.631105759786883,0 79.93881968997962,6.631085245699369,0 79.9388232212093,6.631070658224556,0 79.93882935047908,6.631059025444046,0 79.93883255642197,6.631050323951847,0 79.93883880170846,6.631035863666069,0 79.93884502408771,6.631021456455557,0 79.93885122368968,6.631007101946363,0 79.9388572627207,6.630995655651629,0 79.93886341963282,6.630981395394247,0 79.93886942108776,6.630970024058638,0 79.93887566630731,6.630953030370011,0 79.93888175631335,6.630938925038942,0 79.93888782425716,6.63092487084284,0 79.93889374698306,6.630913663595047,0 79.93889694607898,6.6309024899001,0 79.93890295819956,6.630888567256852,0 79.9389060153355,6.630880237963852,0 79.93890906587247,6.630871926649812,0 79.93891245723516,6.630855358923847,0 79.93891840493997,6.630841605537054,0 79.938921426885,6.630833377358565,0 79.93892455324419,6.630822434274349,0 79.93893034530961,6.630811521327578,0 79.93893612086232,6.630800639420461,0 79.93894208825419,6.630784375835291,0 79.93894792845637,6.630770875409102,0 79.93895099173821,6.630760110265257,0 79.93895669920337,6.630749374359571,0 79.93896513492447,6.630735996634279,0 79.9389708042963,6.630725328867707,0 79.93897381698088,6.630714692417583,0 79.93897390888401,6.630712038241581,0 79.93903976393047,6.630543883597712,0 79.93904675779734,6.630531304069649,0 79.93905117101494,6.630515635798461,0 79.93905587283254,6.630496913071111,0 79.93906310421831,6.630481374612256,0 79.93906461099731,6.630465897854187,0 79.93906895518005,6.63045047850258,0 79.93907328297728,6.630435117543132,0 79.93907505710287,6.630416762580349,0 79.93907964810212,6.630398489348551,0 79.93908392809908,6.630383324433531,0 79.93908848015728,6.630365201961926,0 79.93908963080821,6.630353166475571,0 79.93909386810279,6.630338171503094,0 79.93910060604134,6.630326214272135,0 79.9391045284093,6.630314294048348,0 79.93910871745571,6.630299444030724,0 79.93911873489709,6.630281694515193,0 79.93912233648712,6.630272850034062,0 79.9391289772899,6.630261087153191,0 79.93913282573588,6.630249360354465,0 79.93914272696004,6.630231833190575,0 79.93914627936039,6.63022309932414,0 79.93915284332026,6.630211483365756,0 79.93915964396564,6.630197012087343,0 79.93916316214387,6.630188355057022,0 79.93916967246869,6.630176841116119,0 79.93917641245424,6.630162496775659,0 79.9391798967455,6.630153915571916,0 79.9391865984022,6.630139654929692,0 79.93919030404382,6.630128284516529,0 79.93919399883258,6.630116947237542,0 79.93919544046233,6.630100004910768,0 79.93919911447666,6.630088749691133,0 79.93920030266754,6.630074728066264,0 79.93920372201111,6.630066338183815,0 79.93920760213,6.630052396202532,0 79.93921123604544,6.63004127860354,0 79.93921778494889,6.630027425559213,0 79.93922116462453,6.630019137972596,0 79.93922790211838,6.630002616116309,0 79.93923394331004,6.629994380611843,0 79.93923773329604,6.62998069676205,0 79.93924396517951,6.629969783509357,0 79.93924772521432,6.629956187435112,0 79.93924859069594,6.629945346306833,0 79.93924945371748,6.629934535989654,0 79.93925074365076,6.629918378113647,0 79.9392516005678,6.629907644251613,0 79.93925245506114,6.629896940744798,0 79.93925373227003,6.629880942234013,0 79.93925700957094,6.629872967138541,0 79.93926048960428,6.629862360235756,0 79.93926395979246,6.629851783151579,0 79.93926762672076,6.629838603884707,0 79.93927390488078,6.629825469608119,0 79.93928016109356,6.629812381245334,0 79.9392861966856,6.629801942945046,0 79.93929241185903,6.629788936623869,0 79.93929560883389,6.629781154778816,0 79.93929899285229,6.629770804590874,0 79.93930515994022,6.629757906459766,0 79.93930870971327,6.629745054151298,0 79.93931224727113,6.629732246287041,0 79.93931299821902,6.629722032705116,0 79.93931651734816,6.629709304259353,0 79.93931983995256,6.629699152782631,0 79.93932057709755,6.629689030426059,0 79.93932131222304,6.629678935796965,0 79.93932259383904,6.629661336836583,0 79.93932332343921,6.629651318069897,0 79.93932679129595,6.629638832031157,0 79.93933006816489,6.62962887358766,0 79.9393335139177,6.629616463999827,0 79.93933694802054,6.629604096581241,0 79.93934273856578,6.629594231494261,0 79.93934834140416,6.629586849703347,0 79.93934649165692,6.62957703473087,0 79.93940151467193,6.62944686419887,0 79.93940517412656,6.629433624778338,0 79.93940552774406,6.629427021358958,0 79.93941211126699,6.629413842845594,0 79.9394159118424,6.629397429799046,0 79.93942020747475,6.629371302966937,0 79.93942689141333,6.629355054498064,0 79.93943047155101,6.629342102027379,0 79.93943080166243,6.629335641572853,0 79.9394348566935,6.629313107476323,0 79.93943872881374,6.629293889414131,0 79.9394421049348,6.629284313101412,0 79.93944899028561,6.629262054885952,0 79.93945265132378,6.629246230060744,0 79.93945614519942,6.629233613671071,0 79.93946249976636,6.62922103461002,0 79.93946611676724,6.629205366908738,0 79.93947272642724,6.629186643543308,0 79.93947587531545,6.629180421021102,0 79.93948230069937,6.629164906803752,0 79.93948884086238,6.629146368016926,0 79.93949251252745,6.629127914833357,0 79.93950156480682,6.629115656191853,0 79.93950492935981,6.629103437207729,0 79.93951123941956,6.629088214340123,0 79.93951457800947,6.6290760780249,0 79.93951803330816,6.629060959313296,0 79.93952428567093,6.629045895970957,0 79.93952758721728,6.629033886701382,0 79.93953124233218,6.62901295775922,0 79.93953184626376,6.628998076308531,0 79.93953825997733,6.628977332667072,0 79.93954151258382,6.628965527707195,0 79.93954475554295,6.628953757797066,0 79.93954810259528,6.628939094726134,0 79.93955398220945,6.628930321123828,0 79.93956006677112,6.628915743265832,0 79.93956326208261,6.628904120417939,0 79.9395692042613,6.628892530526329,0 79.93957237675967,6.6288809759325,0 79.93957574498418,6.628863708156729,0 79.93958173854529,6.628849374831801,0 79.93958497408245,6.628835095034537,0 79.93958819782564,6.628820867322879,0 79.93959404098632,6.628809520956513,0 79.93959714394713,6.628798208760649,0 79.93960295715807,6.62878692822539,0 79.93960884281437,6.628772874145289,0 79.93961733058018,6.628761665775238,0 79.93962029596867,6.628753282265264,0 79.93962882746831,6.628739348478821,0 79.93963185237874,6.62872823922253,0 79.93964025820361,6.628717159520579,0 79.93964064414261,6.628703359201529,0 79.93964639900263,6.628689605936587,0 79.93965206058849,6.628678638232912,0 79.93965502851295,6.628667703151224,0 79.93965791754798,6.628659521993793,0 79.93966086971979,6.628648641368724,0 79.93966381348402,6.628637791801017,0 79.93966947811759,6.628624272202301,0 79.93967233536119,6.628616183818412,0 79.93967803163831,6.628600058456327,0 79.93968629218082,6.628586671295161,0 79.93968917614512,6.628575997325123,0 79.939692051978,6.628565353380447,0 79.93969228182398,6.628554740652219,0 79.9396977793798,6.628544155365115,0 79.93970331484228,6.628530966182582,0 79.93970352785679,6.628520449920559,0 79.93970898466047,6.628509960860606,0 79.93970929118709,6.628494285593573,0 79.93971210787576,6.62848387067934,0 79.93971506320302,6.628465715271224,0 79.93972051099171,6.628452799605872,0 79.93972334224378,6.628439929926864,0 79.93972361610825,6.628424546410962,0 79.93972393418241,6.628406679535587,0 79.93972674198216,6.628393969096983,0 79.93973211723052,6.628381301170529,0 79.93973485999825,6.628371198915664,0 79.93974016527386,6.628361123183981,0 79.93974292798433,6.628348569062316,0 79.93974051952995,6.628338558636163,0 79.93977987951017,6.628193160697358,0 79.93978080570744,6.628180970372673,0 79.93978455190724,6.628168815506623,0 79.93978874180736,6.628150652358119,0 79.93979268755929,6.628135578673291,0 79.93979639484085,6.628123560112425,0 79.93980009109811,6.628111577469986,0 79.93980679395209,6.628096648596888,0 79.93981046223377,6.628084746324909,0 79.93981455074139,6.628066959934333,0 79.93981840750723,6.628052198243377,0 79.93982801310878,6.628034554173489,0 79.93983439313563,6.628022834955124,0 79.93984095842988,6.628008235206235,0 79.93984453576287,6.627996594937286,0 79.93985106065297,6.627982091816818,0 79.93985775839522,6.627964758919197,0 79.93986423275057,6.62795037260379,0 79.93986774986386,6.627938902226653,0 79.93987144750781,6.627924611710068,0 79.93987456389392,6.627918909342095,0 79.93988407139672,6.627899017131408,0 79.93988753664425,6.627887696495453,0 79.93989625182861,6.627879224831695,0 79.93990547929278,6.627862340437043,0 79.93991432009442,6.62785112369884,0 79.93992296527725,6.627842731508832,0 79.93993175849306,6.627831571425029,0 79.93994052635583,6.627820443481586,0 79.93994673302697,6.627806580769417,0 79.93995576562367,6.627790010450145,0 79.93996176576492,6.627779003223949,0 79.93996805340841,6.627762552565043,0 79.93997401456505,6.627751623808603,0 79.93998010620744,6.627738007356557,0 79.93998617616832,6.627724439367801,0 79.93999222456739,6.627710919506563,0 79.93999811123295,6.627700137772346,0 79.94000411921461,6.627686704113811,0 79.94000745685534,6.627673319047315,0 79.9400103769477,6.627667977600598,0 79.94001356127319,6.627657318493269,0 79.94001937640053,6.627646688177421,0 79.94002556361693,6.627628158806515,0 79.94002870986392,6.6276176116964,0 79.94003472474013,6.627601845774626,0 79.94003797154863,6.62758875882264,0 79.94004382192995,6.627575716307289,0 79.9400471622796,6.627560126986223,0 79.94005048870366,6.627544602595574,0 79.94005604864331,6.627536862931585,0 79.940059114449,6.627526570303734,0 79.9400621717609,6.627516306253323,0 79.94006803623986,6.627500962721272,0 79.94007118194408,6.627488225656652,0 79.94007140420614,6.627483143618166,0 79.94007700561363,6.627472998264958,0 79.94008269849229,6.627460356242104,0 79.94009371768841,6.627442728969181,0 79.94009689623692,6.62742768974301,0 79.94008941528804,6.627422694131023,0 79.94014097098059,6.627316091454695,0 79.94014451312887,6.627306985249047,0 79.94015086583038,6.627297898297451,0 79.9401546233949,6.627285816388661,0 79.94016164254889,6.627267760769294,0 79.9401686302097,6.627249786159156,0 79.94017558658894,6.627231892014191,0 79.94020885530617,6.627158185300259,0 79.9402124620209,6.627146519205357,0 79.94021667955369,6.627126187134023,0 79.94022046538845,6.627111727875348,0 79.94022423739985,6.627097321686123,0 79.94022819708796,6.627080104061839,0 79.94023174001123,6.627068667187682,0 79.94023566884847,6.62705157502349,0 79.94023918799115,6.627040221334314,0 79.94024289165007,6.627026075918327,0 79.9402493002104,6.627011980628123,0 79.94025625316203,6.626989535661826,0 79.94026549838387,6.626972785149341,0 79.94026875517189,6.626964437678065,0 79.94027488511698,6.626953334930035,0 79.94028117630747,6.62693950204827,0 79.9402874449293,6.626925718788994,0 79.94029065828383,6.626917472766338,0 79.94029706431051,6.626901033794375,0 79.94030611659575,6.626884664011661,0 79.94031229614666,6.626871076595757,0 79.94031861732489,6.626854835885917,0 79.94032724890421,6.626844045245345,0 79.94033070344491,6.626830603094769,0 79.94033149571767,6.626817209737911,0 79.94033726421449,6.626809194060709,0 79.94034363471762,6.626790559911101,0 79.94034673216872,6.626782601770538,0 79.94034997387264,6.626772017391543,0 79.94035583698196,6.626761461568822,0 79.94036197585086,6.62674568457922,0 79.94036518034898,6.626735203690965,0 79.94037127822268,6.62671953669579,0 79.94038009982596,6.626701340559406,0 79.94038326016994,6.626690983310203,0 79.94038901392329,6.626680653684951,0 79.94039761463793,6.626665213053397,0 79.94040345848826,6.626652395286326,0 79.9404065658064,6.62664217372653,0 79.94041496032214,6.626629434333411,0 79.9404182904529,6.626614208014864,0 79.94042908743516,6.626604088177902,0 79.94043459300464,6.626596517690635,0 79.94044031940058,6.626583936335636,0 79.94044323269659,6.626576408409978,0 79.94045148993851,6.626563894702093,0 79.94045449455867,6.626553916015219,0 79.94046526070228,6.626541477890698,0 79.94047078731397,6.626531559162657,0 79.94047364874,6.626524138392971,0 79.94047660694716,6.62651426796282,0 79.94048229858117,6.626499511851412,0 79.94048533435409,6.62648726159937,0 79.94049079277823,6.626477489822469,0 79.94049380501809,6.626465313871788,0 79.94049923549005,6.62645560127167,0 79.94058979152761,6.62625393306361,0 79.9405961358559,6.626245120064677,0 79.94060324317095,6.626227555237062,0 79.94060704209943,6.626215889003437,0 79.94061210331088,6.626189767035225,0 79.94061887470114,6.626175327639022,0 79.94062287509098,6.62616094237128,0 79.94062686077893,6.626146609766595,0 79.94063405687302,6.626126631206174,0 79.94064073402778,6.626112422444185,0 79.94064193839694,6.626098267850518,0 79.9406456190743,6.626086979929096,0 79.94064999946855,6.626067305618258,0 79.94065365384725,6.626056107372274,0 79.94065459207418,6.626044942693767,0 79.9406584617136,6.626031030861364,0 79.94065938997694,6.626019938479301,0 79.94066323854666,6.626006116574993,0 79.94066976042073,6.625992342945426,0 79.94067335109695,6.625981360372315,0 79.94068005668335,6.625964944694944,0 79.94068361992129,6.625954040332131,0 79.94068717293379,6.62594316712821,0 79.94069093377564,6.625929619310366,0 79.94069978776166,6.625918813169006,0 79.94070372680137,6.625902665489573,0 79.94070987943704,6.625891936859675,0 79.94071336644845,6.625881239822693,0 79.94071663664806,6.625873236536554,0 79.94072336055038,6.625854628331571,0 79.94072376871648,6.625849329244332,0 79.94073308434621,6.62583083740334,0 79.94073953282798,6.625815060200043,0 79.94074575936948,6.625801962603374,0 79.94074896134973,6.625794126269623,0 79.94075534515173,6.625778502847051,0 79.94075909554624,6.625762945723165,0 79.9407678471114,6.625750028427165,0 79.94077675080086,6.625734587585153,0 79.94078043479233,6.625719213038617,0 79.94078909809741,6.625706447044554,0 79.9407951490947,6.625693726260209,0 79.94080117927385,6.625681049240064,0 79.94080718874213,6.625668415758649,0 79.94081300950874,6.625658339675159,0 79.94081881432075,6.625648291273211,0 79.94082204021342,6.625638271421614,0 79.9408305378455,6.625625783183167,0 79.94083629302102,6.625615823659236,0 79.9408445842051,6.62560589021969,0 79.94085030461568,6.625595984851325,0 79.94085361743574,6.625583642695617,0 79.94085945861684,6.625571341184723,0 79.94086513178044,6.625561529593404,0 79.94086855077633,6.625546864057524,0 79.9408689908612,6.6255395541082,0 79.94087491503366,6.625524976312085,0 79.9408705969097,6.625512877118503,0 79.94086807781505,6.625512878216274,0 79.94105004946984,6.625131022046471,0 79.94115866527527,6.624844119690972,0 79.94122882609474,6.624663851639576,0 79.94133541431131,6.624388097681022,0 79.94139952516726,6.62419430200193,0 79.94149122236944,6.62396655258622,0 79.94165051994977,6.623652985386984,0 79.94175917571262,6.623415869687796,0 79.94183068386948,6.623265554924273,0 79.9419088377614,6.623038726750571,0 79.94193481421237,6.622899080947914,0 79.94202053044376,6.622563499645567,0 79.942126896068,6.622298868170108,0 79.9422511567,6.621970214501882,0 79.94236559160231,6.621659916416199,0 79.94248757074048,6.621283301654665,0 79.94259185623534,6.62100476516317,0 79.9427848123797,6.620555793986885,0 79.94301764027219,6.619965725412218,0 79.94320423897825,6.619478560638528,0 79.94340475277778,6.618990026080813,0 79.94359053415897,6.618575015464289,0 79.94379187355798,6.618003644144835,0 79.94392624140232,6.617696998163957,0 79.9440287100719,6.617579666865052,0 79.94403189687291,6.617566317924232,0 79.94413479757715,6.617408985635401,0 79.94414418406028,6.617383275620167,0 79.94414615905455,6.617374737859521,0 79.94425251994035,6.617190775605839,0 79.94435085782546,6.61698650148752,0 79.94445037667619,6.616750235685271,0 79.9445359440454,6.616508682782064,0 79.9446309431675,6.616300217674248,0 79.9446329643669,6.616290233477613,0 79.94463934106952,6.616273645730984,0 79.9447451957919,6.616070253300927,0 79.94490934816915,6.61564916087819,0 79.94508779870868,6.615290121431859,0 79.94508832629165,6.615285368570804,0 79.94522663349262,6.614984493565207,0 79.94539479679739,6.614549135369827,0 79.94550915074542,6.614276326786968,0 79.94570042627295,6.61381229930292,0 79.9458680514728,6.613525904335914,0 79.94605584248302,6.613124106412811,0 79.94617984197627,6.612777388265685,0 79.94632244291932,6.612470136056741,0 79.94645280803924,6.612242759013296,0 79.94658165685526,6.611979433641626,0 79.94669555294878,6.611780692554847,0 79.94669563640082,6.611776257014441,0 79.94677265334835,6.61160693555024,0 79.94706286266891,6.611664704961663,0 
			</coordinates>
		</LineString>
		<atom:link rel="app" href="https://www.google.com/earth/about/versions/#earth-pro" title="Google Earth Pro 7.3.7.1155"></atom:link>
	</Placemark>
</Document>
</kml>
