<?xml version="1.0" encoding="UTF-8"?>
<kml xmlns="http://www.opengis.net/kml/2.2" xmlns:gx="http://www.google.com/kml/ext/2.2" xmlns:kml="http://www.opengis.net/kml/2.2" xmlns:atom="http://www.w3.org/2005/Atom">
<Document>
	<name>122015.kml</name>
	<StyleMap id="m_ylw-pushpin">
		<Pair>
			<key>normal</key>
			<styleUrl>#s_ylw-pushpin</styleUrl>
		</Pair>
		<Pair>
			<key>highlight</key>
			<styleUrl>#s_ylw-pushpin_hl</styleUrl>
		</Pair>
	</StyleMap>
	<Style id="s_ylw-pushpin">
		<IconStyle>
			<scale>1.1</scale>
			<Icon>
				<href>http://maps.google.com/mapfiles/kml/pushpin/ylw-pushpin.png</href>
			</Icon>
			<hotSpot x="20" y="2" xunits="pixels" yunits="pixels"/>
		</IconStyle>
	</Style>
	<Style id="s_ylw-pushpin_hl">
		<IconStyle>
			<scale>1.3</scale>
			<Icon>
				<href>http://maps.google.com/mapfiles/kml/pushpin/ylw-pushpin.png</href>
			</Icon>
			<hotSpot x="20" y="2" xunits="pixels" yunits="pixels"/>
		</IconStyle>
	</Style>
	<Placemark>
		<name>12/2015</name>
		<styleUrl>#m_ylw-pushpin</styleUrl>
		<LineString>
			<tessellate>1</tessellate>
			<coordinates>
				79.93620786793308,6.638327149036247,0 79.93627324648318,6.638336620494644,0 79.93635619391374,6.638155888654676,0 79.93642972484477,6.637939703498521,0 79.9365356978544,6.637679067336468,0 79.9366125376129,6.637458764321465,0 79.93661414097173,6.637442176507284,0 79.93669115444976,6.637234739068418,0 79.93675194796505,6.636988861657268,0 79.93681023605673,6.636717482705313,0 79.93686031166523,6.636562687498099,0 79.93690992205944,6.636337716627946,0 79.93695938907307,6.636150736192906,0 79.93699233998385,6.635973280410371,0 79.93704049718551,6.635792136221887,0 79.93706901633121,6.63564404849084,0 79.93713223114591,6.635448331457193,0 79.93716990126218,6.635270560562436,0 79.93720219281911,6.635184082747148,0 79.93723127951772,6.635110326139229,0 79.93727990677453,6.634929877268391,0 79.93728010813729,6.634923584059694,0 79.93730520303147,6.634828419142583,0 79.93736686870268,6.63465633849356,0 79.93742042296313,6.634495035324503,0 79.93746663359694,6.6343906127465,0 79.93749055747804,6.634296057056868,0 79.93752263136513,6.634194559628186,0 79.93758262394883,6.63408450423618,0 79.93758261925349,6.634082829779607,0 79.93760251558827,6.634042993663082,0 79.93760524049283,6.634000724126392,0 79.9376051867889,6.633994298364285,0 79.93762703694424,6.633924866537339,0 79.93765167615705,6.633840308557107,0 79.93767557631277,6.633783739024973,0 79.93769681023441,6.63371225597923,0 79.93771983178388,6.633670173137904,0 79.93774549543434,6.633594366676912,0 79.93776158029928,6.633511681111847,0 79.93778956029665,6.633449700761616,0 79.93780760018197,6.633384884604689,0 79.93784625170878,6.633256130456558,0 79.93787057222968,6.633147650643818,0 79.9379041315448,6.633044553326221,0 79.9379407219448,6.632989592397619,0 79.93795500700338,6.632914324711924,0 79.93801545489757,6.632777712385503,0 79.93805071912529,6.63268890178956,0 79.93809783730697,6.632650106232457,0 79.93811630360688,6.63257978681407,0 79.93816189654528,6.632484117574974,0 79.93820691092964,6.632386543565779,0 79.93822889771343,6.632360569419374,0 79.93827310395774,6.632246737444376,0 79.93832140607294,6.632140242249129,0 79.93835739017828,6.632089741116461,0 79.93838617441038,6.632014832639024,0 79.93842498111451,6.631940187063623,0 79.9384264260441,6.631877775828428,0 79.93846210121733,6.631784400875105,0 79.9385191635246,6.631665416027755,0 79.93855662184713,6.631568930671531,0 79.93858686007889,6.631493910137523,0 79.93866637437537,6.631355334516586,0 79.93866631517312,6.631351973729353,0 79.93869801729487,6.631253512062766,0 79.93875136316997,6.631126950891571,0 79.93879734660634,6.631001380976775,0 79.93883581176804,6.630922016950169,0 79.93886127147086,6.630876120713659,0 79.93890548057261,6.630735938471913,0 79.93894733120631,6.630647576151564,0 79.93899497773201,6.630565942431046,0 79.93903598027589,6.630435778484724,0 79.93906327431132,6.630313743429238,0 79.93909362672125,6.630235651925557,0 79.9391346408092,6.630117759534722,0 79.93916054201374,6.6300126111439,0 79.93921342856007,6.629883049091357,0 79.93924774408302,6.629772830628958,0 79.93926859725416,6.629696204964526,0 79.93930799146047,6.6295905770218,0 79.93934925875439,6.629490787796444,0 79.93936974325705,6.629424356869558,0 79.93942104175061,6.629295034442389,0 79.93946161543671,6.629189887001948,0 79.93952027806013,6.629028425764423,0 79.93952023721674,6.629031631379691,0 79.93958238374928,6.628845553678618,0 79.93962679583011,6.628717824551764,0 79.9396666428044,6.62860808315031,0 79.93971624416901,6.62848782975181,0 79.93976114579237,6.628362904669888,0 79.939837713904,6.628170284462181,0 79.93983786191433,6.628167070941772,0 79.93989290642085,6.628024379997051,0 79.9399603891836,6.627834069866684,0 79.94000289074448,6.627741990945406,0 79.94004708417508,6.627635472083643,0 79.94010649514348,6.627482858971659,0 79.94014448156545,6.627366988319666,0 79.94017697703003,6.627266157707028,0 79.94021744930694,6.627187642188983,0 79.94021765259698,6.627183586981986,0 79.94024719265855,6.627096078336308,0 79.94025572014682,6.627015630519246,0 79.94025761033073,6.627009990354668,0 79.94030776729782,6.626934257762624,0 79.9403343115371,6.626848879628199,0 79.94040915432782,6.626650978000129,0 79.94043956554309,6.626610113804696,0 79.94044895434183,6.626543153213526,0 79.94044912025551,6.626534263110463,0 79.94046801137422,6.626445586420771,0 79.94051375912149,6.626338497347294,0 79.94051385362215,6.626334819791554,0 79.94055946789801,6.626228929976916,0 79.94058605885662,6.626118029212923,0 79.94064101277033,6.626047438840856,0 79.94065729590483,6.625964618924193,0 79.94067147680362,6.625879621039176,0 79.94072036710685,6.625770343889674,0 79.94075682872393,6.625700970986649,0 79.94078123429486,6.625630410681179,0 79.9408157539176,6.625504496245727,0 79.94085857416256,6.625450054385814,0 79.94088802438549,6.625393749024458,0 79.94089988846191,6.625305870928339,0 79.94095414564717,6.625203867256322,0 79.94100108464666,6.625119430876801,0 79.94101321140764,6.625041502121179,0 79.94105951494342,6.624911929771868,0 79.94106127567126,6.624903612791905,0 79.94111972191791,6.624799917855863,0 79.94119187253163,6.624600434672335,0 79.94128327178397,6.624410967479191,0 79.94133638329609,6.62429285589148,0 79.94143540331675,6.624114383083352,0 79.94148428182379,6.624000673270672,0 79.94157758050426,6.62376788035658,0 79.94167201472153,6.62354390697836,0 79.9417639617232,6.623294062986461,0 79.94188179303106,6.622998998720512,0 79.94198090814815,6.622753582747777,0 79.94207246228267,6.62253307017729,0 79.94218289086049,6.622293823724743,0 79.94229141161196,6.622033634493672,0 79.94235908795704,6.621852805422868,0 79.94238301892358,6.621759071207415,0 79.94241542662346,6.621669186469773,0 79.94244944381998,6.621569730805979,0 79.94248686038996,6.621485826012491,0 79.9425478785258,6.621275760435435,0 79.94254948397973,6.621261141554729,0 79.94261183108075,6.621134756399154,0 79.94273212524504,6.620834717621165,0 79.94280091284966,6.620680622190384,0 79.94294058739194,6.620386915345957,0 79.94299306763534,6.620226068294264,0 79.94308052202641,6.620004790422665,0 79.94316559372719,6.619808396355773,0 79.94323789016627,6.619663027371787,0 79.9433471526097,6.619357137821161,0 79.94334751105642,6.619352720143761,0 79.94341702710821,6.619218770290441,0 79.94354620401907,6.618930752144044,0 79.94366600618541,6.618607937916195,0 79.94380162215833,6.618199956366666,0 79.94392148080358,6.617855927916211,0 79.94406846134409,6.617558945524393,0 79.94418141496413,6.617317523409168,0 79.94432554980386,6.617009989235683,0 79.94449228958931,6.616619107760616,0 79.94478724787164,6.616069051548704,0 79.94499649317861,6.61567546954485,0 79.9451976977065,6.615239993753949,0 79.9455026389206,6.61467467025796,0 79.94550397730606,6.614659112844532,0 79.94575212116774,6.614193632372658,0 79.94600249061173,6.613634853023408,0 79.94624773612522,6.613022709346259,0 79.94657516771829,6.612312844487819,0 79.94684510820184,6.611644592870565,0 79.94684576244076,6.611633933624284,0 79.94708213031598,6.611665394697102,0 
			</coordinates>
		</LineString>
		<atom:link rel="app" href="https://www.google.com/earth/about/versions/#earth-pro" title="Google Earth Pro 7.3.7.1155"></atom:link>
	</Placemark>
</Document>
</kml>
