<?xml version="1.0" encoding="UTF-8"?>
<kml xmlns="http://www.opengis.net/kml/2.2">
<Document>
	<name>Forecast 2029 (Ensemble)</name>
	<Style id="red_line">
		<LineStyle>
			<color>ff0000ff</color>
			<width>4</width>
		</LineStyle>
	</Style>
	<Placemark>
		<name>Forecast Shoreline 2029</name>
		<styleUrl>#red_line</styleUrl>
		<LineString>
			<tessellate>1</tessellate>
			<coordinates>
				79.94694325756230,6.61170022539376,0 79.94665883177616,6.61222135308947,0 79.94640735757821,6.61275551711170,0 79.94617442551962,6.61329701678590,0 79.94594185410453,6.61383865913810,0 79.94571774690834,6.61438365010952,0 79.94544822534007,6.61491067422058,0 79.94516772808328,6.61543335612336,0 79.94491157742996,6.61596567004360,0 79.94469243977179,6.61651262706653,0 79.94446544248892,6.61705647466016,0 79.94420416348443,6.61758675969912,0 79.94395029559239,6.61811997672669,0 79.94371808115042,6.61866176030481,0 79.94347729047749,6.61920015094943,0 79.94323821739680,6.61973922110889,0 79.94296880701984,6.62026628920954,0 79.94273323357756,6.62080674389799,0 79.94250124990062,6.62134861877149,0 79.94227328178198,6.62189208228252,0 79.94206497052156,6.62244332245124,0 79.94186187817877,6.62299662733120,0 79.94162481801270,6.62353649384112,0 79.94140243970782,6.62408216879751,0 79.94119326534062,6.62463306750343,0 79.94099602389456,6.62518868711857,0 79.94079388742774,6.62574237016273,0 79.94055528910144,6.62628162814481,0 79.94032087392293,6.62682254106625,0 79.94013235882542,6.62738161300448,0 79.93993211940372,6.62793604655874,0 79.93976961521096,6.62850540894626,0 79.93960686379350,6.62907467352660,0 79.93945938241777,6.62964997924975,0 79.93927986385211,6.63021261040115,0 79.93905787794169,6.63075844059687,0 79.93884352266139,6.63130728962693,0 79.93861366506343,6.63185000562105,0 79.93837401355866,6.63238884694404,0 79.93813789368947,6.63292908545476,0 79.93790784586005,6.63347172618939,0 79.93769478050088,6.63402108553880,0 79.93745852848461,6.63456127176941,0 79.93727166924936,6.63512099880083,0 79.93709953526111,6.63568655144306,0 79.93690010736501,6.63624130605355,0 79.93673660904969,6.63681027514572,0 79.93653688227144,6.63736491151228,0 79.93633582436064,6.63791902125541,0 79.93612591724587,6.63846963007131,0
			</coordinates>
		</LineString>
	</Placemark>
</Document>
</kml>
