<?xml version="1.0" encoding="UTF-8"?>
<kml xmlns="http://www.opengis.net/kml/2.2">
<Document>
	<name>Forecast 2028 (Ensemble)</name>
	<Style id="red_line">
		<LineStyle>
			<color>ff0000ff</color>
			<width>4</width>
		</LineStyle>
	</Style>
	<Placemark>
		<name>Forecast Shoreline 2028</name>
		<styleUrl>#red_line</styleUrl>
		<LineString>
			<tessellate>1</tessellate>
			<coordinates>
				80.01648533650005,6.35694970389304,0 80.01636686090174,6.35716833294030,0 80.01646155907596,6.35750539637801,0 80.01646600128234,6.35779231569898,0 80.01640090392389,6.35804060045496,0 80.01633326375685,6.35828747248559,0 80.01624322262657,6.35852189906203,0 80.01616808401232,6.35876460512980,0 80.01603817108455,6.35897687986279,0 80.01592284023216,6.35919725605777,0 80.01581410529661,6.35942129679074,0 80.01571617482820,6.35965134023437,0 80.01560027293797,6.35987139917400,0 80.01549592687709,6.36009787826366,0 80.01536556910521,6.36030990585163,0 80.01524168868077,6.36052553210319,0 80.01512437647740,6.36074480750563,0 80.01500510583833,6.36096299484674,0 80.01488313389331,6.36117968140508,0 80.01476759055588,6.36139993954830,0 80.01464240022069,6.36161483804392,0 80.01452328669217,6.36183311267200,0 80.01440096741096,6.36204960625844,0 80.01425753607312,6.36225437047718,0 80.01412526896151,6.36246533728041,0 80.01401408751926,6.36268801879114,0 80.01389373380721,6.36290560440209,0 80.01375078381740,6.36311063604662,0 80.01362021476324,6.36332254625107,0 80.01349495970369,6.36353740878733,0 80.01335471965230,6.36374394601062,0 80.01324285400575,6.36396624739337,0 80.01312335000109,6.36418430508199,0 80.01299739931004,6.36439878114156,0 80.01289708706807,6.36462750132720,0 80.01275315185154,6.36483198560269,0 80.01263930241458,6.36505318483761,0 80.01249283429523,6.36525626189118,0 80.01235921024492,6.36546647481081,0 80.01222067347378,6.36567395833700,0 80.01209057535569,6.36588613018256,0 80.01195866542355,6.36609729542638,0 80.01186230959755,6.36632821370473,0 80.01175583946778,6.36655351271112,0 80.01162898610939,6.36676748726972,0 80.01147814570307,6.36696813518233,0 80.01136439552371,6.36718938956248,0 80.01120917432085,6.36738760360641,0 80.01106614359107,6.36759259039368,0 80.01086864722527,6.36776731734025,0
			</coordinates>
		</LineString>
	</Placemark>
</Document>
</kml>
