<?xml version="1.0" encoding="UTF-8"?>
<kml xmlns="http://www.opengis.net/kml/2.2">
<Document>
	<name>Forecast 2030 (Ensemble)</name>
	<Style id="red_line">
		<LineStyle>
			<color>ff0000ff</color>
			<width>4</width>
		</LineStyle>
	</Style>
	<Placemark>
		<name>Forecast Shoreline 2030</name>
		<styleUrl>#red_line</styleUrl>
		<LineString>
			<tessellate>1</tessellate>
			<coordinates>
				79.94694542152061,6.61170108150020,0 79.94666635119273,6.61222432792543,0 79.94641433799630,6.61275827870877,0 79.94618039609119,6.61329937886690,0 79.94595070090753,6.61384215911545,0 79.94572863231922,6.61438795660211,0 79.94545929760289,6.61491505463565,0 79.94517634910659,6.61543676677762,0 79.94492037358792,6.61596914998472,0 79.94470807281947,6.61651881182196,0 79.94448126238800,6.61706273333785,0 79.94421912040492,6.61759267696472,0 79.94396172265471,6.61812449750774,0 79.94372880232757,6.61866600182316,0 79.94348539676879,6.61920335796511,0 79.94324417225918,6.61974157697502,0 79.94296969277090,6.62026663963088,0 79.94273187697269,6.62080620719718,0 79.94249810353078,6.62134737400282,0 79.94226848965313,6.62189018641770,0 79.94206084748453,6.62244169129292,0 79.94185853649999,6.62299530529429,0 79.94161977744353,6.62353449968821,0 79.94139812977021,6.62408046369748,0 79.94118955050379,6.62463159783752,0 79.94099413640869,6.62518794039030,0 79.94079329858207,6.62574213720326,0 79.94055125910076,6.62628003379359,0 79.94031365541875,6.62681968527741,0 79.94012685979541,6.62737943747501,0 79.93992754632836,6.62793423735599,0 79.93976725619559,6.62850447567122,0 79.93960738787585,6.62907488086436,0 79.93946416688976,6.62965187208534,0 79.93928665120050,6.63021529561587,0 79.93906424945226,6.63076096129759,0 79.93885249966276,6.63131084111344,0 79.93862500009780,6.63185448999395,0 79.93838518714006,6.63239326744282,0 79.93815387096004,6.63293540639185,0 79.93792529613262,6.63347862987639,0 79.93771182145659,6.63402782729162,0 79.93746590401038,6.63456418967921,0 79.93727548814462,6.63512250963440,0 79.93710371161166,6.63568820369329,0 79.93690316711961,6.63624251655544,0 79.93673906983311,6.63681124868229,0 79.93653711226003,6.63736500250049,0 79.93633539169960,6.63791885008579,0 79.93612620822296,6.63846974518783,0
			</coordinates>
		</LineString>
	</Placemark>
</Document>
</kml>
