<?xml version="1.0" encoding="UTF-8"?>
<kml xmlns="http://www.opengis.net/kml/2.2">
<Document>
	<name>Forecast 2025 (Ensemble)</name>
	<Style id="red_line">
		<LineStyle>
			<color>ff0000ff</color>
			<width>4</width>
		</LineStyle>
	</Style>
	<Placemark>
		<name>Forecast Shoreline 2025</name>
		<styleUrl>#red_line</styleUrl>
		<LineString>
			<tessellate>1</tessellate>
			<coordinates>
				79.94693398998932,6.61169655895113,0 79.94680927545855,6.61183887960689,0 79.94672915863241,6.61199884403254,0 79.94665998399840,6.61216313741462,0 79.94658453564641,6.61232494878473,0 79.94650876329098,6.61248663197241,0 79.94642336381051,6.61264450647128,0 79.94635526413548,6.61280922512925,0 79.94628345560191,6.61297247648645,0 79.94621140149826,6.61313563069107,0 79.94614957365589,6.61330283061514,0 79.94607458807667,6.61346482506768,0 79.94600230941529,6.61362789043265,0 79.94592873366662,6.61379044264317,0 79.94586147475573,6.61395549392475,0 79.94577901384764,6.61411453098333,0 79.94571624158327,6.61428135727461,0 79.94565405858053,6.61444841668993,0 79.94557202926691,6.61460762449617,0 79.94549569436018,6.61476908512698,0 79.94539846635789,6.61492228001915,0 79.94531341487708,6.61508029219384,0 79.94524677508089,6.61524558840994,0 79.94515202768881,6.61539976468257,0 79.94508168682511,6.61556359668017,0 79.94501011982382,6.61572694359251,0 79.94492018434781,6.61588302355818,0 79.94484456912188,6.61604476890953,0 79.94477431729085,6.61620863613029,0 79.94471280479432,6.61637596081166,0 79.94463310552304,6.61653609043061,0 79.94456403773469,6.61670042608302,0 79.94449567230245,6.61686503960198,0 79.94442992201559,6.61703068772626,0 79.94434573439165,6.61718904166052,0 79.94427788153875,6.61735385796641,0 79.94419778919821,6.61751383207907,0 79.94410693506369,6.61766954860452,0 79.94403766679974,6.61783380494467,0 79.94396517213049,6.61799678485247,0 79.94390180094246,6.61816337419722,0 79.94383836021294,6.61832993602993,0 79.94376183889148,6.61849132291124,0 79.94368679379822,6.61865329381881,0 79.94362144543437,6.61881910095212,0 79.94354166002934,6.61897919649478,0 79.94347375485421,6.61914399210091,0 79.94341060202635,6.61931066783345,0 79.94333234386259,6.61947136758419,0 79.94326084011283,6.61963473952014,0 79.94318640923576,6.61979695342427,0 79.94310318146459,6.61995568709604,0 79.94303251783300,6.62011939140003,0 79.94296512451504,6.62028438950740,0 79.94289698954491,6.62044909420190,0 79.94282113233719,6.62061074382027,0 79.94275414115583,6.62077590102116,0 79.94267506779840,6.62093627826451,0 79.94260881759872,6.62110172861300,0 79.94254158143029,6.62126678889196,0 79.94248459806869,6.62143590539233,0 79.94241696999202,6.62160081062432,0 79.94235026419977,6.62176608073101,0 79.94227938612902,6.62192970019845,0 79.94221435433026,6.62209563257142,0 79.94214385811391,6.62225940310832,0 79.94208811050639,6.62242900849844,0 79.94203155890622,6.62259829581252,0 79.94197704812608,6.62276839051701,0 79.94190090600381,6.62292992741732,0 79.94183672921707,6.62309619805065,0 79.94176649789013,6.62326007338326,0 79.94169692203023,6.62342420803211,0 79.94162350654901,6.62358682364774,0 79.94155284393788,6.62375052835544,0 79.94148909292639,6.62391696743422,0 79.94141920603876,6.62408097903410,0 79.94135211768186,6.62424609779035,0 79.94128965581447,6.62441304688107,0 79.94122375834962,6.62457863677871,0 79.94116581226227,6.62474737240496,0 79.94110579476811,6.62491528854004,0 79.94105493306164,6.62508682689318,0 79.94099242239844,6.62525375667927,0 79.94092656858064,6.62541936384459,0 79.94086629458072,6.62558717850071,0 79.94080464323453,6.62575444825030,0 79.94073557543716,6.62591878389915,0 79.94065601058561,6.62607896669731,0 79.94059705087875,6.62624730131482,0 79.94051400551737,6.62640610715165,0 79.94044092252405,6.62656885430634,0 79.94038029351441,6.62673652851331,0 79.94032246786627,6.62690531178779,0 79.94026143493628,6.62707282619555,0 79.94020791154391,6.62724331153096,0 79.94014812269630,6.62741131812333,0 79.94009071957313,6.62758026855738,0 79.94002626189895,6.62774642806585,0 79.93996401627133,6.62791346270547,0 79.93991546435248,6.62808591485813,0 79.93986624531338,6.62825810308430,0 79.93981107266443,6.62842793593986,0 79.93975216730740,6.62859629205928,0 79.93971012944918,6.62877132130841,0 79.93965835971015,6.62894250042518,0 79.93959524151930,6.62910918986083,0 79.93954768465545,6.62928203567773,0 79.93950408184719,6.62945644580041,0 79.93945603921294,6.62962909943655,0 79.93940120115435,6.62979906466295,0 79.93933896461735,6.62996610289900,0 79.93928219960615,6.63013530578328,0 79.93922994280285,6.63030629220740,0 79.93916103654983,6.63047069176652,0 79.93908768946923,6.63063333444285,0 79.93902038414747,6.63079836736332,0 79.93895614763642,6.63096461436848,0 79.93888373031088,6.63112762487504,0 79.93881926278166,6.63129378048466,0 79.93874620189506,6.63145653638522,0 79.93867997444316,6.63162199573321,0 79.93860312857936,6.63178325421888,0 79.93853065528657,6.63194624258365,0 79.93845214420932,6.63210684227661,0 79.93837982412126,6.63226989125233,0 79.93831071891140,6.63243421210002,0 79.93823669286678,6.63259658616420,0 79.93817100197408,6.63276225778605,0 79.93808015985134,6.63291797906361,0 79.93800543359761,6.63308007611066,0 79.93793423971583,6.63324357063676,0 79.93786786639365,6.63340897227544,0 79.93780690251243,6.63357651400033,0 79.93773945717287,6.63374149152688,0 79.93767031589748,6.63390579810632,0 79.93760760852624,6.63407265007065,0 79.93755078267095,6.63424182888377,0 79.93748426132328,6.63440717196052,0 79.93742322545535,6.63457468520598,0 79.93736862791462,6.63474474558620,0 79.93731837389950,6.63491652435455,0 79.93726720996416,6.63508794313972,0 79.93721560494767,6.63525918742412,0 79.93716374478555,6.63543033076765,0 79.93710217116575,6.63559763126740,0 79.93705227199888,6.63576955042102,0 79.93698922904180,6.63593626962069,0 79.93692979572351,6.63610441686778,0 79.93686692650067,6.63627120480029,0 79.93681405720289,6.63644194890899,0 79.93677543689252,6.63661833021038,0 79.93672550521666,6.63679023650277,0 79.93667433997641,6.63696165477170,0 79.93661506462603,6.63712986451413,0 79.93655167799602,6.63729644774973,0 79.93649576360997,6.63746598715883,0 79.93642752312631,6.63763065011001,0 79.93636971010031,6.63779943837807,0 79.93630610710588,6.63796593601544,0 79.93624076729293,6.63813174653167,0 79.93618761356853,6.63830237811534,0 79.93611922525254,6.63846698258101,0
			</coordinates>
		</LineString>
	</Placemark>
</Document>
</kml>
