<?xml version="1.0" encoding="UTF-8"?>
<kml xmlns="http://www.opengis.net/kml/2.2">
<Document>
	<name>Forecast 2032</name>
	<Style id="red_line">
		<LineStyle>
			<color>ff0000ff</color>
			<width>4</width>
		</LineStyle>
	</Style>
	<Placemark>
		<name>Forecast Shoreline 2032</name>
		<styleUrl>#red_line</styleUrl>
		<LineString>
			<tessellate>1</tessellate>
			<coordinates>
				80.01650349831957,6.35695979417759,0 80.01638643611646,6.35717920847436,0 80.01650605367531,6.35753011654265,0 80.01649926208330,6.35781079462648,0 80.01644613709189,6.35806573095115,0 80.01637656463556,6.35831152944680,0 80.01626940517825,6.35853644547884,0 80.01621211089926,6.35878906544429,0 80.01608050857759,6.35900040158933,0 80.01594777309320,6.35921110817552,0 80.01585129823316,6.35944196032132,0 80.01573546301424,6.35966205630197,0 80.01560814748584,6.35987577408966,0 80.01549980410964,6.36010003236390,0 80.01535726567982,6.36030529266159,0 80.01523243919061,6.36052039330156,0 80.01511622625179,6.36074027942982,0 80.01499359920371,6.36095660202814,0 80.01488015336072,6.36117802549049,0 80.01476242132379,6.36139706764317,0 80.01463704457562,6.36161186257207,0 80.01450937200804,6.36182538199710,0 80.01438306771517,6.36203966160373,0 80.01423693773560,6.36224292651990,0 80.01410580150775,6.36245452161583,0 80.01399238826349,6.36267596318928,0 80.01386190371650,6.36288792034394,0 80.01371435369740,6.36309039631917,0 80.01357957192245,6.36329996603392,0 80.01344331398009,6.36350871562437,0 80.01331324110110,6.36372090149220,0 80.01320385166284,6.36394457859869,0 80.01307649394035,6.36415827294432,0 80.01294306459287,6.36436859403632,0 80.01283875060581,6.36459509094544,0 80.01269880086467,6.36480178945836,0 80.01260009387836,6.36503140148672,0 80.01245894040805,6.36523743123570,0 80.01231258734200,6.36544057221020,0 80.01217079910091,6.36564624929531,0 80.01205048601803,6.36586385747888,0 80.01191073030955,6.36607066379183,0 80.01181001143617,6.36629915806252,0 80.01169930144634,6.36652210150126,0 80.01156817609058,6.36673370263746,0 80.01141824227759,6.36693485423225,0 80.01129688620151,6.36715188295306,0 80.01114281663828,6.36735073682119,0 80.01100318098493,6.36755760983397,0 80.01078005461551,6.36771809734658,0
			</coordinates>
		</LineString>
	</Placemark>
</Document>
</kml>
