<?xml version="1.0" encoding="UTF-8"?>
<kml xmlns="http://www.opengis.net/kml/2.2">
<Document>
	<name>Forecast 2031 (LinearRegression)</name>
	<Style id="red_line">
		<LineStyle>
			<color>ff0000ff</color>
			<width>4</width>
		</LineStyle>
	</Style>
	<Placemark>
		<name>Forecast Shoreline 2031</name>
		<styleUrl>#red_line</styleUrl>
		<LineString>
			<tessellate>1</tessellate>
			<coordinates>
				80.01650226706131,6.35695911011914,0 80.01638485625040,6.35717833073752,0 80.01650209702542,6.35752791831998,0 80.01649633144983,6.35780916643468,0 80.01644316195996,6.35806407803703,0 80.01637332613363,6.35830973021044,0 80.01626764305932,6.35853546648655,0 80.01620756668805,6.35878654078622,0 80.01607701058239,6.35899845818455,0 80.01594535449840,6.35920976446049,0 80.01584771183336,6.35943996780100,0 80.01573251740679,6.35966041979097,0 80.01560616983609,6.35987467535345,0 80.01549704863601,6.36009850148683,0 80.01535611092572,6.36030465110706,0 80.01523167689595,6.36051996978838,0 80.01511497652771,6.36073958511219,0 80.01499259858171,6.36095604610584,0 80.01487918096313,6.36117748524901,0 80.01476120064835,6.36139638946428,0 80.01463582589319,6.36161118550045,0 80.01450791782108,6.36182457408464,0 80.01438186386500,6.36203899277257,0 80.01423661087125,6.36224274492167,0 80.01410531437497,6.36245425097620,0 80.01399120310769,6.36267530474428,0 80.01386108280369,6.36288746426387,0 80.01371488870048,6.36309069355443,0 80.01358052329672,6.36330049459534,0 80.01344466949053,6.36350946871445,0 80.01331409164482,6.36372137403451,0 80.01320357351504,6.36394442406624,0 80.01307672173648,6.36415839950256,0 80.01294343613749,6.36436880045786,0 80.01283829136702,6.36459483580305,0 80.01269874437803,6.36480175807570,0 80.01259837556762,6.36503044683323,0 80.01245841717974,6.36523714054222,0 80.01231338262625,6.36544101405164,0 80.01217274329584,6.36564732944480,0 80.01205178407224,6.36586457864761,0 80.01191320154237,6.36607203675131,0 80.01181149437198,6.36629998194717,0 80.01170021152876,6.36652260712189,0 80.01156916408982,6.36673425154686,0 80.01142001194424,6.36693583741788,0 80.01129799792727,6.36715250060204,0 80.01114462443454,6.36735174119075,0 80.01100398772276,6.36755805803875,0 80.01078177457531,6.36771905291624,0
			</coordinates>
		</LineString>
	</Placemark>
</Document>
</kml>
