<?xml version="1.0" encoding="UTF-8"?>
<kml xmlns="http://www.opengis.net/kml/2.2">
<Document>
	<name>Forecast 2029 (Ensemble)</name>
	<Style id="red_line">
		<LineStyle>
			<color>ff0000ff</color>
			<width>4</width>
		</LineStyle>
	</Style>
	<Placemark>
		<name>Forecast Shoreline 2029</name>
		<styleUrl>#red_line</styleUrl>
		<LineString>
			<tessellate>1</tessellate>
			<coordinates>
				80.01648450124995,6.35694923984751,0 80.01636526420046,6.35716744585021,0 80.01645800926585,6.35750342418607,0 80.01646247661883,6.35779035747790,0 80.01639939170128,6.35803976029924,0 80.01633132478571,6.35828639523833,0 80.01624379920885,6.35852221939774,0 80.01616271591631,6.35876162274049,0 80.01603429428543,6.35897472600337,0 80.01592023271448,6.35919580738158,0 80.01580877582610,6.35941833586087,0 80.01571132514479,6.35964864586306,0 80.01559519111622,6.35986857583201,0 80.01548930624509,6.36009419999449,0 80.01536290606533,6.36030842632861,0 80.01523995211369,6.36052456730690,0 80.01512150198337,6.36074321050359,0 80.01500212741503,6.36096134010402,0 80.01488087728195,6.36117842768429,0 80.01476493066352,6.36139846177397,0 80.01463909049785,6.36161299923888,0 80.01451879856657,6.36183061917379,0 80.01439656311298,6.36204715933290,0 80.01425337415718,6.36225205821348,0 80.01412108003092,6.36246301000799,0 80.01400820634439,6.36268475134716,0 80.01388829393491,6.36290258213556,0 80.01374676188847,6.36310840155644,0 80.01361691387569,6.36332071235471,0 80.01349185565496,6.36353568425004,0 80.01335123452074,6.36374200975257,0 80.01323619698042,6.36396254890491,0 80.01311722344543,6.36418090131014,0 80.01299157256990,6.36439554394025,0 80.01289000644437,6.36462356749734,0 80.01274819660341,6.36482923258206,0 80.01263139958733,6.36504879421057,0 80.01248831959144,6.36525375362675,0 80.01235727601468,6.36546540019747,0 80.01222044489140,6.36567383134194,0 80.01208907886701,6.36588529876825,0 80.01195825310835,6.36609706635364,0 80.01186040737352,6.36632715687330,0 80.01175222765588,6.36655150607242,0 80.01162435306598,6.36676491325855,0 80.01147692057701,6.36696745453078,0 80.01136089797313,6.36718744640471,0 80.01120714712491,6.36738647734348,0 80.01106238362991,6.36759050144670,0 80.01086530458007,6.36776546024431,0
			</coordinates>
		</LineString>
	</Placemark>
</Document>
</kml>
