<?xml version="1.0" encoding="UTF-8"?>
<kml xmlns="http://www.opengis.net/kml/2.2">
<Document>
	<name>Forecast 2028 (Ensemble)</name>
	<Style id="red_line">
		<LineStyle>
			<color>ff0000ff</color>
			<width>4</width>
		</LineStyle>
	</Style>
	<Placemark>
		<name>Forecast Shoreline 2028</name>
		<styleUrl>#red_line</styleUrl>
		<LineString>
			<tessellate>1</tessellate>
			<coordinates>
				80.01648553770150,6.35694981567589,0 80.01636606926408,6.35716789312483,0 80.01645940736887,6.35750420093959,0 80.01646352936204,6.35779094235755,0 80.01640208646479,6.35804125744717,0 80.01633341952834,6.35828755902861,0 80.01624531918874,6.35852306386322,0 80.01616331846688,6.35876195750358,0 80.01603594873502,6.35897564517708,0 80.01592077106541,6.35919610647683,0 80.01580960443113,6.35941879621455,0 80.01571042298775,6.35964814464559,0 80.01559387151671,6.35986784269321,0 80.01548647853888,6.36009262898668,0 80.01536033824394,6.36030699970675,0 80.01523772750753,6.36052333136745,0 80.01511883198908,6.36074172711686,0 80.01499929180640,6.36095976470582,0 80.01487926621803,6.36117753261465,0 80.01476271058171,6.36139722834815,0 80.01463684522095,6.36161175181525,0 80.01451506539685,6.36182854511152,0 80.01439258119234,6.36204494707040,0 80.01425008753714,6.36225023224381,0 80.01411774877297,6.36246115923855,0 80.01400370584631,6.36268225097509,0 80.01388282116905,6.36289954159412,0 80.01374230703368,6.36310592654272,0 80.01361239018250,6.36331819909598,0 80.01348628212179,6.36353258772464,0 80.01334646440752,6.36373935958860,0 80.01323039032602,6.36395932286277,0 80.01311094004481,6.36417741039888,0 80.01298441861935,6.36439156937170,0 80.01288127803012,6.36461871819338,0 80.01274050980355,6.36482496197482,0 80.01262378452526,6.36504456345919,0 80.01248290743553,6.36525074675879,0 80.01235170446043,6.36546230477150,0 80.01221582797851,6.36567126629251,0 80.01208504760085,6.36588305909053,0 80.01195455776788,6.36609501330842,0 80.01185487581598,6.36632408366858,0 80.01174540210798,6.36654771395674,0 80.01161703450332,6.36676084723533,0 80.01147069748635,6.36696399712633,0 80.01135280137552,6.36718294812338,0 80.01120007326521,6.36738254727155,0 80.01105454423791,6.36758614606282,0 80.01085499940530,6.36775973492887,0
			</coordinates>
		</LineString>
	</Placemark>
</Document>
</kml>
