<?xml version="1.0" encoding="UTF-8"?>
<kml xmlns="http://www.opengis.net/kml/2.2" xmlns:gx="http://www.google.com/kml/ext/2.2" xmlns:kml="http://www.opengis.net/kml/2.2" xmlns:atom="http://www.w3.org/2005/Atom">
<Document>
	<name>SWnew 1292010.kml</name>
	<StyleMap id="m_ylw-pushpin">
		<Pair>
			<key>normal</key>
			<styleUrl>#s_ylw-pushpin</styleUrl>
		</Pair>
		<Pair>
			<key>highlight</key>
			<styleUrl>#s_ylw-pushpin_hl</styleUrl>
		</Pair>
	</StyleMap>
	<Style id="s_ylw-pushpin">
		<IconStyle>
			<scale>1.1</scale>
			<Icon>
				<href>http://maps.google.com/mapfiles/kml/pushpin/ylw-pushpin.png</href>
			</Icon>
			<hotSpot x="20" y="2" xunits="pixels" yunits="pixels"/>
		</IconStyle>
	</Style>
	<Style id="s_ylw-pushpin_hl">
		<IconStyle>
			<scale>1.3</scale>
			<Icon>
				<href>http://maps.google.com/mapfiles/kml/pushpin/ylw-pushpin.png</href>
			</Icon>
			<hotSpot x="20" y="2" xunits="pixels" yunits="pixels"/>
		</IconStyle>
	</Style>
	<Placemark>
		<name>SWnew 1/29/2010</name>
		<styleUrl>#m_ylw-pushpin</styleUrl>
		<LineString>
			<tessellate>1</tessellate>
			<coordinates>
				80.010731659586,6.367750056516497,0 80.01092021664664,6.367634559299765,0 80.01121484043593,6.367303965637678,0 80.01134734691625,6.367003789620085,0 80.01150512143732,6.366802538129914,0 80.01159160742036,6.366693359675939,0 80.01172423197505,6.366343428630564,0 80.01190794691006,6.366038308397552,0 80.01201358923483,6.365827326288104,0 80.01217187998832,6.36559277747947,0 80.01240577089152,6.365254621547779,0 80.01259803077312,6.364952656394237,0 80.01284526811054,6.364575870052431,0 80.01303773342251,6.364170837572309,0 80.01318131086188,6.363940370548638,0 80.01327177087181,6.363785933782509,0 80.01349157273002,6.363427212297963,0 80.01374597353202,6.363003067124508,0 80.01399673033237,6.362578165031279,0 80.01420955411606,6.362289512616383,0 80.0143954092341,6.361988361280297,0 80.01464237872811,6.361556775672285,0 80.01481491273012,6.361243868383149,0 80.01497631927262,6.360993240184983,0 80.01519128964588,6.360551178515196,0 80.01536440518817,6.360220723920582,0 80.01548426397463,6.360016744430259,0 80.01571192254943,6.3595593939237,0 80.01581026405584,6.359361951845929,0 80.01594535405667,6.359181039230712,0 80.01611723333012,6.358813141628565,0 80.01623705363275,6.358559529868325,0 80.01641453215133,6.358166336311359,0 80.01641151293465,6.357954721005939,0 80.01641532020373,6.357732053514861,0 80.01645839006753,6.357515121902281,0 80.01641740313279,6.357393201352441,0 80.01632026979941,6.357211139502764,0 
			</coordinates>
		</LineString>
		<atom:link rel="app" href="https://www.google.com/earth/about/versions/#earth-pro" title="Google Earth Pro 7.3.6.10441"></atom:link>
	</Placemark>
</Document>
</kml>
