<?xml version="1.0" encoding="UTF-8"?>
<kml xmlns="http://www.opengis.net/kml/2.2" xmlns:gx="http://www.google.com/kml/ext/2.2" xmlns:kml="http://www.opengis.net/kml/2.2" xmlns:atom="http://www.w3.org/2005/Atom">
<Document>
	<name>SWnew 1302012.kml</name>
	<StyleMap id="m_ylw-pushpin">
		<Pair>
			<key>normal</key>
			<styleUrl>#s_ylw-pushpin</styleUrl>
		</Pair>
		<Pair>
			<key>highlight</key>
			<styleUrl>#s_ylw-pushpin_hl</styleUrl>
		</Pair>
	</StyleMap>
	<Style id="s_ylw-pushpin">
		<IconStyle>
			<scale>1.1</scale>
			<Icon>
				<href>http://maps.google.com/mapfiles/kml/pushpin/ylw-pushpin.png</href>
			</Icon>
			<hotSpot x="20" y="2" xunits="pixels" yunits="pixels"/>
		</IconStyle>
	</Style>
	<Style id="s_ylw-pushpin_hl">
		<IconStyle>
			<scale>1.3</scale>
			<Icon>
				<href>http://maps.google.com/mapfiles/kml/pushpin/ylw-pushpin.png</href>
			</Icon>
			<hotSpot x="20" y="2" xunits="pixels" yunits="pixels"/>
		</IconStyle>
	</Style>
	<Placemark>
		<name>SWnew 1/30/2012</name>
		<styleUrl>#m_ylw-pushpin</styleUrl>
		<LineString>
			<tessellate>1</tessellate>
			<coordinates>
				80.01090352644673,6.367802705240749,0 80.01102028674816,6.367674111622751,0 80.01126431939304,6.367375614895082,0 80.01145470127092,6.367076270167379,0 80.01165220742237,6.366723080424607,0 80.01183949578022,6.366395298658942,0 80.01209080277597,6.365948336223005,0 80.01234215955201,6.365531371910287,0 80.01250628996496,6.365091133344747,0 80.01263975898939,6.364936224029178,0 80.01282101129981,6.364688710319226,0 80.01301667312246,6.364353608210219,0 80.01315632698009,6.364051994444525,0 80.01330271513481,6.363853323419518,0 80.01354695815921,6.363524509528412,0 80.01367862003841,6.363292862162194,0 80.01375428366515,6.363174477744231,0 80.01391544405259,6.362812031054911,0 80.01410833333961,6.362500443769146,0 80.01422584108305,6.362257323598408,0 80.01439544590525,6.362012637572649,0 80.01463873148975,6.361656279440998,0 80.01490207191765,6.361223085838612,0 80.01511049890915,6.360861536008335,0 80.01528112309579,6.36056581607024,0 80.01546965199481,6.36021043150048,0 80.01562671301971,6.359906461715793,0 80.01575155993778,6.359679561668888,0 80.01589598192477,6.359311857114004,0 80.01599767931522,6.359020498943788,0 80.01615336999322,6.358684509650834,0 80.01628687342939,6.358484897946442,0 80.01637998767512,6.358206693774917,0 80.01645576071652,6.357929946816471,0 80.0164805944429,6.357748787363051,0 80.0164648526242,6.357528410516345,0 80.01632256380003,6.357232076160034,0 
			</coordinates>
		</LineString>
		<atom:link rel="app" href="https://www.google.com/earth/about/versions/#earth-pro" title="Google Earth Pro 7.3.6.10441"></atom:link>
	</Placemark>
</Document>
</kml>
