<?xml version="1.0" encoding="UTF-8"?>
<kml xmlns="http://www.opengis.net/kml/2.2" xmlns:gx="http://www.google.com/kml/ext/2.2" xmlns:kml="http://www.opengis.net/kml/2.2" xmlns:atom="http://www.w3.org/2005/Atom">
<Document>
	<name>SWnew 4302023.kml</name>
	<StyleMap id="m_ylw-pushpin">
		<Pair>
			<key>normal</key>
			<styleUrl>#s_ylw-pushpin</styleUrl>
		</Pair>
		<Pair>
			<key>highlight</key>
			<styleUrl>#s_ylw-pushpin_hl</styleUrl>
		</Pair>
	</StyleMap>
	<Style id="s_ylw-pushpin">
		<IconStyle>
			<scale>1.1</scale>
			<Icon>
				<href>http://maps.google.com/mapfiles/kml/pushpin/ylw-pushpin.png</href>
			</Icon>
			<hotSpot x="20" y="2" xunits="pixels" yunits="pixels"/>
		</IconStyle>
	</Style>
	<Style id="s_ylw-pushpin_hl">
		<IconStyle>
			<scale>1.3</scale>
			<Icon>
				<href>http://maps.google.com/mapfiles/kml/pushpin/ylw-pushpin.png</href>
			</Icon>
			<hotSpot x="20" y="2" xunits="pixels" yunits="pixels"/>
		</IconStyle>
	</Style>
	<Placemark>
		<name>SWnew 4/30/2023</name>
		<styleUrl>#m_ylw-pushpin</styleUrl>
		<LineString>
			<tessellate>1</tessellate>
			<coordinates>
				80.01073754190449,6.367804707465115,0 80.0109865642784,6.367546605792797,0 80.01124412018312,6.36723247562257,0 80.01146550580116,6.366853701701473,0 80.01171161687428,6.366452409213172,0 80.0119190990858,6.366101491914433,0 80.01214958794816,6.365797034362752,0 80.01238137578181,6.365450647008072,0 80.01265170226013,6.365020384317919,0 80.01287801136755,6.364652862965148,0 80.01306427400472,6.364274495809817,0 80.01324596013443,6.363878729112826,0 80.01354743492155,6.363435334829577,0 80.01371682121588,6.3631382733941,0 80.01391167269502,6.362712749900778,0 80.01409683049815,6.362374180660781,0 80.01439628354748,6.362030024450284,0 80.01461824487306,6.361645563859422,0 80.01486893075943,6.361280460808522,0 80.01510916395149,6.36089563023057,0 80.01528372122883,6.36053975640139,0 80.01551093801957,6.360101699373153,0 80.01567602714749,6.359763078593215,0 80.01589816369119,6.359305835552947,0 80.01615035712526,6.358870964531622,0 80.01634986644861,6.358475662123252,0 80.01644559225194,6.358232879553763,0 80.01652871537328,6.357993087353567,0 80.01652158296254,6.357760958598893,0 80.01651295486781,6.357553662645641,0 80.01636632525278,6.35722809975347,0 
			</coordinates>
		</LineString>
		<atom:link rel="app" href="https://www.google.com/earth/about/versions/#earth-pro" title="Google Earth Pro 7.3.6.10441"></atom:link>
	</Placemark>
</Document>
</kml>
