<?xml version="1.0" encoding="UTF-8"?>
<kml xmlns="http://www.opengis.net/kml/2.2" xmlns:gx="http://www.google.com/kml/ext/2.2" xmlns:kml="http://www.opengis.net/kml/2.2" xmlns:atom="http://www.w3.org/2005/Atom">
<Document>
	<name>SWnew 3302020.kml</name>
	<StyleMap id="m_ylw-pushpin">
		<Pair>
			<key>normal</key>
			<styleUrl>#s_ylw-pushpin</styleUrl>
		</Pair>
		<Pair>
			<key>highlight</key>
			<styleUrl>#s_ylw-pushpin_hl</styleUrl>
		</Pair>
	</StyleMap>
	<Style id="s_ylw-pushpin">
		<IconStyle>
			<scale>1.1</scale>
			<Icon>
				<href>http://maps.google.com/mapfiles/kml/pushpin/ylw-pushpin.png</href>
			</Icon>
			<hotSpot x="20" y="2" xunits="pixels" yunits="pixels"/>
		</IconStyle>
	</Style>
	<Style id="s_ylw-pushpin_hl">
		<IconStyle>
			<scale>1.3</scale>
			<Icon>
				<href>http://maps.google.com/mapfiles/kml/pushpin/ylw-pushpin.png</href>
			</Icon>
			<hotSpot x="20" y="2" xunits="pixels" yunits="pixels"/>
		</IconStyle>
	</Style>
	<Placemark>
		<name>SWnew 3/30/2020</name>
		<styleUrl>#m_ylw-pushpin</styleUrl>
		<LineString>
			<tessellate>1</tessellate>
			<coordinates>
				80.01064864769748,6.367715186869561,0 80.01095606768376,6.367448475236696,0 80.01117133061818,6.367172411832592,0 80.0113506769992,6.366870756701484,0 80.01155291351476,6.366535428118842,0 80.01171989208633,6.366229743219808,0 80.01196992714614,6.365769442171518,0 80.01210677600803,6.365441425724155,0 80.01228682843193,6.365236121428334,0 80.01252975371557,6.364893139525927,0 80.01269797538046,6.364588366054783,0 80.01281088082946,6.364348272233673,0 80.01306816275186,6.364016735002174,0 80.01316343999494,6.363762957970538,0 80.01336489898631,6.363532799734027,0 80.01362144792682,6.363139645880317,0 80.01388324694938,6.362799015232484,0 80.01406045570917,6.36247008881664,0 80.01417209343209,6.362285974280735,0 80.01440267575059,6.361869507837027,0 80.01464514975837,6.361470549210814,0 80.014810027533,6.361183679162696,0 80.01496293609995,6.360920505995944,0 80.01513804680916,6.360650095285259,0 80.01535669445943,6.360342600435947,0 80.01550511331453,6.360077035909775,0 80.01565647478311,6.359831677865675,0 80.01581695606949,6.359529953309242,0 80.01598411393744,6.359204911522609,0 80.01611236258232,6.358977540947868,0 80.01624881826821,6.358551752022267,0 80.01636947137726,6.358189681813649,0 80.01643763031177,6.357894762340775,0 80.01639342301597,6.357585657977578,0 80.01635986836168,6.357193324835195,0 
			</coordinates>
		</LineString>
		<atom:link rel="app" href="https://www.google.com/earth/about/versions/#earth-pro" title="Google Earth Pro 7.3.6.10441"></atom:link>
	</Placemark>
</Document>
</kml>
