<?xml version="1.0" encoding="UTF-8"?>
<kml xmlns="http://www.opengis.net/kml/2.2" xmlns:gx="http://www.google.com/kml/ext/2.2" xmlns:kml="http://www.opengis.net/kml/2.2" xmlns:atom="http://www.w3.org/2005/Atom">
<Document>
	<name>SWnew 3302014.kml</name>
	<StyleMap id="m_ylw-pushpin">
		<Pair>
			<key>normal</key>
			<styleUrl>#s_ylw-pushpin</styleUrl>
		</Pair>
		<Pair>
			<key>highlight</key>
			<styleUrl>#s_ylw-pushpin_hl</styleUrl>
		</Pair>
	</StyleMap>
	<Style id="s_ylw-pushpin">
		<IconStyle>
			<scale>1.1</scale>
			<Icon>
				<href>http://maps.google.com/mapfiles/kml/pushpin/ylw-pushpin.png</href>
			</Icon>
			<hotSpot x="20" y="2" xunits="pixels" yunits="pixels"/>
		</IconStyle>
	</Style>
	<Style id="s_ylw-pushpin_hl">
		<IconStyle>
			<scale>1.3</scale>
			<Icon>
				<href>http://maps.google.com/mapfiles/kml/pushpin/ylw-pushpin.png</href>
			</Icon>
			<hotSpot x="20" y="2" xunits="pixels" yunits="pixels"/>
		</IconStyle>
	</Style>
	<Placemark>
		<name>SWnew 3/30/2014</name>
		<styleUrl>#m_ylw-pushpin</styleUrl>
		<LineString>
			<tessellate>1</tessellate>
			<coordinates>
				80.01076622785287,6.36780395688946,0 80.01085280343104,6.367761535153608,0 80.01112773673937,6.367446761916289,0 80.01132969913202,6.367153438979787,0 80.01159509191706,6.366747437011242,0 80.01186598874121,6.366454622229151,0 80.01204037000612,6.366138817530437,0 80.0122861996437,6.365774123896135,0 80.01247226566414,6.365403601090195,0 80.01268478491369,6.364990401535256,0 80.01281086242223,6.364745866622529,0 80.0128671815968,6.364631099335537,0 80.01301969065575,6.364290496175917,0 80.01321073865446,6.363900574377812,0 80.01333841082338,6.363696383006827,0 80.01351685248079,6.363410281443092,0 80.01370007690896,6.363084152179986,0 80.0138956237826,6.362752191044065,0 80.01407648628266,6.362464340849364,0 80.01432396119434,6.362144313965812,0 80.01446569140542,6.361857342346318,0 80.01467702154137,6.361604846919634,0 80.01483729141721,6.361324897389624,0 80.01495647384058,6.361020363395106,0 80.01509104325137,6.36082494692163,0 80.01526980706025,6.360480762093406,0 80.01544085481694,6.360166828657038,0 80.01560896129102,6.359873300898264,0 80.01584554338133,6.359477896148734,0 80.01607769264264,6.359043007001815,0 80.01626269680504,6.358716752176986,0 80.016403579849,6.35844666992278,0 80.01646955643068,6.358086294783863,0 80.01648683883317,6.357818852709122,0 80.01649170447988,6.357555579394489,0 80.01635010525867,6.35721717266534,0 
			</coordinates>
		</LineString>
		<atom:link rel="app" href="https://www.google.com/earth/about/versions/#earth-pro" title="Google Earth Pro 7.3.6.10441"></atom:link>
	</Placemark>
</Document>
</kml>
