<?xml version="1.0" encoding="UTF-8"?>
<kml xmlns="http://www.opengis.net/kml/2.2" xmlns:gx="http://www.google.com/kml/ext/2.2" xmlns:kml="http://www.opengis.net/kml/2.2" xmlns:atom="http://www.w3.org/2005/Atom">
<Document>
	<name>SWnew 2282023.kml</name>
	<StyleMap id="m_ylw-pushpin">
		<Pair>
			<key>normal</key>
			<styleUrl>#s_ylw-pushpin</styleUrl>
		</Pair>
		<Pair>
			<key>highlight</key>
			<styleUrl>#s_ylw-pushpin_hl</styleUrl>
		</Pair>
	</StyleMap>
	<Style id="s_ylw-pushpin">
		<IconStyle>
			<scale>1.1</scale>
			<Icon>
				<href>http://maps.google.com/mapfiles/kml/pushpin/ylw-pushpin.png</href>
			</Icon>
			<hotSpot x="20" y="2" xunits="pixels" yunits="pixels"/>
		</IconStyle>
	</Style>
	<Style id="s_ylw-pushpin_hl">
		<IconStyle>
			<scale>1.3</scale>
			<Icon>
				<href>http://maps.google.com/mapfiles/kml/pushpin/ylw-pushpin.png</href>
			</Icon>
			<hotSpot x="20" y="2" xunits="pixels" yunits="pixels"/>
		</IconStyle>
	</Style>
	<Placemark>
		<name>SWnew 2/28/2023</name>
		<styleUrl>#m_ylw-pushpin</styleUrl>
		<LineString>
			<tessellate>1</tessellate>
			<coordinates>
				80.01079487440887,6.367791475498723,0 80.01101305343042,6.367640478778016,0 80.01133704545296,6.367337821902364,0 80.01149728013048,6.36698673614741,0 80.01174983724192,6.366731229273055,0 80.01194477913347,6.36614246911186,0 80.01213389678014,6.365866023021599,0 80.01235453270056,6.365462087044954,0 80.01256196047171,6.365125450859573,0 80.01277862918174,6.364759785822537,0 80.01295970191804,6.364422004940195,0 80.01316647548306,6.364091661090369,0 80.01332420225673,6.36376564027081,0 80.013513338064,6.363465239353999,0 80.01372573127318,6.363110497557352,0 80.01396595518534,6.362753579025111,0 80.01414940749893,6.362404582106582,0 80.01424921064357,6.362280996513557,0 80.01439000521111,6.362048806866725,0 80.01448488450927,6.36192913241599,0 80.01465050686369,6.361637429144029,0 80.01487513595363,6.361208756877761,0 80.0150883012622,6.360768100037638,0 80.01529759010636,6.360464368727197,0 80.01549082983101,6.360118180427937,0 80.01558740164553,6.359713468346968,0 80.01570930003267,6.359459047456025,0 80.01596316967013,6.359016133836817,0 80.01622635015153,6.358562179727817,0 80.01633901681936,6.358299209282431,0 80.01643254738171,6.358037946906528,0 80.01644435346859,6.357842125935068,0 80.01646596890036,6.357642445635739,0 80.01643487152258,6.357486527661699,0 80.01634461402678,6.357213288024991,0 
			</coordinates>
		</LineString>
		<atom:link rel="app" href="https://www.google.com/earth/about/versions/#earth-pro" title="Google Earth Pro 7.3.6.10441"></atom:link>
	</Placemark>
</Document>
</kml>
