<?xml version="1.0" encoding="UTF-8"?>
<kml xmlns="http://www.opengis.net/kml/2.2" xmlns:gx="http://www.google.com/kml/ext/2.2" xmlns:kml="http://www.opengis.net/kml/2.2" xmlns:atom="http://www.w3.org/2005/Atom">
<Document>
	<name>SWnew 4302019.kml</name>
	<StyleMap id="m_ylw-pushpin">
		<Pair>
			<key>normal</key>
			<styleUrl>#s_ylw-pushpin</styleUrl>
		</Pair>
		<Pair>
			<key>highlight</key>
			<styleUrl>#s_ylw-pushpin_hl</styleUrl>
		</Pair>
	</StyleMap>
	<Style id="s_ylw-pushpin">
		<IconStyle>
			<scale>1.1</scale>
			<Icon>
				<href>http://maps.google.com/mapfiles/kml/pushpin/ylw-pushpin.png</href>
			</Icon>
			<hotSpot x="20" y="2" xunits="pixels" yunits="pixels"/>
		</IconStyle>
	</Style>
	<Style id="s_ylw-pushpin_hl">
		<IconStyle>
			<scale>1.3</scale>
			<Icon>
				<href>http://maps.google.com/mapfiles/kml/pushpin/ylw-pushpin.png</href>
			</Icon>
			<hotSpot x="20" y="2" xunits="pixels" yunits="pixels"/>
		</IconStyle>
	</Style>
	<Placemark>
		<name>SWnew 4/30/2019</name>
		<styleUrl>#m_ylw-pushpin</styleUrl>
		<LineString>
			<tessellate>1</tessellate>
			<coordinates>
				80.01069589196128,6.367699510893397,0 80.01078448612586,6.36765765010878,0 80.01102781800873,6.367413094421014,0 80.01126341125605,6.367044031775267,0 80.01152985184444,6.366726363660073,0 80.0117805452213,6.366317488011275,0 80.01201140912094,6.365893010776898,0 80.01223134849803,6.36555595761206,0 80.01250143791329,6.365202989100756,0 80.01257464484924,6.364786064450666,0 80.01287834759519,6.364267419141569,0 80.01309559852608,6.364018470424823,0 80.01327928185889,6.363645616952068,0 80.01343039269207,6.363332892386397,0 80.01371040288085,6.362970438256355,0 80.01392131539554,6.362785638589694,0 80.01416593521743,6.362346137025137,0 80.01440295318768,6.362012232615286,0 80.01462635323695,6.361601908870199,0 80.01481435843391,6.361242425798363,0 80.01500952309695,6.360760082049347,0 80.01518604613355,6.360409466765417,0 80.01535242229168,6.360104542022873,0 80.01560677333867,6.359732137756091,0 80.01584615204607,6.359364561417819,0 80.01608555411966,6.358975851874142,0 80.01626986411388,6.358674331074798,0 80.01637643883107,6.358386785924702,0 80.01647031625986,6.358097561967451,0 80.01650495614815,6.357860220231545,0 80.01650694508979,6.357596679431338,0 80.01646903178417,6.357396877116309,0 80.016360433093,6.357217443349756,0 
			</coordinates>
		</LineString>
		<atom:link rel="app" href="https://www.google.com/earth/about/versions/#earth-pro" title="Google Earth Pro 7.3.6.10441"></atom:link>
	</Placemark>
</Document>
</kml>
