<?xml version="1.0" encoding="UTF-8"?>
<kml xmlns="http://www.opengis.net/kml/2.2" xmlns:gx="http://www.google.com/kml/ext/2.2" xmlns:kml="http://www.opengis.net/kml/2.2" xmlns:atom="http://www.w3.org/2005/Atom">
<Document>
	<name>SWnew 7262010.kml</name>
	<StyleMap id="m_ylw-pushpin">
		<Pair>
			<key>normal</key>
			<styleUrl>#s_ylw-pushpin</styleUrl>
		</Pair>
		<Pair>
			<key>highlight</key>
			<styleUrl>#s_ylw-pushpin_hl</styleUrl>
		</Pair>
	</StyleMap>
	<Style id="s_ylw-pushpin">
		<IconStyle>
			<scale>1.1</scale>
			<Icon>
				<href>http://maps.google.com/mapfiles/kml/pushpin/ylw-pushpin.png</href>
			</Icon>
			<hotSpot x="20" y="2" xunits="pixels" yunits="pixels"/>
		</IconStyle>
	</Style>
	<Style id="s_ylw-pushpin_hl">
		<IconStyle>
			<scale>1.3</scale>
			<Icon>
				<href>http://maps.google.com/mapfiles/kml/pushpin/ylw-pushpin.png</href>
			</Icon>
			<hotSpot x="20" y="2" xunits="pixels" yunits="pixels"/>
		</IconStyle>
	</Style>
	<Placemark>
		<name>SWnew 7/26/2010</name>
		<styleUrl>#m_ylw-pushpin</styleUrl>
		<LineString>
			<tessellate>1</tessellate>
			<coordinates>
				80.01088154881617,6.367824208553829,0 80.01106923580704,6.367669028318632,0 80.0112768942181,6.367336988717073,0 80.01150041757019,6.366984764960647,0 80.01168031705953,6.366757751456311,0 80.01195611451887,6.366220846541018,0 80.01212622992759,6.365794317429391,0 80.0123091361076,6.365602138539659,0 80.01252101501383,6.36516793082684,0 80.01274304540615,6.364787300143368,0 80.01297784289299,6.364435078455751,0 80.01314509518227,6.364214955991056,0 80.01328251835473,6.363894304852718,0 80.01358852334413,6.363465744098034,0 80.01383760015194,6.363027351600559,0 80.01405066884406,6.362590432901858,0 80.0143514463528,6.362103402073812,0 80.01452324888044,6.361759011665609,0 80.01466854676458,6.361489804892941,0 80.01475815207637,6.361317820211392,0 80.01493685128588,6.360950503668393,0 80.01513401856079,6.360641929485596,0 80.01531026611946,6.360299462413106,0 80.01548311949874,6.359933936500255,0 80.01563367930552,6.359571650976626,0 80.01578377287629,6.359244890563923,0 80.01595189795016,6.358947437537513,0 80.01622962619903,6.358503666254548,0 80.01628601967595,6.358125560477803,0 80.0163401379456,6.357851686987208,0 80.01639460008688,6.357550157154789,0 80.01636959041038,6.357416759711184,0 80.01629136439621,6.357343971857715,0 80.01627259713938,6.357279320382308,0 
			</coordinates>
		</LineString>
		<atom:link rel="app" href="https://www.google.com/earth/about/versions/#earth-pro" title="Google Earth Pro 7.3.6.10441"></atom:link>
	</Placemark>
</Document>
</kml>
