<?xml version="1.0" encoding="UTF-8"?>
<kml xmlns="http://www.opengis.net/kml/2.2" xmlns:gx="http://www.google.com/kml/ext/2.2" xmlns:kml="http://www.opengis.net/kml/2.2" xmlns:atom="http://www.w3.org/2005/Atom">
<Document>
	<name>SWnew 2282017.kml</name>
	<StyleMap id="m_ylw-pushpin">
		<Pair>
			<key>normal</key>
			<styleUrl>#s_ylw-pushpin</styleUrl>
		</Pair>
		<Pair>
			<key>highlight</key>
			<styleUrl>#s_ylw-pushpin_hl</styleUrl>
		</Pair>
	</StyleMap>
	<Style id="s_ylw-pushpin">
		<IconStyle>
			<scale>1.1</scale>
			<Icon>
				<href>http://maps.google.com/mapfiles/kml/pushpin/ylw-pushpin.png</href>
			</Icon>
			<hotSpot x="20" y="2" xunits="pixels" yunits="pixels"/>
		</IconStyle>
	</Style>
	<Style id="s_ylw-pushpin_hl">
		<IconStyle>
			<scale>1.3</scale>
			<Icon>
				<href>http://maps.google.com/mapfiles/kml/pushpin/ylw-pushpin.png</href>
			</Icon>
			<hotSpot x="20" y="2" xunits="pixels" yunits="pixels"/>
		</IconStyle>
	</Style>
	<Placemark>
		<name>SWnew 2/28/2017</name>
		<styleUrl>#m_ylw-pushpin</styleUrl>
		<LineString>
			<tessellate>1</tessellate>
			<coordinates>
				80.01064916904822,6.367740200986081,0 80.01089151891031,6.367496976344912,0 80.01104613472259,6.367296984922824,0 80.01120189917344,6.367089555124808,0 80.01144858188025,6.366735080509744,0 80.01153415505573,6.366530734036252,0 80.01173340765841,6.366236770627205,0 80.01188480738396,6.365899602661896,0 80.01214188036244,6.365436466947147,0 80.01236547817555,6.365090365632225,0 80.0125801954589,6.364734851727775,0 80.01271915852661,6.364408704491376,0 80.01294678048693,6.364178365126554,0 80.01314028628846,6.363826053270967,0 80.01323835717128,6.363565845317797,0 80.01343163840866,6.36332131084444,0 80.01366812579982,6.362958491607654,0 80.01377316780412,6.362753738187662,0 80.01391957567179,6.362602884793345,0 80.01403097370932,6.36234237514174,0 80.01417331752221,6.362190445750727,0 80.01425277159498,6.361994479079659,0 80.01437330149858,6.361814145143958,0 80.01443263116585,6.361649933224404,0 80.01459431596656,6.3614619465595,0 80.01461109591452,6.36137909762218,0 80.01474007672363,6.361147168806616,0 80.0147961964247,6.361100243064516,0 80.01485575037475,6.360910122736819,0 80.01495209270024,6.360797925609566,0 80.01501525698943,6.360663901902979,0 80.01515212171232,6.360518516350914,0 80.01524773368216,6.360235785359755,0 80.0153305956312,6.360145679921877,0 80.01539083731537,6.359980662396887,0 80.01550562529204,6.359814037854497,0 80.01559821489199,6.359616923886863,0 80.01569425571347,6.35941757110472,0 80.01577694413272,6.359334790776564,0 80.01583589702143,6.359166375649549,0 80.0159368698565,6.359039345675509,0 80.01596676741104,6.358893924204832,0 80.01602988612495,6.358831610437162,0 80.01611445849456,6.358713692184416,0 80.01615290852047,6.35856268620658,0 80.01624871096203,6.358420174314049,0 80.01637793601559,6.35818434147058,0 80.01638629620753,6.357956165193221,0 80.01643330903865,6.35774767984397,0 80.0164172559455,6.357549822815851,0 80.0164099860428,6.357421149524335,0 80.01632756110266,6.357234519721937,0 
			</coordinates>
		</LineString>
		<atom:link rel="app" href="https://www.google.com/earth/about/versions/#earth-pro" title="Google Earth Pro 7.3.6.10441"></atom:link>
	</Placemark>
</Document>
</kml>
