<?xml version="1.0" encoding="UTF-8"?>
<kml xmlns="http://www.opengis.net/kml/2.2" xmlns:gx="http://www.google.com/kml/ext/2.2" xmlns:kml="http://www.opengis.net/kml/2.2" xmlns:atom="http://www.w3.org/2005/Atom">
<Document>
	<name>SWnew 2292024.kml</name>
	<StyleMap id="m_ylw-pushpin">
		<Pair>
			<key>normal</key>
			<styleUrl>#s_ylw-pushpin</styleUrl>
		</Pair>
		<Pair>
			<key>highlight</key>
			<styleUrl>#s_ylw-pushpin_hl</styleUrl>
		</Pair>
	</StyleMap>
	<Style id="s_ylw-pushpin">
		<IconStyle>
			<scale>1.1</scale>
			<Icon>
				<href>http://maps.google.com/mapfiles/kml/pushpin/ylw-pushpin.png</href>
			</Icon>
			<hotSpot x="20" y="2" xunits="pixels" yunits="pixels"/>
		</IconStyle>
	</Style>
	<Style id="s_ylw-pushpin_hl">
		<IconStyle>
			<scale>1.3</scale>
			<Icon>
				<href>http://maps.google.com/mapfiles/kml/pushpin/ylw-pushpin.png</href>
			</Icon>
			<hotSpot x="20" y="2" xunits="pixels" yunits="pixels"/>
		</IconStyle>
	</Style>
	<Placemark>
		<name>SWnew 2/29/2024</name>
		<styleUrl>#m_ylw-pushpin</styleUrl>
		<LineString>
			<tessellate>1</tessellate>
			<coordinates>
				80.0107279500521,6.367807316932604,0 80.01098388519594,6.36748610820713,0 80.01126135581642,6.367146227645919,0 80.01150695330008,6.366734975995652,0 80.01173184305546,6.366379718611179,0 80.01186765456153,6.366131231769953,0 80.01208541777831,6.365747250744531,0 80.01230149233969,6.365431270438727,0 80.01255305851194,6.364987377736918,0 80.01277046407959,6.364564130311675,0 80.012865740558,6.364261080302014,0 80.01346189746951,6.3632588102505,0 80.01405322805326,6.362418790363995,0 80.0144331916197,6.361846657980492,0 80.01485670708406,6.36118601506949,0 80.01520821774616,6.360616047955584,0 80.01550282630673,6.360087299845157,0 80.01581537820672,6.359601741753515,0 80.01608040113119,6.359104853406413,0 80.01625897661835,6.35888827836233,0 80.01633234162018,6.358668206481873,0 80.01645448076447,6.358168639435795,0 80.01650914456101,6.357622310036063,0 80.01643624505998,6.357395779281268,0 80.01633402462008,6.357192870992003,0 
			</coordinates>
		</LineString>
		<atom:link rel="app" href="https://www.google.com/earth/about/versions/#earth-pro" title="Google Earth Pro 7.3.6.10441"></atom:link>
	</Placemark>
</Document>
</kml>
