<?xml version="1.0" encoding="UTF-8"?>
<kml xmlns="http://www.opengis.net/kml/2.2" xmlns:gx="http://www.google.com/kml/ext/2.2" xmlns:kml="http://www.opengis.net/kml/2.2" xmlns:atom="http://www.w3.org/2005/Atom">
<Document>
	<name>SWnew 112020.kml</name>
	<StyleMap id="m_ylw-pushpin">
		<Pair>
			<key>normal</key>
			<styleUrl>#s_ylw-pushpin</styleUrl>
		</Pair>
		<Pair>
			<key>highlight</key>
			<styleUrl>#s_ylw-pushpin_hl</styleUrl>
		</Pair>
	</StyleMap>
	<Style id="s_ylw-pushpin">
		<IconStyle>
			<scale>1.1</scale>
			<Icon>
				<href>http://maps.google.com/mapfiles/kml/pushpin/ylw-pushpin.png</href>
			</Icon>
			<hotSpot x="20" y="2" xunits="pixels" yunits="pixels"/>
		</IconStyle>
	</Style>
	<Style id="s_ylw-pushpin_hl">
		<IconStyle>
			<scale>1.3</scale>
			<Icon>
				<href>http://maps.google.com/mapfiles/kml/pushpin/ylw-pushpin.png</href>
			</Icon>
			<hotSpot x="20" y="2" xunits="pixels" yunits="pixels"/>
		</IconStyle>
	</Style>
	<Placemark>
		<name>SWnew 1/1/2020</name>
		<styleUrl>#m_ylw-pushpin</styleUrl>
		<LineString>
			<tessellate>1</tessellate>
			<coordinates>
				80.0106114270947,6.367728234370234,0 80.01073927345658,6.367602284871555,0 80.01098278666967,6.367380976015356,0 80.01118847978567,6.367096388659158,0 80.0114012754777,6.366737178421383,0 80.01153057151782,6.366494509518662,0 80.01175951493799,6.366101661323861,0 80.01201178996787,6.36573672080231,0 80.0122735831598,6.365367822595648,0 80.01251455062416,6.364927199614661,0 80.01272359992585,6.364590585735238,0 80.01286119590122,6.36428457054593,0 80.01309520508276,6.364003650349227,0 80.01322122183717,6.363747806235017,0 80.01343724976375,6.363470676905035,0 80.01369913511367,6.363093443446859,0 80.01389828285404,6.362727703791156,0 80.01408965599785,6.362434600772175,0 80.01430369204584,6.362090739227487,0 80.01455492645415,6.361692820001062,0 80.01487264662707,6.361176729832075,0 80.01514268013909,6.360739183547846,0 80.01545716444288,6.360170153427789,0 80.01575698329783,6.359694368146974,0 80.01593617579236,6.359365120334751,0 80.01616994149032,6.358946935606321,0 80.0162586594998,6.358760162727834,0 80.01640552132764,6.358354420648371,0 80.01647915061073,6.358015015377426,0 80.01649679652907,6.357627552017508,0 80.01633627615062,6.357212121529762,0 
			</coordinates>
		</LineString>
		<atom:link rel="app" href="https://www.google.com/earth/about/versions/#earth-pro" title="Google Earth Pro 7.3.6.10441"></atom:link>
	</Placemark>
</Document>
</kml>
