<?xml version="1.0" encoding="UTF-8"?>
<kml xmlns="http://www.opengis.net/kml/2.2" xmlns:gx="http://www.google.com/kml/ext/2.2" xmlns:kml="http://www.opengis.net/kml/2.2" xmlns:atom="http://www.w3.org/2005/Atom">
<Document>
	<name>SWnew 372013.kml</name>
	<StyleMap id="m_ylw-pushpin">
		<Pair>
			<key>normal</key>
			<styleUrl>#s_ylw-pushpin</styleUrl>
		</Pair>
		<Pair>
			<key>highlight</key>
			<styleUrl>#s_ylw-pushpin_hl</styleUrl>
		</Pair>
	</StyleMap>
	<Style id="s_ylw-pushpin">
		<IconStyle>
			<scale>1.1</scale>
			<Icon>
				<href>http://maps.google.com/mapfiles/kml/pushpin/ylw-pushpin.png</href>
			</Icon>
			<hotSpot x="20" y="2" xunits="pixels" yunits="pixels"/>
		</IconStyle>
	</Style>
	<Style id="s_ylw-pushpin_hl">
		<IconStyle>
			<scale>1.3</scale>
			<Icon>
				<href>http://maps.google.com/mapfiles/kml/pushpin/ylw-pushpin.png</href>
			</Icon>
			<hotSpot x="20" y="2" xunits="pixels" yunits="pixels"/>
		</IconStyle>
	</Style>
	<Placemark>
		<name>SWnew 3/7/2013</name>
		<styleUrl>#m_ylw-pushpin</styleUrl>
		<LineString>
			<tessellate>1</tessellate>
			<coordinates>
				80.01084593032296,6.367821328304649,0 80.01101539725335,6.367688212607801,0 80.01125640975741,6.367395983444145,0 80.01143008867274,6.367110605336792,0 80.01163399394291,6.366725172934307,0 80.01183824028149,6.366419784447679,0 80.01207672743458,6.365932309740504,0 80.01236671155227,6.365541014240709,0 80.01261445045547,6.365090150315593,0 80.01295054824733,6.364547319831373,0 80.0132374318741,6.364115355980394,0 80.01351375540861,6.363590074992407,0 80.01373100235672,6.363191528991197,0 80.01400204545537,6.362733288215643,0 80.01445104447097,6.361983130009253,0 80.01467443681892,6.361595454605397,0 80.01496438013363,6.361076488543166,0 80.01530060778731,6.360469906337623,0 80.01562788039639,6.359914444775885,0 80.01590037583249,6.359416717337659,0 80.01624598997094,6.358737849746714,0 80.01640043940291,6.358437873046826,0 80.01649724834354,6.358067276160622,0 80.01652010415458,6.357915403897951,0 80.01650551039472,6.357561110135539,0 80.01634998935774,6.35721917359877,0 
			</coordinates>
		</LineString>
		<atom:link rel="app" href="https://www.google.com/earth/about/versions/#earth-pro" title="Google Earth Pro 7.3.6.10441"></atom:link>
	</Placemark>
</Document>
</kml>
