<?xml version="1.0" encoding="UTF-8"?>
<kml xmlns="http://www.opengis.net/kml/2.2" xmlns:gx="http://www.google.com/kml/ext/2.2" xmlns:kml="http://www.opengis.net/kml/2.2" xmlns:atom="http://www.w3.org/2005/Atom">
<Document>
	<name>SWnew 11302019.kml</name>
	<StyleMap id="m_ylw-pushpin">
		<Pair>
			<key>normal</key>
			<styleUrl>#s_ylw-pushpin</styleUrl>
		</Pair>
		<Pair>
			<key>highlight</key>
			<styleUrl>#s_ylw-pushpin_hl</styleUrl>
		</Pair>
	</StyleMap>
	<Style id="s_ylw-pushpin">
		<IconStyle>
			<scale>1.1</scale>
			<Icon>
				<href>http://maps.google.com/mapfiles/kml/pushpin/ylw-pushpin.png</href>
			</Icon>
			<hotSpot x="20" y="2" xunits="pixels" yunits="pixels"/>
		</IconStyle>
	</Style>
	<Style id="s_ylw-pushpin_hl">
		<IconStyle>
			<scale>1.3</scale>
			<Icon>
				<href>http://maps.google.com/mapfiles/kml/pushpin/ylw-pushpin.png</href>
			</Icon>
			<hotSpot x="20" y="2" xunits="pixels" yunits="pixels"/>
		</IconStyle>
	</Style>
	<Placemark>
		<name>SWnew 11/30/2019</name>
		<styleUrl>#m_ylw-pushpin</styleUrl>
		<LineString>
			<tessellate>1</tessellate>
			<coordinates>
				80.01057968104735,6.367757120530732,0 80.01092643846958,6.367433087855261,0 80.0111623526588,6.367104267482074,0 80.01137980485836,6.36683285122851,0 80.01166928639601,6.366465478651494,0 80.01192011167102,6.366013186084416,0 80.01229711077188,6.365472057594473,0 80.01256184480657,6.364983656346313,0 80.01289053927688,6.364532608684288,0 80.01317579341813,6.364041278918882,0 80.01339084749603,6.363685866871989,0 80.01369167040809,6.363230196268672,0 80.01383522010916,6.362899552893658,0 80.01408765528234,6.36253165703169,0 80.01432700158885,6.362164624351244,0 80.01458951031577,6.361765958902794,0 80.01494070091601,6.361205572745636,0 80.01514481624667,6.360828375566612,0 80.01534925670362,6.360478419232328,0 80.01555912993797,6.360133039900868,0 80.01579820941858,6.359726283187545,0 80.01598882762701,6.359339720711316,0 80.01617802909524,6.359010618126261,0 80.01631014760736,6.358739304615956,0 80.01638188964165,6.358474394658701,0 80.01645445602357,6.358234935620785,0 80.01651653875206,6.357982396040236,0 80.01654733463764,6.357779372773369,0 80.01652311888648,6.357558467152277,0 80.01635243067486,6.357203677261003,0 
			</coordinates>
		</LineString>
		<atom:link rel="app" href="https://www.google.com/earth/about/versions/#earth-pro" title="Google Earth Pro 7.3.6.10441"></atom:link>
	</Placemark>
</Document>
</kml>
