<?xml version="1.0" encoding="UTF-8"?>
<kml xmlns="http://www.opengis.net/kml/2.2" xmlns:gx="http://www.google.com/kml/ext/2.2" xmlns:kml="http://www.opengis.net/kml/2.2" xmlns:atom="http://www.w3.org/2005/Atom">
<Document>
	<name>SWnew 7302021.kml</name>
	<StyleMap id="m_ylw-pushpin">
		<Pair>
			<key>normal</key>
			<styleUrl>#s_ylw-pushpin</styleUrl>
		</Pair>
		<Pair>
			<key>highlight</key>
			<styleUrl>#s_ylw-pushpin_hl</styleUrl>
		</Pair>
	</StyleMap>
	<Style id="s_ylw-pushpin">
		<IconStyle>
			<scale>1.1</scale>
			<Icon>
				<href>http://maps.google.com/mapfiles/kml/pushpin/ylw-pushpin.png</href>
			</Icon>
			<hotSpot x="20" y="2" xunits="pixels" yunits="pixels"/>
		</IconStyle>
	</Style>
	<Style id="s_ylw-pushpin_hl">
		<IconStyle>
			<scale>1.3</scale>
			<Icon>
				<href>http://maps.google.com/mapfiles/kml/pushpin/ylw-pushpin.png</href>
			</Icon>
			<hotSpot x="20" y="2" xunits="pixels" yunits="pixels"/>
		</IconStyle>
	</Style>
	<Placemark>
		<name>SWnew 7/30/2021</name>
		<styleUrl>#m_ylw-pushpin</styleUrl>
		<LineString>
			<tessellate>1</tessellate>
			<coordinates>
				80.01093442350086,6.367826258982761,0 80.01110636954998,6.367694147092806,0 80.01137172630102,6.367302102587105,0 80.01159827867762,6.366916128933694,0 80.01183733966843,6.366484434202024,0 80.01206599120825,6.366107237414317,0 80.01227245414773,6.365755350429555,0 80.01247473866351,6.365345476686444,0 80.012707924788,6.364932540415193,0 80.01295595558648,6.364584691677611,0 80.01311361148115,6.364242276631243,0 80.01328222321358,6.364025636847361,0 80.01359790242977,6.363546940816351,0 80.01370588347589,6.363319959943166,0 80.01389568219969,6.362961819050182,0 80.01407532219685,6.362641430133726,0 80.01433185212468,6.362195388306748,0 80.01449269455468,6.361904513145757,0 80.01469729827801,6.361512198280156,0 80.01498172956116,6.36106242328097,0 80.01517010863986,6.360701329157356,0 80.01531144287806,6.360400637001287,0 80.0156079455361,6.35994255231236,0 80.01582073578886,6.359497402961134,0 80.01597198065332,6.358995590478821,0 80.01606043006258,6.358785358209643,0 80.01616369453707,6.358311046598628,0 80.01637241234498,6.357760588734304,0 80.01639752593591,6.35750302304054,0 80.0163281548565,6.357235397983132,0 
			</coordinates>
		</LineString>
		<atom:link rel="app" href="https://www.google.com/earth/about/versions/#earth-pro" title="Google Earth Pro 7.3.6.10441"></atom:link>
	</Placemark>
</Document>
</kml>
