<?xml version="1.0" encoding="UTF-8"?>
<kml xmlns="http://www.opengis.net/kml/2.2" xmlns:gx="http://www.google.com/kml/ext/2.2" xmlns:kml="http://www.opengis.net/kml/2.2" xmlns:atom="http://www.w3.org/2005/Atom">
<Document>
	<name>SWnew 10222010.kml</name>
	<StyleMap id="m_ylw-pushpin">
		<Pair>
			<key>normal</key>
			<styleUrl>#s_ylw-pushpin</styleUrl>
		</Pair>
		<Pair>
			<key>highlight</key>
			<styleUrl>#s_ylw-pushpin_hl</styleUrl>
		</Pair>
	</StyleMap>
	<Style id="s_ylw-pushpin">
		<IconStyle>
			<scale>1.1</scale>
			<Icon>
				<href>http://maps.google.com/mapfiles/kml/pushpin/ylw-pushpin.png</href>
			</Icon>
			<hotSpot x="20" y="2" xunits="pixels" yunits="pixels"/>
		</IconStyle>
	</Style>
	<Style id="s_ylw-pushpin_hl">
		<IconStyle>
			<scale>1.3</scale>
			<Icon>
				<href>http://maps.google.com/mapfiles/kml/pushpin/ylw-pushpin.png</href>
			</Icon>
			<hotSpot x="20" y="2" xunits="pixels" yunits="pixels"/>
		</IconStyle>
	</Style>
	<Placemark>
		<name>SWnew 10/22/2010</name>
		<styleUrl>#m_ylw-pushpin</styleUrl>
		<LineString>
			<tessellate>1</tessellate>
			<coordinates>
				80.01086545803236,6.367805888328,0 80.01102888925629,6.367751337388477,0 80.01123196117128,6.367477944445267,0 80.01156353511502,6.366988026607029,0 80.01175636818537,6.366678796178222,0 80.01216867133374,6.365939352168642,0 80.01252684982416,6.365259118953878,0 80.01284133613667,6.364750395445295,0 80.01314967468528,6.364233305942218,0 80.01329258259227,6.363974230393517,0 80.01359100530375,6.363476404507055,0 80.01385455552155,6.363008237142704,0 80.01411571668902,6.362501736472733,0 80.01441261190483,6.361940160589077,0 80.01458845305146,6.361626776048964,0 80.0147837960709,6.361303589554852,0 80.01494839049397,6.361005226290381,0 80.01513721577325,6.360652248179758,0 80.01531551115268,6.360321268623858,0 80.01543876596615,6.359966052359174,0 80.01558322573496,6.359626652771566,0 80.01574799943923,6.359218142194653,0 80.01593205415205,6.358854150181641,0 80.01600924163718,6.358563853415946,0 80.01616364478639,6.358145452655912,0 80.0163221639985,6.357761598792369,0 80.01637977248873,6.357479181471951,0 80.01628905174164,6.357315716993216,0 80.01623891062542,6.357208042643522,0 
			</coordinates>
		</LineString>
		<atom:link rel="app" href="https://www.google.com/earth/about/versions/#earth-pro" title="Google Earth Pro 7.3.6.10441"></atom:link>
	</Placemark>
</Document>
</kml>
