<?xml version="1.0" encoding="UTF-8"?>
<kml xmlns="http://www.opengis.net/kml/2.2" xmlns:gx="http://www.google.com/kml/ext/2.2" xmlns:kml="http://www.opengis.net/kml/2.2" xmlns:atom="http://www.w3.org/2005/Atom">
<Document>
	<name>SWnew 3192019.kml</name>
	<StyleMap id="m_ylw-pushpin">
		<Pair>
			<key>normal</key>
			<styleUrl>#s_ylw-pushpin</styleUrl>
		</Pair>
		<Pair>
			<key>highlight</key>
			<styleUrl>#s_ylw-pushpin_hl</styleUrl>
		</Pair>
	</StyleMap>
	<Style id="s_ylw-pushpin">
		<IconStyle>
			<scale>1.1</scale>
			<Icon>
				<href>http://maps.google.com/mapfiles/kml/pushpin/ylw-pushpin.png</href>
			</Icon>
			<hotSpot x="20" y="2" xunits="pixels" yunits="pixels"/>
		</IconStyle>
	</Style>
	<Style id="s_ylw-pushpin_hl">
		<IconStyle>
			<scale>1.3</scale>
			<Icon>
				<href>http://maps.google.com/mapfiles/kml/pushpin/ylw-pushpin.png</href>
			</Icon>
			<hotSpot x="20" y="2" xunits="pixels" yunits="pixels"/>
		</IconStyle>
	</Style>
	<Placemark>
		<name>SWnew 3/19/2019</name>
		<styleUrl>#m_ylw-pushpin</styleUrl>
		<LineString>
			<tessellate>1</tessellate>
			<coordinates>
				80.01086968411714,6.367820130726074,0 80.0110173018078,6.367670928306232,0 80.01125838214357,6.367341452854379,0 80.01143594807002,6.367065632845526,0 80.01161275761017,6.366782726707498,0 80.01185840735614,6.366394912009318,0 80.01201237707322,6.36610641454854,0 80.01222433886781,6.365692130930232,0 80.01248701535248,6.365303786773979,0 80.01270411688999,6.364912308884454,0 80.0129749861421,6.364325343704987,0 80.01314751731923,6.363989699180706,0 80.01333363063635,6.363716038465218,0 80.01354073816185,6.363399297328343,0 80.01377207928593,6.363074034559448,0 80.01394879044135,6.362697353920316,0 80.01413598349963,6.362385835769429,0 80.01438555742531,6.362008559378076,0 80.01457774669241,6.361709781237443,0 80.01478657177265,6.361323961865255,0 80.01502368940089,6.360880233600753,0 80.01519893843142,6.360482474738424,0 80.01539099183633,6.360069959600824,0 80.01560479572042,6.359670791213448,0 80.01578913545026,6.359279928680007,0 80.01603922334755,6.358908676958388,0 80.01624162864323,6.358535856001589,0 80.01629240475017,6.358418450144503,0 80.01639630761807,6.358337966184177,0 80.01644727306518,6.35804242920381,0 80.01648494221322,6.357788400509903,0 80.01645459083299,6.357448896731697,0 80.01635345945617,6.357236489675675,0 
			</coordinates>
		</LineString>
		<atom:link rel="app" href="https://www.google.com/earth/about/versions/#earth-pro" title="Google Earth Pro 7.3.6.10441"></atom:link>
	</Placemark>
</Document>
</kml>
