<?xml version="1.0" encoding="UTF-8"?>
<kml xmlns="http://www.opengis.net/kml/2.2" xmlns:gx="http://www.google.com/kml/ext/2.2" xmlns:kml="http://www.opengis.net/kml/2.2" xmlns:atom="http://www.w3.org/2005/Atom">
<Document>
	<name>SWnew 4302015.kml</name>
	<StyleMap id="m_ylw-pushpin">
		<Pair>
			<key>normal</key>
			<styleUrl>#s_ylw-pushpin</styleUrl>
		</Pair>
		<Pair>
			<key>highlight</key>
			<styleUrl>#s_ylw-pushpin_hl</styleUrl>
		</Pair>
	</StyleMap>
	<Style id="s_ylw-pushpin">
		<IconStyle>
			<scale>1.1</scale>
			<Icon>
				<href>http://maps.google.com/mapfiles/kml/pushpin/ylw-pushpin.png</href>
			</Icon>
			<hotSpot x="20" y="2" xunits="pixels" yunits="pixels"/>
		</IconStyle>
	</Style>
	<Style id="s_ylw-pushpin_hl">
		<IconStyle>
			<scale>1.3</scale>
			<Icon>
				<href>http://maps.google.com/mapfiles/kml/pushpin/ylw-pushpin.png</href>
			</Icon>
			<hotSpot x="20" y="2" xunits="pixels" yunits="pixels"/>
		</IconStyle>
	</Style>
	<Placemark>
		<name>SWnew 4/30/2015</name>
		<styleUrl>#m_ylw-pushpin</styleUrl>
		<LineString>
			<tessellate>1</tessellate>
			<coordinates>
				80.01063757036722,6.367735606457744,0 80.01063075015557,6.367742556606744,0 80.01090129180304,6.367481282352946,0 80.01119353429793,6.367115888400062,0 80.01145543733304,6.366785883420745,0 80.01169970655549,6.366368706461246,0 80.0119290883064,6.365949317580093,0 80.0121711564752,6.365456527525398,0 80.01233051856259,6.365152504231941,0 80.0125053107511,6.364856196318289,0 80.01275629603992,6.364492814855579,0 80.0130040418662,6.364067611607847,0 80.01332133156193,6.363620928386956,0 80.01363793527027,6.363166586092338,0 80.01399266711883,6.362589734000442,0 80.01420301202721,6.362317906697298,0 80.0143902826875,6.362007257345122,0 80.01461211982158,6.361657170918528,0 80.01483277172758,6.361300418657988,0 80.0150669020432,6.360875560538241,0 80.01522856885755,6.36056898858516,0 80.01548574661065,6.360172721713244,0 80.01574677577577,6.359727414525048,0 80.0159617174717,6.359336346487301,0 80.01613337871659,6.359004055050629,0 80.01631498573686,6.358619193409386,0 80.01643091957692,6.358218426228394,0 80.01651528546384,6.357783857284591,0 80.01647396047471,6.357600740440565,0 80.01633400562322,6.357237181457569,0 
			</coordinates>
		</LineString>
		<atom:link rel="app" href="https://www.google.com/earth/about/versions/#earth-pro" title="Google Earth Pro 7.3.6.10441"></atom:link>
	</Placemark>
</Document>
</kml>
