<?xml version="1.0" encoding="UTF-8"?>
<kml xmlns="http://www.opengis.net/kml/2.2" xmlns:gx="http://www.google.com/kml/ext/2.2" xmlns:kml="http://www.opengis.net/kml/2.2" xmlns:atom="http://www.w3.org/2005/Atom">
<Document>
	<name>SWnew 1302017.kml</name>
	<StyleMap id="m_ylw-pushpin">
		<Pair>
			<key>normal</key>
			<styleUrl>#s_ylw-pushpin</styleUrl>
		</Pair>
		<Pair>
			<key>highlight</key>
			<styleUrl>#s_ylw-pushpin_hl</styleUrl>
		</Pair>
	</StyleMap>
	<Style id="s_ylw-pushpin">
		<IconStyle>
			<scale>1.1</scale>
			<Icon>
				<href>http://maps.google.com/mapfiles/kml/pushpin/ylw-pushpin.png</href>
			</Icon>
			<hotSpot x="20" y="2" xunits="pixels" yunits="pixels"/>
		</IconStyle>
	</Style>
	<Style id="s_ylw-pushpin_hl">
		<IconStyle>
			<scale>1.3</scale>
			<Icon>
				<href>http://maps.google.com/mapfiles/kml/pushpin/ylw-pushpin.png</href>
			</Icon>
			<hotSpot x="20" y="2" xunits="pixels" yunits="pixels"/>
		</IconStyle>
	</Style>
	<Placemark>
		<name>SWnew 1/30/2017</name>
		<styleUrl>#m_ylw-pushpin</styleUrl>
		<LineString>
			<tessellate>1</tessellate>
			<coordinates>
				80.01076552210519,6.367772168491219,0 80.01094857336905,6.367648687525618,0 80.01122266055674,6.367376979716167,0 80.01134773819705,6.367158750401447,0 80.01155885444157,6.366745605226415,0 80.01176650541522,6.366364348318925,0 80.01197961150446,6.365886627631354,0 80.01226997118864,6.365467466688318,0 80.01247897059292,6.365131796688363,0 80.0126596398492,6.364747463964437,0 80.01276650601397,6.364551398288701,0 80.01294965386762,6.364218271601027,0 80.0132355904509,6.36378719101064,0 80.01346782259098,6.363469508692107,0 80.01368414249896,6.36310945801142,0 80.01393742717084,6.362672922536389,0 80.01413913884551,6.362315573061514,0 80.01442696429724,6.361871564782442,0 80.01469797247202,6.361452634036501,0 80.01489329638959,6.361098062338822,0 80.01505342981812,6.36080535047572,0 80.01521782465218,6.360517215448563,0 80.01536078074669,6.360270023834429,0 80.01560537870752,6.359823590931331,0 80.01579699396332,6.359402472719438,0 80.01595864787888,6.359083126557508,0 80.01615826597283,6.358739334586402,0 80.01628426950735,6.358404187677016,0 80.01636718829171,6.358232403829392,0 80.01640862343267,6.357994088262275,0 80.0164689279115,6.35774153504518,0 80.01649252532009,6.357492339540956,0 80.01635315404849,6.357233554539806,0 
			</coordinates>
		</LineString>
		<atom:link rel="app" href="https://www.google.com/earth/about/versions/#earth-pro" title="Google Earth Pro 7.3.6.10441"></atom:link>
	</Placemark>
</Document>
</kml>
