<?xml version="1.0" encoding="UTF-8"?>
<kml xmlns="http://www.opengis.net/kml/2.2">
  <Document>
    <name>Forecast 2026-03-12</name>
    <Style id="redLine"><LineStyle><color>ff0000ff</color><width>3</width></LineStyle></Style>
    <Style id="whiteLine"><LineStyle><color>ffffffff</color><width>2</width></LineStyle></Style>
    <Placemark>
      <name>Forecast 2026-03-12</name>
      <styleUrl>#redLine</styleUrl>
      <LineString><tessellate>1</tessellate>
        <coordinates>80.0106366601298,6.367788847723636,0 80.01071366184262,6.367692502630756,0 80.01082033407816,6.367612678730521,0 80.01092063231181,6.367529305647347,0 80.01100292898829,6.36743590890545,0 80.0110678672032,6.367332846594438,0 80.01113970714701,6.367233627316267,0 80.01121423544214,6.36713590497061,0 80.01129018667363,6.367038974946874,0 80.01135922426006,6.366938195255135,0 80.01141571931316,6.366830431607923,0 80.01147826001412,6.3667260343089875,0 80.01153968100427,6.366621013530716,0 80.01161689666456,6.366524787568447,0 80.01168941272218,6.3664259447651546,0 80.01174956106712,6.366320215350325,0 80.01181547397867,6.366217695771626,0 80.01187036983583,6.366109041657329,0 80.0119306839751,6.366003404560398,0 80.01199005065901,6.36589723989971,0 80.01205133676596,6.365792144015533,0 80.01210278672593,6.365681571150693,0 80.01216954321825,6.36557952129612,0 80.01223414671875,6.36547627260886,0 80.01230341081693,6.365375619043793,0 80.01236302905359,6.365269594453143,0 80.01242740976635,6.365166221712815,0 80.01248412174303,6.36505857885338,0 80.0125475435762,6.364954672188039,0 80.01260922299913,6.364849795310758,0 80.01267851950342,6.364749159790116,0 80.0127348085567,6.3646412814377245,0 80.01279558928837,6.364535904149597,0 80.01286012710237,6.364432618886662,0 80.01292480470262,6.364329411459738,0 80.01298952953299,6.3642262303315835,0 80.01304521325912,6.364118014919872,0 80.01310552122276,6.3640123743842185,0 80.01317078871476,6.363909495421873,0 80.01323556919964,6.363806345283351,0 80.01329542123476,6.363700450876779,0 80.01335598147907,6.363594950816495,0 80.0134279234185,6.3634957883317025,0 80.01349414079525,6.363393438285846,0 80.013557766808,6.3632896453121335,0 80.01362471119438,6.3631877000810615,0 80.01368413152838,6.36308156529391,0 80.01374338111039,6.362975335428337,0 80.01380764046438,6.36287189511281,0 80.01387641650295,6.362770969785525,0 80.01394352991387,6.362669118670998,0 80.01400420564042,6.362563682913727,0 80.01406633147536,6.362459054608375,0 80.01413264651464,6.362356758943139,0 80.01419836917775,6.362254133429963,0 80.01426246842303,6.362150603962421,0 80.01432867907855,6.362048250174039,0 80.01438988507851,6.361943109684554,0 80.01445291216889,6.361838983217837,0 80.01452292065204,6.361738744142504,0 80.0145953004948,6.361639825491819,0 80.014670975302,6.361542741549021,0 80.0147337238921,6.361438460007286,0 80.01479628462296,6.361334073861439,0 80.01485244156805,6.361226121948331,0 80.0149114286086,6.3611197458939595,0 80.01496320223654,6.361009353254494,0 80.01502435021212,6.360904180455765,0 80.01508890320123,6.360800903642659,0 80.0151468279374,6.36069393607409,0 80.01520788209235,6.360588711033993,0 80.01526986893217,6.360484005333127,0 80.01532904545006,6.360377734783863,0 80.0153967826398,6.360276231002947,0 80.0154544894146,6.360169142068744,0 80.01551562493971,6.36006396233733,0 80.01557450182831,6.359957524947951,0 80.01563634159508,6.359852737353616,0 80.0156940117779,6.359745628044201,0 80.01574973240136,6.359637433177721,0 80.0158119740069,6.3595328693359425,0 80.01587676058978,6.359429722592935,0 80.01594429300214,6.359328104787523,0 80.01599822692934,6.359218915049693,0 80.01606585383739,6.3591173498615285,0 80.01611689587966,6.359006549859248,0 80.01617394801471,6.358899096407394,0 80.01622719036196,6.358789521582797,0 80.01627373929318,6.358676219718518,0 80.01632879289136,6.358567653437833,0 80.01636994926697,6.358451348881254,0 80.01641032945889,6.358334612128705,0 80.01644682856121,6.35821571430102,0 80.0164629303302,6.358085458794322,0 80.01648450865271,6.35795825275177,0 80.01649759890071,6.357826320364655,0 80.01649918074601,6.3576879798485,0 80.01648834757982,6.357542726383827,0 80.01642122775058,6.357366131280437,0 80.01636272713648,6.357194335543565,0</coordinates>
      </LineString>
    </Placemark>
    
    <Placemark>
      <name>Current Shoreline (Reference)</name>
      <styleUrl>#whiteLine</styleUrl>
      <LineString><tessellate>1</tessellate>
        <coordinates>80.01089495606534,6.367840831745068,0 80.01123468298192,6.367380747637505,0 80.01147555684533,6.367037130177167,0 80.01167713335592,6.366732190245781,0 80.0118765249622,6.366405212194404,0 80.01202252558642,6.366021331327053,0 80.01223391745788,6.365713792859998,0 80.0124613106721,6.365325714288254,0 80.0126828758903,6.364970377184564,0 80.01291582137725,6.364614899811569,0 80.01309593848768,6.36425857965996,0 80.01330079420875,6.363913318712918,0 80.01354926542416,6.363528715264485,0 80.01398146263446,6.36281213250644,0 80.01425817964753,6.362292880061967,0 80.01452187178656,6.361854319693663,0 80.01487228586414,6.361176861056349,0 80.0152686961614,6.360478250832422,0 80.0156470229415,6.359872832354955,0 80.01578111750139,6.359407814713297,0 80.01605039760467,6.358805058525987,0 80.01614147802562,6.358459331534737,0 80.0164167715383,6.357734394787326,0 80.01641428627137,6.357436136598702,0 80.01633395971254,6.357240809683926,0</coordinates>
      </LineString>
    </Placemark>
  </Document>
</kml>