<?xml version="1.0" encoding="UTF-8"?>
<kml xmlns="http://www.opengis.net/kml/2.2">
  <Document>
    <name>Forecast 2026-05-06</name>
    <Style id="redLine"><LineStyle><color>ff0000ff</color><width>3</width></LineStyle></Style>
    <Style id="whiteLine"><LineStyle><color>ffffffff</color><width>2</width></LineStyle></Style>
    <Placemark>
      <name>Forecast 2026-05-06</name>
      <styleUrl>#redLine</styleUrl>
      <LineString><tessellate>1</tessellate>
        <coordinates>80.01074328941793,6.367848221231377,0 80.01083204855746,6.367758422929517,0 80.01093335403291,6.367675610700496,0 80.01101968330542,6.367584459395808,0 80.01109497904197,6.367487164378231,0 80.01115821158851,6.36738315231396,0 80.01122901355872,6.367283355069504,0 80.01130240130189,6.367184997639695,0 80.01136981707442,6.367083314886687,0 80.01144581932003,6.366986413268723,0 80.01151519986969,6.366885824546365,0 80.01157677851398,6.36678089155335,0 80.01164109770708,6.3666774845575365,0 80.01170279500155,6.366572617631518,0 80.01177427051734,6.366473195431892,0 80.0118347898406,6.366367672585869,0 80.01188359265775,6.366255625734312,0 80.01194664811727,6.366151515064152,0 80.0120087527155,6.366046874933728,0 80.01206786280413,6.36594056739521,0 80.01214059647694,6.36584184576478,0 80.01220347307843,6.365737635502569,0 80.01226391986047,6.365632072264026,0 80.012329336771,6.365529276501164,0 80.01238589664254,6.365421548946273,0 80.01243531093232,6.36530984257598,0 80.01249298820014,6.365202737211647,0 80.01253447283467,6.365086615436779,0 80.01259670572837,6.364982046744065,0 80.01266654334512,6.364881712526617,0 80.01272906257053,6.364777303269625,0 80.0127919124759,6.364673078142442,0 80.01285808908749,6.364570705397655,0 80.0129210228245,6.364466526949756,0 80.01297368730496,6.364356630356345,0 80.01303095841854,6.364249298836499,0 80.01309603171823,6.364146311743651,0 80.01314951408428,6.3640368705667365,0 80.01321813613944,6.363935859498153,0 80.01329025789597,6.3638367971394265,0 80.01335516982182,6.36373372019011,0 80.01341878766905,6.363629922669657,0 80.01347980380417,6.363524676459294,0 80.01354315009476,6.363420727730199,0 80.013611594635,6.3633196178174245,0 80.01367999350062,6.363218482472046,0 80.01373617409605,6.363110543727967,0 80.01379595500137,6.363004609714773,0 80.01385120285937,6.3628961516022,0 80.01391109786454,6.362790281122274,0 80.01397486539047,6.362686566946178,0 80.01404067360738,6.362583989071233,0 80.01410196679436,6.3624788971293675,0 80.0141638440715,6.362374130421621,0 80.01423266016546,6.3622732273980445,0 80.01430709454989,6.362175452760863,0 80.01437055537352,6.362071567806256,0 80.01443535298469,6.361968427204032,0 80.01449642057378,6.361863209644358,0 80.01456347876689,6.361761327783347,0 80.01462555144548,6.361656669879378,0 80.01468971716383,6.361553177425488,0 80.01475123246956,6.36144820916418,0 80.01480972593538,6.3613415582766555,0 80.01486380096713,6.361232447108907,0 80.0149237001176,6.3611265789371805,0 80.01496899932593,6.361012581199997,0 80.01503169995023,6.360908272949867,0 80.01508346504234,6.3607978755574575,0 80.01513589421914,6.360687847941861,0 80.01519427222014,6.360581132761011,0 80.01524964403052,6.360472743667816,0 80.01530757323091,6.360365778585034,0 80.01537101518494,6.36026188312342,0 80.01543083143521,6.360155968791058,0 80.01549566558438,6.360052848533989,0 80.01555400458138,6.359946111634869,0 80.01561314062998,6.359839818551425,0 80.01567020795119,6.359732373555555,0 80.0157259427468,6.359624186580429,0 80.01577806648865,6.359513988892004,0 80.01584427011558,6.359411631189958,0 80.01589694371225,6.359301739672662,0 80.01595305831505,6.359193764182447,0 80.01601298094516,6.359087909084696,0 80.0160644540776,6.358977349122794,0 80.01612090174386,6.358869559089563,0 80.0161639980025,6.3587543347020645,0 80.01622607287933,6.358649678022126,0 80.01625922439206,6.358528916183708,0 80.01631269655174,6.35841946932367,0 80.01635903028959,6.358306047635037,0 80.01639069011796,6.358184455194321,0 80.01642683166016,6.358065358269373,0 80.01646074546636,6.357945020892559,0 80.0164807095933,6.357816916030794,0 80.01647616542338,6.357675164416079,0 80.01646905890458,6.35753198602975,0 80.01639019724995,6.357348852822501,0 80.0163625203034,6.357194220374407,0</coordinates>
      </LineString>
    </Placemark>
    
    <Placemark>
      <name>Current Shoreline (Reference)</name>
      <styleUrl>#whiteLine</styleUrl>
      <LineString><tessellate>1</tessellate>
        <coordinates>80.01089495606534,6.367840831745068,0 80.01123468298192,6.367380747637505,0 80.01147555684533,6.367037130177167,0 80.01167713335592,6.366732190245781,0 80.0118765249622,6.366405212194404,0 80.01202252558642,6.366021331327053,0 80.01223391745788,6.365713792859998,0 80.0124613106721,6.365325714288254,0 80.0126828758903,6.364970377184564,0 80.01291582137725,6.364614899811569,0 80.01309593848768,6.36425857965996,0 80.01330079420875,6.363913318712918,0 80.01354926542416,6.363528715264485,0 80.01398146263446,6.36281213250644,0 80.01425817964753,6.362292880061967,0 80.01452187178656,6.361854319693663,0 80.01487228586414,6.361176861056349,0 80.0152686961614,6.360478250832422,0 80.0156470229415,6.359872832354955,0 80.01578111750139,6.359407814713297,0 80.01605039760467,6.358805058525987,0 80.01614147802562,6.358459331534737,0 80.0164167715383,6.357734394787326,0 80.01641428627137,6.357436136598702,0 80.01633395971254,6.357240809683926,0</coordinates>
      </LineString>
    </Placemark>
  </Document>
</kml>