<?xml version="1.0" encoding="UTF-8"?>
<kml xmlns="http://www.opengis.net/kml/2.2">
  <Document>
    <name>Forecast 2026-03-19</name>
    <Style id="redLine"><LineStyle><color>ff0000ff</color><width>3</width></LineStyle></Style>
    <Style id="whiteLine"><LineStyle><color>ffffffff</color><width>2</width></LineStyle></Style>
    <Placemark>
      <name>Forecast 2026-03-19</name>
      <styleUrl>#redLine</styleUrl>
      <LineString><tessellate>1</tessellate>
        <coordinates>80.01069384928311,6.367820691888556,0 80.01076068372706,6.3677186854391445,0 80.01085632118098,6.3676327171324045,0 80.01094325072295,6.367541900070811,0 80.01102136814455,6.367446176228869,0 80.01109718621346,6.367349172057303,0 80.0111652203678,6.367247833632746,0 80.01123658715827,6.36714835089249,0 80.01130703319473,6.367048355456376,0 80.01137499137006,6.366946974725057,0 80.01144047625728,6.366844216813086,0 80.01149951434238,6.366737869181426,0 80.0115550238345,6.366629556752431,0 80.0116186289644,6.366525752150687,0 80.01167062654389,6.366415484212322,0 80.01173136938515,6.3663100858259805,0 80.01179605771384,6.3662068843729,0 80.01185407312113,6.366099967291988,0 80.01191452418686,6.365994406438696,0 80.01197040174033,6.365886298954255,0 80.01202634935807,6.365778230483122,0 80.01209011952382,6.36567451777694,0 80.01215159508041,6.36556952738245,0 80.01221060298566,6.365463162945996,0 80.01227755047871,6.3653612194447895,0 80.01234226420536,6.365258032133828,0 80.01239985115804,6.365150876480068,0 80.01245239166066,6.365040910853114,0 80.01252582142986,6.364942576824307,0 80.01258841702668,6.364838210092581,0 80.01265287603377,6.364734880948241,0 80.01271593448496,6.3646307719439,0 80.01276496609402,6.3645188524886604,0 80.01282625248943,6.364413756765112,0 80.01289631427065,6.364313547367306,0 80.01296610078009,6.364213184692196,0 80.01303226192995,6.36411080333799,0 80.01309123479066,6.364004419387975,0 80.01315104031733,6.363898499084479,0 80.01320568740039,6.363789706447341,0 80.01326942494876,6.3636859755790915,0 80.01332877927543,6.363579804037625,0 80.01340477025029,6.363482896143861,0 80.01347061032207,6.363380336006396,0 80.0135352197883,6.363277090640966,0 80.0135981432569,6.363172906475386,0 80.01366918357154,6.363073241946294,0 80.013736550009,6.362971531722447,0 80.01380007603753,6.362867683075346,0 80.01385949880638,6.362761549643964,0 80.01392497788528,6.36265878849781,0 80.01399077538501,6.362556204655296,0 80.01405286329974,6.362451555235139,0 80.01412074294214,6.362350130774971,0 80.01418958255655,6.362249240848097,0 80.01425148445279,6.362144487848791,0 80.01431327355299,6.362039672042205,0 80.01437732719687,6.361936117182811,0 80.01443137320008,6.361826989851338,0 80.0144924516039,6.361721778313536,0 80.01456297146082,6.3616218239822615,0 80.01464125116574,6.361526190503197,0 80.01469321304248,6.361415902684754,0 80.01475243135106,6.361309655405455,0 80.01481294361754,6.361204128630058,0 80.01487374103509,6.3610987606329905,0 80.01492869578999,6.360990139314236,0 80.01499330680893,6.360886894813407,0 80.0150509377641,6.360779763661187,0 80.01511691732719,6.36067728119551,0 80.01517595539198,6.3605709335525455,0 80.01523443275431,6.360464273698247,0 80.01529265842265,6.360357473695264,0 80.01535344686289,6.360252100699439,0 80.0154173656622,6.3601484707556475,0 80.01547909899958,6.360043623899105,0 80.01553769469622,6.359937029935935,0 80.01560065185878,6.359832864531879,0 80.01565809074873,6.359725626433569,0 80.01571285452627,6.3596168987744575,0 80.01576262999254,6.35950539351509,0 80.01581234563965,6.359393854947119,0 80.01587584505081,6.359289991478889,0 80.01592602316741,6.359178710423991,0 80.01597748129552,6.359068142107347,0 80.01603506841892,6.358960986548644,0 80.01609168260833,6.358853289239132,0 80.01615294781426,6.358748181716818,0 80.01619912028733,6.358634670232445,0 80.01623940978989,6.358517882982077,0 80.01629726123734,6.358410874604763,0 80.01633052877595,6.358290177372087,0 80.01637333698484,6.358174792592221,0 80.01639880076105,6.3580497500548425,0 80.01643346583774,6.35792983100177,0 80.01644029758582,6.35779441374572,0 80.01643962296372,6.357654816779427,0 80.01642558406957,6.357507778295665,0 80.01637714276,6.357341583798454,0 80.0163560742485,6.357190631070789,0</coordinates>
      </LineString>
    </Placemark>
    
    <Placemark>
      <name>Current Shoreline (Reference)</name>
      <styleUrl>#whiteLine</styleUrl>
      <LineString><tessellate>1</tessellate>
        <coordinates>80.01089495606534,6.367840831745068,0 80.01123468298192,6.367380747637505,0 80.01147555684533,6.367037130177167,0 80.01167713335592,6.366732190245781,0 80.0118765249622,6.366405212194404,0 80.01202252558642,6.366021331327053,0 80.01223391745788,6.365713792859998,0 80.0124613106721,6.365325714288254,0 80.0126828758903,6.364970377184564,0 80.01291582137725,6.364614899811569,0 80.01309593848768,6.36425857965996,0 80.01330079420875,6.363913318712918,0 80.01354926542416,6.363528715264485,0 80.01398146263446,6.36281213250644,0 80.01425817964753,6.362292880061967,0 80.01452187178656,6.361854319693663,0 80.01487228586414,6.361176861056349,0 80.0152686961614,6.360478250832422,0 80.0156470229415,6.359872832354955,0 80.01578111750139,6.359407814713297,0 80.01605039760467,6.358805058525987,0 80.01614147802562,6.358459331534737,0 80.0164167715383,6.357734394787326,0 80.01641428627137,6.357436136598702,0 80.01633395971254,6.357240809683926,0</coordinates>
      </LineString>
    </Placemark>
  </Document>
</kml>