<?xml version="1.0" encoding="UTF-8"?>
<kml xmlns="http://www.opengis.net/kml/2.2">
  <Document>
    <name>Forecast 2026-03-17</name>
    <Style id="redLine"><LineStyle><color>ff0000ff</color><width>3</width></LineStyle></Style>
    <Style id="whiteLine"><LineStyle><color>ffffffff</color><width>2</width></LineStyle></Style>
    <Placemark>
      <name>Forecast 2026-03-17</name>
      <styleUrl>#redLine</styleUrl>
      <LineString><tessellate>1</tessellate>
        <coordinates>80.01075753463294,6.36785615327705,0 80.01082367213574,6.36775375875565,0 80.01092505206272,6.367670987982851,0 80.01102190001605,6.367585693708523,0 80.01109727690435,6.367488443878002,0 80.01117144902744,6.367390523207987,0 80.01124907958348,6.367294528268695,0 80.01129267556895,6.367179582139974,0 80.01136974717578,6.367083275965599,0 80.01143534474407,6.366980580796912,0 80.01150647489013,6.366880966287895,0 80.01156212602956,6.366772732731198,0 80.0116253918945,6.366668739219348,0 80.01170020662568,6.366571176367509,0 80.01175290023262,6.366461295992371,0 80.0118251427986,6.366362300902977,0 80.01187938411647,6.366253282326958,0 80.0119379777415,6.366146687210261,0 80.01200575118467,6.366045203616053,0 80.01205494346998,6.365933373628838,0 80.01211287905501,6.365826412101151,0 80.01217093911787,6.365719519885431,0 80.01224316590218,6.365620516008467,0 80.01231118118397,6.365519167075268,0 80.01235841839132,6.3654062484581,0 80.01242261907667,6.365302775474599,0 80.01247941207379,6.365195177729098,0 80.01253009338355,6.365084176863103,0 80.01259717228092,6.364982306530683,0 80.01265683702402,6.364876307835836,0 80.0127299915848,6.36477782056499,0 80.01278381930257,6.364668571687434,0 80.01284985013746,6.364566117771015,0 80.01291572817371,6.364463578772986,0 80.01297668808066,6.364358301253549,0 80.01303761829757,6.36425300720206,0 80.01309971547815,6.364148362941322,0 80.01315652719023,6.364040775616733,0 80.01321537197818,6.363934320353013,0 80.01328596138313,6.363834404747594,0 80.01333886867226,6.36372464335534,0 80.01340487635773,6.363622176548821,0 80.01347161718516,6.363520117971698,0 80.01353310203199,6.363415132750208,0 80.01359206215001,6.363308741704785,0 80.01364566986628,6.363199370325607,0 80.01370846407907,6.363095114187576,0 80.01376467489625,6.3629871922716275,0 80.01382396410605,6.3628809844716745,0 80.01387265670145,6.362768876246243,0 80.01394771284434,6.362671447817693,0 80.01400800009333,6.36256579574767,0 80.01407777867905,6.3624654286604665,0 80.01414250458816,6.362362248132982,0 80.01420346319486,6.362256969889533,0 80.01426619430045,6.362152678612034,0 80.01432116290768,6.36204406500656,0 80.01437667790913,6.361935755645266,0 80.01444480155367,6.361834467050795,0 80.01450000216606,6.361725982630833,0 80.01457328696097,6.361627567877194,0 80.01463597664333,6.3615232535343464,0 80.01470694386371,6.36142354830478,0 80.01476726942731,6.36131791756917,0 80.01482816049659,6.3612126017194175,0 80.01488391235705,6.361104424246377,0 80.01493941728508,6.36099610927599,0 80.01501030908283,6.360896362049457,0 80.01507523005942,6.360793290139789,0 80.01512917505812,6.360684106566798,0 80.01520064859073,6.360584683262897,0 80.01525445275725,6.360475421271494,0 80.01531936728011,6.360372345768251,0 80.01537496307303,6.36026408139341,0 80.01544288596179,6.36016268101375,0 80.01549508050988,6.360052522751777,0 80.01554662578373,6.359942002959787,0 80.01561439721598,6.359840518245851,0 80.01567317675723,6.359734026651357,0 80.01572524634395,6.3596237988081645,0 80.01577627254686,6.359512989986184,0 80.01582789237695,6.359402511708725,0 80.01586937252611,6.359286387436307,0 80.01593939947988,6.359186158645825,0 80.01598387232652,6.359071700772464,0 80.01603700523408,6.35896206500947,0 80.01609116268311,6.358852999733456,0 80.01615473992949,6.358749179605571,0 80.01621500144334,6.358643513205666,0 80.0162566295369,6.358527471311889,0 80.01630643880354,6.358415984873312,0 80.01634619214668,6.3582988990777265,0 80.01637977089032,6.358178375130787,0 80.0164154950845,6.358059045817385,0 80.01643737411936,6.357932007218013,0 80.01647432028072,6.357813358322531,0 80.0164682350662,6.357670748620644,0 80.01645775828072,6.357525693596507,0 80.01639402017166,6.357350981508489,0 80.0163706805476,6.357198764175929,0</coordinates>
      </LineString>
    </Placemark>
    
    <Placemark>
      <name>Current Shoreline (Reference)</name>
      <styleUrl>#whiteLine</styleUrl>
      <LineString><tessellate>1</tessellate>
        <coordinates>80.01089495606534,6.367840831745068,0 80.01123468298192,6.367380747637505,0 80.01147555684533,6.367037130177167,0 80.01167713335592,6.366732190245781,0 80.0118765249622,6.366405212194404,0 80.01202252558642,6.366021331327053,0 80.01223391745788,6.365713792859998,0 80.0124613106721,6.365325714288254,0 80.0126828758903,6.364970377184564,0 80.01291582137725,6.364614899811569,0 80.01309593848768,6.36425857965996,0 80.01330079420875,6.363913318712918,0 80.01354926542416,6.363528715264485,0 80.01398146263446,6.36281213250644,0 80.01425817964753,6.362292880061967,0 80.01452187178656,6.361854319693663,0 80.01487228586414,6.361176861056349,0 80.0152686961614,6.360478250832422,0 80.0156470229415,6.359872832354955,0 80.01578111750139,6.359407814713297,0 80.01605039760467,6.358805058525987,0 80.01614147802562,6.358459331534737,0 80.0164167715383,6.357734394787326,0 80.01641428627137,6.357436136598702,0 80.01633395971254,6.357240809683926,0</coordinates>
      </LineString>
    </Placemark>
  </Document>
</kml>