<?xml version="1.0" encoding="UTF-8"?>
<kml xmlns="http://www.opengis.net/kml/2.2">
  <Document>
    <name>Forecast 2026-04-16</name>
    <Style id="redLine"><LineStyle><color>ff0000ff</color><width>3</width></LineStyle></Style>
    <Style id="whiteLine"><LineStyle><color>ffffffff</color><width>2</width></LineStyle></Style>
    <Placemark>
      <name>Forecast 2026-04-16</name>
      <styleUrl>#redLine</styleUrl>
      <LineString><tessellate>1</tessellate>
        <coordinates>80.01074354266518,6.367848362244952,0 80.01083204855746,6.367758422929517,0 80.01093662720314,6.3676774332728945,0 80.01101674205717,6.367582821644784,0 80.01109615878455,6.367487821284565,0 80.01116083309216,6.367384612024234,0 80.01122898919895,6.3672833415054555,0 80.01130240130189,6.367184997639695,0 80.01136981707442,6.367083314886687,0 80.01144581932003,6.366986413268723,0 80.01151488092233,6.3668856469495365,0 80.01157677474788,6.366780889456297,0 80.01164109617564,6.3666774837047955,0 80.01170151516723,6.366571904991922,0 80.01177427051734,6.366473195431892,0 80.0118347898406,6.366367672585869,0 80.0118858252482,6.366256868889251,0 80.01194567881939,6.366150975337996,0 80.01200795946356,6.3660464332337865,0 80.012065223641,6.365939097851753,0 80.01214246337429,6.365842885293841,0 80.01220544967892,6.365738736116729,0 80.01226452139598,6.365632407212085,0 80.01233098107515,6.365530192085493,0 80.01238428277074,6.3654206503073425,0 80.01243523557108,6.365309800613197,0 80.01249276624057,6.365202613619734,0 80.01253608596554,6.365087513663143,0 80.01259670572837,6.364982046744065,0 80.01266654334512,6.364881712526617,0 80.01272906257053,6.364777303269625,0 80.0127919124759,6.364673078142442,0 80.01285808908749,6.364570705397655,0 80.0129210228245,6.364466526949756,0 80.01297368730496,6.364356630356345,0 80.01303068926057,6.364249148963491,0 80.01309603171823,6.364146311743651,0 80.01314951408428,6.3640368705667365,0 80.0132183003751,6.363935950948143,0 80.01329037691289,6.36383686341064,0 80.01335685375388,6.363734657840115,0 80.01341878766905,6.363629922669657,0 80.01347980380417,6.363524676459294,0 80.01354315009476,6.363420727730199,0 80.01361106405632,6.363319322379677,0 80.01367999350062,6.363218482472046,0 80.01373617409605,6.363110543727967,0 80.01379595500137,6.363004609714773,0 80.01385120285937,6.3628961516022,0 80.01391109786454,6.362790281122274,0 80.01397486539047,6.362686566946178,0 80.01404067360738,6.362583989071233,0 80.01410196679436,6.3624788971293675,0 80.0141638440715,6.362374130421621,0 80.01423266016546,6.3622732273980445,0 80.0143067293611,6.362175249415795,0 80.01437190059309,6.362072316853785,0 80.01443428951372,6.361967835040261,0 80.01449629492916,6.361863139682701,0 80.01456347876689,6.361761327783347,0 80.01462555144548,6.361656669879378,0 80.01468862755138,6.361552570705565,0 80.01475123246956,6.36144820916418,0 80.01480972593538,6.3613415582766555,0 80.01486380096713,6.361232447108907,0 80.0149237001176,6.3611265789371805,0 80.01496899932593,6.361012581199997,0 80.01503201955119,6.360908450910629,0 80.01508374312772,6.360798030401452,0 80.01513616233203,6.360687997232944,0 80.01519451202317,6.3605812662885555,0 80.01524964403052,6.360472743667816,0 80.01530698208906,6.360365449424383,0 80.01536930702143,6.360260931980806,0 80.01543009112017,6.360155556567528,0 80.01549327202994,6.360051515750799,0 80.01555400458138,6.359946111634869,0 80.01561335337867,6.359839937014521,0 80.01566984028895,6.359732168833221,0 80.015725275645,6.359623815123627,0 80.01577696643434,6.35951337635783,0 80.01584466856026,6.35941185305262,0 80.01589694371225,6.359301739672662,0 80.01595746454436,6.3591962176668035,0 80.01600909263809,6.359085743990713,0 80.01606371744893,6.358976938951924,0 80.01612160648605,6.358869951505355,0 80.01616576459764,6.3587553183806795,0 80.01622060917641,6.358646635713457,0 80.01625908462519,6.358528838358474,0 80.01631270195696,6.358419472333416,0 80.01635914548048,6.3583061117758275,0 80.01639141900797,6.358184861056135,0 80.01642684149347,6.35806536374478,0 80.01645848929539,6.357943764607467,0 80.0164807095933,6.357816916030794,0 80.01647616542338,6.357675164416079,0 80.01646905890458,6.35753198602975,0 80.01639019724995,6.357348852822501,0 80.0163625203034,6.357194220374407,0</coordinates>
      </LineString>
    </Placemark>
    
    <Placemark>
      <name>Current Shoreline (Reference)</name>
      <styleUrl>#whiteLine</styleUrl>
      <LineString><tessellate>1</tessellate>
        <coordinates>80.01089495606534,6.367840831745068,0 80.01123468298192,6.367380747637505,0 80.01147555684533,6.367037130177167,0 80.01167713335592,6.366732190245781,0 80.0118765249622,6.366405212194404,0 80.01202252558642,6.366021331327053,0 80.01223391745788,6.365713792859998,0 80.0124613106721,6.365325714288254,0 80.0126828758903,6.364970377184564,0 80.01291582137725,6.364614899811569,0 80.01309593848768,6.36425857965996,0 80.01330079420875,6.363913318712918,0 80.01354926542416,6.363528715264485,0 80.01398146263446,6.36281213250644,0 80.01425817964753,6.362292880061967,0 80.01452187178656,6.361854319693663,0 80.01487228586414,6.361176861056349,0 80.0152686961614,6.360478250832422,0 80.0156470229415,6.359872832354955,0 80.01578111750139,6.359407814713297,0 80.01605039760467,6.358805058525987,0 80.01614147802562,6.358459331534737,0 80.0164167715383,6.357734394787326,0 80.01641428627137,6.357436136598702,0 80.01633395971254,6.357240809683926,0</coordinates>
      </LineString>
    </Placemark>
  </Document>
</kml>