<?xml version="1.0" encoding="UTF-8"?>
<kml xmlns="http://www.opengis.net/kml/2.2">
  <Document>
    <name>Forecast 2026-03-10</name>

    <Style id="redLine">
      <LineStyle>
        <color>ff0000ff</color>
        <width>2</width>
      </LineStyle>
    </Style>

    <Style id="whiteLine">
      <LineStyle>
        <color>ffffffff</color>
        <width>2</width>
      </LineStyle>
    </Style>

    <Placemark>
      <name>Forecast 2026-03-10</name>
      <styleUrl>#redLine</styleUrl>
      <LineString>
        <tessellate>1</tessellate>
        <coordinates>
          80.01073911495159,6.367845896797683,0 80.01080566142211,6.3677437299984065,0 80.01094017387354,6.367679408136144,0 80.01102133186605,6.367585377350237,0 80.011080047462,6.367478850149612,0 80.01112932728473,6.367367068905138,0 80.01119048653464,6.367261902384198,0 80.01126677651337,6.3671651609822915,0 80.0113441793944,6.3670690392686105,0 80.01141241133114,6.366967810973591,0 80.01145662268863,6.366853207497384,0 80.01151022270919,6.366743831833071,0 80.01158962961205,6.366648826002343,0 80.01166205970468,6.366549935331871,0 80.0117379879994,6.36645299253644,0 80.01180390901057,6.3663504774677815,0 80.01185035112705,6.36623711612673,0 80.01189526107484,6.366122901640805,0 80.01194958471801,6.366013928905305,0 80.01201760258104,6.365912581409395,0 80.01210248068851,6.3658206220644304,0 80.01219821242204,6.365734706254624,0 80.01228873315738,6.365645888847643,0 80.01235566299823,6.365543935517309,0 80.01242903710943,6.365445570496917,0 80.01249911967311,6.365345372671246,0 80.01255763156338,6.365238732042861,0 80.01261235403348,6.365129981382868,0 80.01265955645917,6.36501704339853,0 80.0127120349801,6.36490704325881,0 80.01277256632012,6.364801527103986,0 80.01282830073697,6.364693339917965,0 80.01288402839313,6.364585148967446,0 80.01293399972113,6.364473752768154,0 80.01298774854264,6.3643644599594404,0 80.01304857494199,6.364259108100072,0 80.01311172490259,6.364155050050165,0 80.01316300382622,6.364044381948575,0 80.0132084959061,6.3639304916064665,0 80.01325509061176,6.3638172152303865,0 80.01329860216617,6.363702222088602,0 80.01334751260974,6.363590235165778,0 80.01339947680434,6.363479948637979,0 80.01346371944932,6.363376499018507,0 80.01352048872387,6.363268888063766,0 80.01357095723706,6.363157768708013,0 80.01362421132141,6.363048200418887,0 80.01367486116769,6.3629371820333365,0 80.01372296402927,6.362824745431292,0 80.01376645976394,6.362709743480727,0 80.01383294315346,6.362607541556573,0 80.01391028566005,6.362511386225078,0 80.01398348871939,6.362412925959296,0 80.01406230530532,6.36231759142726,0 80.01414139839873,6.362222410860601,0 80.01419980053463,6.362115709118584,0 80.01424620031001,6.36200232420109,0 80.01428888608274,6.361886871246104,0 80.0143332891676,6.36177237452787,0 80.01439012416598,6.361664800169591,0 80.01446380529332,6.361566606102468,0 80.01454618996702,6.361473258359336,0 80.01461707893867,6.361373509559173,0 80.01468601399219,6.361272672774879,0 80.014730719174,6.361158344270798,0 80.014780896973,6.361047063039054,0 80.01482469011451,6.360932226691102,0 80.01485314281084,6.360808848449481,0 80.0149010472013,6.3606963013343965,0 80.0149513029534,6.360585063508627,0 80.01500575976777,6.360476164925747,0 80.01505432810714,6.360363987511863,0 80.01510406321118,6.360252459777936,0 80.01517095098585,6.360150483024228,0 80.01524391197829,6.360051887970318,0 80.01531053118482,6.359949761672035,0 80.01537415660547,6.359845968368628,0 80.01542937028722,6.35973749122597,0 80.01547254321918,6.35962230953184,0 80.01551234006254,6.3595052479581184,0 80.01556737148968,6.359396669332127,0 80.0156434215802,6.359299794355246,0 80.01569943240352,6.359191761078371,0 80.01575361479108,6.3590827096886695,0 80.01581789579738,6.35897928142961,0 80.01588190708044,6.358875702982789,0 80.01596171657168,6.358780921322038,0 80.01601612399882,6.358671995239273,0 80.01607138972453,6.358563547075823,0 80.01612028145856,6.35845154973511,0 80.01619417970475,6.358353476564499,0 80.01625402333578,6.358247577478338,0 80.01631077559186,6.3581399570473485,0 80.01635146523664,6.358023392604886,0 80.01636579563737,6.357892150761791,0 80.01635691363239,6.3577479837461235,0 80.01638290853579,6.357623236951919,0 80.01641214664356,6.357500296044484,0 80.01646629253187,6.357391224331211,0 80.0163952939333,6.357212469444646,0
        </coordinates>
      </LineString>
    </Placemark>

    
    <Placemark>
      <name>Current Shoreline (Reference)</name>
      <styleUrl>#whiteLine</styleUrl>
      <LineString>
        <tessellate>1</tessellate>
        <coordinates>
          80.01089495606534,6.367840831745068,0 80.01123468298192,6.367380747637505,0 80.01147555684533,6.367037130177167,0 80.01167713335592,6.366732190245781,0 80.0118765249622,6.366405212194404,0 80.01202252558642,6.366021331327053,0 80.01223391745788,6.365713792859998,0 80.0124613106721,6.365325714288254,0 80.0126828758903,6.364970377184564,0 80.01291582137725,6.364614899811569,0 80.01309593848768,6.36425857965996,0 80.01330079420875,6.363913318712918,0 80.01354926542416,6.363528715264485,0 80.01398146263446,6.36281213250644,0 80.01425817964753,6.362292880061967,0 80.01452187178656,6.361854319693663,0 80.01487228586414,6.361176861056349,0 80.0152686961614,6.360478250832422,0 80.0156470229415,6.359872832354955,0 80.01578111750139,6.359407814713297,0 80.01605039760467,6.358805058525987,0 80.01614147802562,6.358459331534737,0 80.0164167715383,6.357734394787326,0 80.01641428627137,6.357436136598702,0 80.01633395971254,6.357240809683926,0
        </coordinates>
      </LineString>
    </Placemark>
  </Document>
</kml>
