<?xml version="1.0" encoding="UTF-8"?>
<kml xmlns="http://www.opengis.net/kml/2.2">
  <Document>
    <name>Forecast 2026-07-06</name>
    <Style id="redLine"><LineStyle><color>ff0000ff</color><width>3</width></LineStyle></Style>
    <Style id="whiteLine"><LineStyle><color>ffffffff</color><width>2</width></LineStyle></Style>
    <Placemark>
      <name>Forecast 2026-07-06</name>
      <styleUrl>#redLine</styleUrl>
      <LineString><tessellate>1</tessellate>
        <coordinates>80.01071470041485,6.367832302252403,0 80.01079589128436,6.367738289773118,0 80.01092492417497,6.367670916772174,0 80.01100629658144,6.36757700537662,0 80.0110757637525,6.36747646488695,0 80.01114775559218,6.367377330187694,0 80.01121520167199,6.367275664310438,0 80.01128509751948,6.367175362517133,0 80.01134832333146,6.367071346702928,0 80.01142431330128,6.3669744382495335,0 80.01149446332695,6.366874277988169,0 80.0115670920172,6.366775497901176,0 80.01163139960634,6.366672084444024,0 80.01168777886599,6.366564256320505,0 80.01174777757097,6.366458443582904,0 80.01180446744796,6.36635078841787,0 80.01186676968852,6.3662462583389985,0 80.0119238324203,6.366138810787631,0 80.01198070354629,6.366031256545993,0 80.01204010395348,6.365925110663171,0 80.01209243041949,6.3658150258559605,0 80.0121577595734,6.365712181228301,0 80.0122167541118,6.365605809348898,0 80.0122751433386,6.365499100418823,0 80.01233823880456,6.365395012025116,0 80.0124030168023,6.3652918605017055,0 80.01246376970936,6.365186467720225,0 80.01252709047571,6.365082504778685,0 80.01259069169224,6.364978697997893,0 80.01266149699951,6.364878902611583,0 80.0127228837498,6.364773862767807,0 80.01278723282924,6.364670472413355,0 80.0128411471663,6.364561271767305,0 80.01290201817818,6.364455944749165,0 80.01296594915465,6.364352321585877,0 80.01303359063552,6.364250764512185,0 80.01309556911788,6.36414605415771,0 80.01315722345717,6.364041163313314,0 80.01320969931982,6.363931161693407,0 80.01326668132721,6.3638236691929455,0 80.01332951589626,6.363719435526157,0 80.01338736588852,6.363612426338557,0 80.01345388416344,6.363510243839357,0 80.0135214038768,6.363408618962862,0 80.0135852723106,6.363304960974462,0 80.01364755199388,6.363200418335207,0 80.01370389262667,6.3630925687034114,0 80.01376675655284,6.362988351383311,0 80.01381603892503,6.362876571558436,0 80.01387973588139,6.362772818087666,0 80.01394650134891,6.36267077323068,0 80.01400877962719,6.3625662298090875,0 80.01406947293349,6.362460803840612,0 80.01413810337955,6.362359797444257,0 80.01420771036014,6.362259334803566,0 80.01427388879274,6.362156963072772,0 80.01433413684633,6.3620512891778915,0 80.01439769401317,6.3619474578692845,0 80.01445618186577,6.361840803856202,0 80.01451438070988,6.361733988916897,0 80.01458069652327,6.361631693682701,0 80.01464668536607,6.361529216384177,0 80.014702819239,6.361421251623996,0 80.01475892376416,6.361313270522332,0 80.0148212987368,6.361208780942267,0 80.0148770317912,6.3611005929976,0 80.01492309193029,6.360987018963218,0 80.01498457194437,6.360882031050759,0 80.01504428431244,6.360776058874532,0 80.01510613658051,6.3606712782411785,0 80.01516873788866,6.36056691468965,0 80.0152254183671,6.360459254291306,0 80.015281043272,6.36035100612665,0 80.01533630584039,6.360242556205148,0 80.01539537148314,6.360136223918178,0 80.01544722725026,6.360025877015601,0 80.01550221096949,6.359917271824806,0 80.01555381732351,6.359806786043579,0 80.01561370976063,6.359700914133719,0 80.01565994499028,6.359587437593571,0 80.01571360146191,6.359478093362439,0 80.01577059488102,6.35937060721627,0 80.01582966286288,6.359264276231786,0 80.01588118131393,6.359153741504275,0 80.0159344492249,6.359044180914106,0 80.0159932640473,6.358937708964919,0 80.01604348053755,6.358826449277305,0 80.0160968740635,6.358716958632303,0 80.0161548158207,6.358610000541416,0 80.01620558739461,6.358499049936453,0 80.01625093713787,6.358385080338225,0 80.0163018629571,6.358274215620426,0 80.01634175412653,6.358157206569503,0 80.01636772884457,6.358032448535656,0 80.01639423530666,6.357907986588459,0 80.01640033697997,6.3577721628108925,0 80.0164110354435,6.357638898626137,0 80.01641691693352,6.35750295224573,0 80.0163608489264,6.357332511037362,0 80.01634496874527,6.35718444728494,0</coordinates>
      </LineString>
    </Placemark>
    
    <Placemark>
      <name>Current Shoreline (Reference)</name>
      <styleUrl>#whiteLine</styleUrl>
      <LineString><tessellate>1</tessellate>
        <coordinates>80.01089495606534,6.367840831745068,0 80.01123468298192,6.367380747637505,0 80.01147555684533,6.367037130177167,0 80.01167713335592,6.366732190245781,0 80.0118765249622,6.366405212194404,0 80.01202252558642,6.366021331327053,0 80.01223391745788,6.365713792859998,0 80.0124613106721,6.365325714288254,0 80.0126828758903,6.364970377184564,0 80.01291582137725,6.364614899811569,0 80.01309593848768,6.36425857965996,0 80.01330079420875,6.363913318712918,0 80.01354926542416,6.363528715264485,0 80.01398146263446,6.36281213250644,0 80.01425817964753,6.362292880061967,0 80.01452187178656,6.361854319693663,0 80.01487228586414,6.361176861056349,0 80.0152686961614,6.360478250832422,0 80.0156470229415,6.359872832354955,0 80.01578111750139,6.359407814713297,0 80.01605039760467,6.358805058525987,0 80.01614147802562,6.358459331534737,0 80.0164167715383,6.357734394787326,0 80.01641428627137,6.357436136598702,0 80.01633395971254,6.357240809683926,0</coordinates>
      </LineString>
    </Placemark>
  </Document>
</kml>