<?xml version="1.0" encoding="UTF-8"?>
<kml xmlns="http://www.opengis.net/kml/2.2">
  <Document>
    <name>Forecast 2026-07-23</name>
    <Style id="redLine"><LineStyle><color>ff0000ff</color><width>3</width></LineStyle></Style>
    <Style id="whiteLine"><LineStyle><color>ffffffff</color><width>2</width></LineStyle></Style>
    <Placemark>
      <name>Forecast 2026-07-23</name>
      <styleUrl>#redLine</styleUrl>
      <LineString><tessellate>1</tessellate>
        <coordinates>80.01070132500304,6.367824854532075,0 80.01078168626334,6.36773038010834,0 80.01088516017508,6.367648775311816,0 80.01097795144298,6.367561222186776,0 80.01105486300482,6.367464826895867,0 80.01112587240054,6.36736514515044,0 80.01117447574143,6.367252987226165,0 80.01125449215056,6.367158320781785,0 80.01132041567303,6.3670558071114804,0 80.01139434697212,6.366957752345435,0 80.0114414290951,6.366844747373912,0 80.01151887976766,6.366748652271595,0 80.01158262257839,6.366644924333533,0 80.0116518580378,6.3665442548217746,0 80.01173900610998,6.36645355944257,0 80.01180755194466,6.366352505932745,0 80.01186606467131,6.3662458657700745,0 80.0119038919891,6.3661277075216685,0 80.01198087203733,6.366031350365473,0 80.0120317464809,6.365920457040588,0 80.0120876508036,6.365812364461827,0 80.01214887120882,6.365707231993511,0 80.01220885538156,6.365601411164036,0 80.0122906770384,6.365507749920861,0 80.0123450479266,6.365398803492429,0 80.01240120885346,6.365290853796454,0 80.0124595844671,6.365184137286274,0 80.01251078592772,6.365073426051595,0 80.0125670848377,6.3649655531876315,0 80.01263821727152,6.364865939952495,0 80.01268646537028,6.364753584221668,0 80.01276972072382,6.364660721292021,0 80.01283602877417,6.364558421735202,0 80.01288928143997,6.364448852656193,0 80.01296366946671,6.364351052206035,0 80.01303320848352,6.364250551721644,0 80.01310457042959,6.3641510662839265,0 80.01314098288675,6.364032120210329,0 80.01320083803985,6.363926227539918,0 80.01326538372928,6.363822946662184,0 80.0133397884618,6.3637251555141745,0 80.01339398604067,6.36361611258332,0 80.01348040491105,6.363525011168684,0 80.01353731845082,6.363417480543955,0 80.01358913159082,6.363307109905664,0 80.01364188887216,6.363197264985809,0 80.01370635305213,6.363093938721841,0 80.01377343894299,6.3629920722835465,0 80.01382861210952,6.362883572581136,0 80.01389605534544,6.362781905120339,0 80.01394696041997,6.362671028851432,0 80.01401168904319,6.36256784983522,0 80.01407637525894,6.362464647205605,0 80.01415524792783,6.3623693439017845,0 80.01421884825886,6.362265536627928,0 80.01427855931644,6.362159563721984,0 80.01434265816032,6.362056034030933,0 80.0144017237209,6.361949701698227,0 80.0144555156765,6.36184043290752,0 80.01452988018092,6.361742619359612,0 80.01459571477325,6.361640056171071,0 80.01465245242997,6.361532427610841,0 80.0147210268392,6.36143139001196,0 80.01478890927905,6.361329967109472,0 80.01484385222199,6.3612213392135475,0 80.01490313750736,6.361115129228382,0 80.01496323226334,6.361009369974068,0 80.01502161188756,6.360902655697071,0 80.01508709959624,6.3607998993561585,0 80.01514825180517,6.360694728914648,0 80.01520572389065,6.360587509300324,0 80.01526083545393,6.360478975295883,0 80.01531678390721,6.360370907290008,0 80.01537661204324,6.360264999575903,0 80.01544352839964,6.360163038737121,0 80.01549602056873,6.360053046197,0 80.01556314823543,6.359951203020398,0 80.01560833197777,6.359837140989246,0 80.01566918235501,6.359731802481287,0 80.01572461837083,6.359623449139068,0 80.01577783182756,6.359513858227607,0 80.01582752285937,6.3594023059532985,0 80.01588850183003,6.359297039048958,0 80.01593979997834,6.359186381652087,0 80.01597825643141,6.359068573719881,0 80.01603762562152,6.358962410454698,0 80.01609619078737,6.358855799491309,0 80.01614812957904,6.358745498818608,0 80.01621114682759,6.358641366871741,0 80.01625040297118,6.358524004224619,0 80.01629223753136,6.35840807729596,0 80.01632689836487,6.358288155880206,0 80.0163631117882,6.358169098980236,0 80.01639106827737,6.358045444439675,0 80.01641982802323,6.357922237169907,0 80.01642065583118,6.357783476789362,0 80.0164410668563,6.3576556207702355,0 80.01641482299897,6.357501786297403,0 80.01637719590909,6.357341613393011,0 80.01635150029598,6.357188084194497,0</coordinates>
      </LineString>
    </Placemark>
    
    <Placemark>
      <name>Current Shoreline (Reference)</name>
      <styleUrl>#whiteLine</styleUrl>
      <LineString><tessellate>1</tessellate>
        <coordinates>80.01089495606534,6.367840831745068,0 80.01123468298192,6.367380747637505,0 80.01147555684533,6.367037130177167,0 80.01167713335592,6.366732190245781,0 80.0118765249622,6.366405212194404,0 80.01202252558642,6.366021331327053,0 80.01223391745788,6.365713792859998,0 80.0124613106721,6.365325714288254,0 80.0126828758903,6.364970377184564,0 80.01291582137725,6.364614899811569,0 80.01309593848768,6.36425857965996,0 80.01330079420875,6.363913318712918,0 80.01354926542416,6.363528715264485,0 80.01398146263446,6.36281213250644,0 80.01425817964753,6.362292880061967,0 80.01452187178656,6.361854319693663,0 80.01487228586414,6.361176861056349,0 80.0152686961614,6.360478250832422,0 80.0156470229415,6.359872832354955,0 80.01578111750139,6.359407814713297,0 80.01605039760467,6.358805058525987,0 80.01614147802562,6.358459331534737,0 80.0164167715383,6.357734394787326,0 80.01641428627137,6.357436136598702,0 80.01633395971254,6.357240809683926,0</coordinates>
      </LineString>
    </Placemark>
  </Document>
</kml>