<?xml version="1.0" encoding="UTF-8"?>
<kml xmlns="http://www.opengis.net/kml/2.2">
  <Document>
    <name>Forecast 2026-10-01</name>
    <Style id="redLine"><LineStyle><color>ff0000ff</color><width>3</width></LineStyle></Style>
    <Style id="whiteLine"><LineStyle><color>ffffffff</color><width>2</width></LineStyle></Style>
    <Placemark>
      <name>Forecast 2026-10-01</name>
      <styleUrl>#redLine</styleUrl>
      <LineString><tessellate>1</tessellate>
        <coordinates>80.01072827502276,6.3678398608894495,0 80.01080605893029,6.367743951339606,0 80.01092554579438,6.367671262903384,0 80.01100882859066,6.367578415254449,0 80.01108372585546,6.3674808983591245,0 80.01115953960658,6.3673838917833185,0 80.01122958274073,6.367283672002431,0 80.01128777060369,6.367176850948587,0 80.01135255988595,6.367073705708647,0 80.0114199569849,6.366972012557789,0 80.01148803713926,6.3668706997470315,0 80.01155630078685,6.366769489109307,0 80.01161439585098,6.366662616383059,0 80.01167552756888,6.366557434531706,0 80.01173421799818,6.366450893317733,0 80.01179341788043,6.366344635778246,0 80.0118551635125,6.366239795767654,0 80.01191318318736,6.36613288106302,0 80.01197151003963,6.36602613740145,0 80.01203797638051,6.365923925984245,0 80.01209802808168,6.365818142756065,0 80.0121599958676,6.365713426445575,0 80.01222608973178,6.365611007625238,0 80.0122910904542,6.365507980119777,0 80.01234811561721,6.365400511649307,0 80.0124100222851,6.365295761306953,0 80.01246723714293,6.365188398462688,0 80.01252160606862,6.365079450941475,0 80.01258977794852,6.36497818920551,0 80.01265707616791,6.364876440996361,0 80.0127200872825,6.364772305633964,0 80.01278551306076,6.364669514808849,0 80.01283454582617,6.364557595997486,0 80.01290087338487,6.364455307303338,0 80.0129637239248,6.364351082529482,0 80.01302902954467,6.36424822479756,0 80.01308856484017,6.36414215402348,0 80.01314466364411,6.364034169736119,0 80.01320868551448,6.363930597184546,0 80.01326831351949,6.3638245780331175,0 80.01333103426116,6.363720280984774,0 80.01339463059308,6.363616471484129,0 80.01346479109391,6.363516317055561,0 80.01352743958996,6.363411979779289,0 80.01359308864856,6.363309313281509,0 80.01365219669285,6.36320300460465,0 80.01371482167959,6.363098654237878,0 80.01376795431531,6.36298901832352,0 80.01382215784862,6.36287997870823,0 80.01388751083954,6.362777147353535,0 80.01395382721485,6.362674852432234,0 80.01401482429033,6.362569595609048,0 80.01407354219695,6.362463069695052,0 80.01413355147795,6.362357262846409,0 80.01420205654621,6.362256186636953,0 80.01426633538505,6.362152757171012,0 80.01432322551138,6.362045213509179,0 80.0143879808327,6.361942049359046,0 80.01445220436541,6.361838589097457,0 80.01451907951554,6.36173660531412,0 80.0145856690862,6.3616344625139405,0 80.01464976609462,6.361530931800863,0 80.01471176872248,6.3614262348911215,0 80.01477484229322,6.361322134305682,0 80.01483642454657,6.361217203322257,0 80.01489419808414,6.361110151563018,0 80.01494558317866,6.360999542579696,0 80.01500726653352,6.3608946678918,0 80.01506346666599,6.360786740026374,0 80.01512135304252,6.360679751098317,0 80.01518589624357,6.360576468835005,0 80.01523843245234,6.360466500817135,0 80.01529236018905,6.360357307632311,0 80.0153495942672,6.360249955490331,0 80.01540826743373,6.36014340466407,0 80.0154634579067,6.360034914598266,0 80.0155180345886,6.35992608276023,0 80.01557718074567,6.3598197953053965,0 80.01563778253227,6.359714318376765,0 80.01569108192403,6.359604775315781,0 80.01574681400338,6.359496586828189,0 80.01580528377802,6.359389922748908,0 80.01585979429406,6.359281054068288,0 80.0159202095821,6.359175473293196,0 80.0159705596064,6.35906428796024,0 80.01601875579026,6.358951903322065,0 80.01606831915288,6.358840279958781,0 80.01612199522923,6.358730946643983,0 80.01617643186447,6.358622036824926,0 80.01623016054073,6.358512732798892,0 80.0162759112991,6.358398986494599,0 80.01632692970641,6.358288173331851,0 80.01636130304782,6.358168091834241,0 80.0163817003865,6.35804022819421,0 80.01640591745897,6.357914491465055,0 80.01641800913455,6.357782003051089,0 80.01642984658278,6.357649373077797,0 80.01642830856571,6.357509295354392,0 80.0163616051393,6.357332932113157,0 80.01635291469483,6.357188871762553,0</coordinates>
      </LineString>
    </Placemark>
    
    <Placemark>
      <name>Current Shoreline (Reference)</name>
      <styleUrl>#whiteLine</styleUrl>
      <LineString><tessellate>1</tessellate>
        <coordinates>80.01089495606534,6.367840831745068,0 80.01123468298192,6.367380747637505,0 80.01147555684533,6.367037130177167,0 80.01167713335592,6.366732190245781,0 80.0118765249622,6.366405212194404,0 80.01202252558642,6.366021331327053,0 80.01223391745788,6.365713792859998,0 80.0124613106721,6.365325714288254,0 80.0126828758903,6.364970377184564,0 80.01291582137725,6.364614899811569,0 80.01309593848768,6.36425857965996,0 80.01330079420875,6.363913318712918,0 80.01354926542416,6.363528715264485,0 80.01398146263446,6.36281213250644,0 80.01425817964753,6.362292880061967,0 80.01452187178656,6.361854319693663,0 80.01487228586414,6.361176861056349,0 80.0152686961614,6.360478250832422,0 80.0156470229415,6.359872832354955,0 80.01578111750139,6.359407814713297,0 80.01605039760467,6.358805058525987,0 80.01614147802562,6.358459331534737,0 80.0164167715383,6.357734394787326,0 80.01641428627137,6.357436136598702,0 80.01633395971254,6.357240809683926,0</coordinates>
      </LineString>
    </Placemark>
  </Document>
</kml>