<?xml version="1.0" encoding="UTF-8"?>
<kml xmlns="http://www.opengis.net/kml/2.2">
  <Document>
    <name>Forecast 2026-08-23</name>
    <Style id="redLine"><LineStyle><color>ff0000ff</color><width>3</width></LineStyle></Style>
    <Style id="whiteLine"><LineStyle><color>ffffffff</color><width>2</width></LineStyle></Style>
    <Placemark>
      <name>Forecast 2026-08-23</name>
      <styleUrl>#redLine</styleUrl>
      <LineString><tessellate>1</tessellate>
        <coordinates>80.01072861554758,6.367840050501076,0 80.01080605893029,6.367743951339606,0 80.01092237026175,6.367669494697725,0 80.0110118395424,6.3675800918178895,0 80.01108596970818,6.367482147785136,0 80.01115954129004,6.367383892720704,0 80.0112295852475,6.367283673398255,0 80.01128777060369,6.367176850948587,0 80.01135255988595,6.367073705708647,0 80.0114199569849,6.366972012557789,0 80.0114879616797,6.36687065772951,0 80.01155630222345,6.366769489909244,0 80.01161439610104,6.366662616522295,0 80.01167505649275,6.366557172226264,0 80.01173421799818,6.366450893317733,0 80.01179341788043,6.366344635778246,0 80.01185369779625,6.366238979624959,0 80.0119119505538,6.36613219470583,0 80.01197212910114,6.366026482108366,0 80.01203194149511,6.365920565628743,0 80.01209605686526,6.365817045139875,0 80.01216412505552,6.365715725667256,0 80.01222627381834,6.365611110128641,0 80.0122900729318,6.36550741354117,0 80.01234614771417,6.365399415878076,0 80.01240941505232,6.3652954231865335,0 80.0124670136711,6.365188274028707,0 80.01252173149786,6.3650795207832065,0 80.01258977794852,6.36497818920551,0 80.01265707616791,6.364876440996361,0 80.0127200872825,6.364772305633964,0 80.01278551306076,6.364669514808849,0 80.01283454582617,6.364557595997486,0 80.01290087338487,6.364455307303338,0 80.0129637239248,6.364351082529482,0 80.0130289238085,6.364248165921363,0 80.01308856484017,6.36414215402348,0 80.01314466364411,6.364034169736119,0 80.01320672895935,6.363929507732073,0 80.01327061596551,6.3638258600851625,0 80.0133308427819,6.363720174364952,0 80.01339463059308,6.363616471484129,0 80.01346479109391,6.363516317055561,0 80.01352743958996,6.363411979779289,0 80.01359197333885,6.363308692252794,0 80.01365219669285,6.36320300460465,0 80.01371482167959,6.363098654237878,0 80.01376795431531,6.36298901832352,0 80.01382215784862,6.36287997870823,0 80.01388751083954,6.362777147353535,0 80.01395382721485,6.362674852432234,0 80.01401482429033,6.362569595609048,0 80.01407354219695,6.362463069695052,0 80.01413355147795,6.362357262846409,0 80.01420205654621,6.362256186636953,0 80.01426738226428,6.362153340096146,0 80.0143235934947,6.3620454184102915,0 80.01438811492581,6.361942124025014,0 80.01445227546428,6.3618386286868525,0 80.01451907951554,6.36173660531412,0 80.0145856690862,6.3616344625139405,0 80.01465093954454,6.361531585203309,0 80.01471176872248,6.3614262348911215,0 80.01477484229322,6.361322134305682,0 80.01483642454657,6.361217203322257,0 80.01489419808414,6.361110151563018,0 80.01494558317866,6.360999542579696,0 80.01500899308132,6.360895629271186,0 80.01506543495918,6.360787836014851,0 80.01512258285358,6.360680435883872,0 80.01518557672529,6.360576290920279,0 80.01523843245234,6.360466500817135,0 80.01529367238538,6.360358038291778,0 80.01534932255525,6.360249804195207,0 80.01540719987653,6.360142810224994,0 80.01546308056871,6.360034704488258,0 80.0155180345886,6.35992608276023,0 80.01557732636856,6.359819876391395,0 80.01563794118321,6.359714406717065,0 80.01569067989811,6.359604551459008,0 80.01574721368124,6.359496809377517,0 80.01580535397223,6.35938996183457,0 80.01585979429406,6.359281054068288,0 80.01591689084047,6.359173625345642,0 80.01596825411949,6.359063004214963,0 80.01601756588992,6.3589512407596676,0 80.0160718546231,6.358842248585531,0 80.01612318482833,6.3587316090386485,0 80.01617607663448,6.358621839025134,0 80.01622991378406,6.358512595399407,0 80.0162757387979,6.358398890442178,0 80.01632750438263,6.358288493324075,0 80.01636152080232,6.358168213084687,0 80.0163816956665,6.358040225566003,0 80.01640660029469,6.357914871682835,0 80.01641800913455,6.357782003051089,0 80.01642984658278,6.357649373077797,0 80.01642830856571,6.357509295354392,0 80.0163616051393,6.357332932113157,0 80.01635291469483,6.357188871762553,0</coordinates>
      </LineString>
    </Placemark>
    
    <Placemark>
      <name>Current Shoreline (Reference)</name>
      <styleUrl>#whiteLine</styleUrl>
      <LineString><tessellate>1</tessellate>
        <coordinates>80.01089495606534,6.367840831745068,0 80.01123468298192,6.367380747637505,0 80.01147555684533,6.367037130177167,0 80.01167713335592,6.366732190245781,0 80.0118765249622,6.366405212194404,0 80.01202252558642,6.366021331327053,0 80.01223391745788,6.365713792859998,0 80.0124613106721,6.365325714288254,0 80.0126828758903,6.364970377184564,0 80.01291582137725,6.364614899811569,0 80.01309593848768,6.36425857965996,0 80.01330079420875,6.363913318712918,0 80.01354926542416,6.363528715264485,0 80.01398146263446,6.36281213250644,0 80.01425817964753,6.362292880061967,0 80.01452187178656,6.361854319693663,0 80.01487228586414,6.361176861056349,0 80.0152686961614,6.360478250832422,0 80.0156470229415,6.359872832354955,0 80.01578111750139,6.359407814713297,0 80.01605039760467,6.358805058525987,0 80.01614147802562,6.358459331534737,0 80.0164167715383,6.357734394787326,0 80.01641428627137,6.357436136598702,0 80.01633395971254,6.357240809683926,0</coordinates>
      </LineString>
    </Placemark>
  </Document>
</kml>