<?xml version="1.0" encoding="UTF-8"?>
<kml xmlns="http://www.opengis.net/kml/2.2">
  <Document>
    <name>Forecast 2026-05-22</name>
    <Style id="redLine"><LineStyle><color>ff0000ff</color><width>3</width></LineStyle></Style>
    <Style id="whiteLine"><LineStyle><color>ffffffff</color><width>2</width></LineStyle></Style>
    <Placemark>
      <name>Forecast 2026-05-22</name>
      <styleUrl>#redLine</styleUrl>
      <LineString><tessellate>1</tessellate>
        <coordinates>80.01073865637002,6.3678456414494935,0 80.01083522015746,6.3677601889454065,0 80.01092142021555,6.3676689656913235,0 80.01099995728579,6.36757347551887,0 80.01107977656703,6.367478699309398,0 80.01116275999044,6.367385684963125,0 80.01122594185533,6.367281644678216,0 80.01129088676849,6.367178586096953,0 80.01136442160075,6.3670803105695475,0 80.0114293856907,6.366977262666337,0 80.0114985334687,6.366876544331648,0 80.0115697422641,6.366776973616308,0 80.01163951519814,6.366676603382124,0 80.01170270506238,6.366572567551433,0 80.01177133647884,6.366471561695417,0 80.01183792224646,6.366369416777606,0 80.01189059678968,6.366259525787377,0 80.01194901141756,6.366152831001169,0 80.01200992993203,6.366047530433506,0 80.01207352421666,6.365943719792889,0 80.01214064990162,6.365841875512808,0 80.01220639606716,6.365739263086295,0 80.01226894914133,6.365634872677038,0 80.01232726663697,6.365528123805495,0 80.01238092410283,6.365418780127969,0 80.0124370665651,6.365310820150508,0 80.01249345192427,6.365202995423342,0 80.01254925184803,6.3650948447129885,0 80.01260384254552,6.364986020679146,0 80.01266221270463,6.364879301131769,0 80.01272679826661,6.364776042455936,0 80.01278774882609,6.364670759731631,0 80.01284925674533,6.364565787357364,0 80.01290827622019,6.3644594293631265,0 80.01296298643972,6.364350671881742,0 80.01302282548441,6.364244770241815,0 80.0130883189372,6.364142017099359,0 80.01315253814602,6.364038554430115,0 80.0132138531234,6.363933474621626,0 80.01328426460594,6.36383345994513,0 80.01334407788902,6.363727543960573,0 80.0134135042446,6.363626980743961,0 80.0134851811656,6.363527670691146,0 80.01355060168594,6.363424876938298,0 80.0136088311979,6.36331807907552,0 80.01367106867679,6.363213512935939,0 80.01372821321301,6.363106110935074,0 80.01378566327212,6.362998879055988,0 80.01384737136638,6.362894018143531,0 80.01391075044758,6.3627900876729555,0 80.01397790667096,6.36268826039733,0 80.01404030412542,6.362583783335634,0 80.01410100882148,6.362478363709224,0 80.01416582561653,6.362375233789005,0 80.01423317233898,6.362273512587402,0 80.01429395778976,6.362168137926986,0 80.0143524704926,6.362061497751052,0 80.01441117488308,6.361954964310974,0 80.01447154264703,6.361849357073437,0 80.01452968006261,6.361742507929386,0 80.01459333534795,6.361638731255293,0 80.01465158867182,6.36153194665151,0 80.01471064836159,6.3614256110498015,0 80.01476915608137,6.361318968099196,0 80.01483119757282,6.3612142928295405,0 80.0148925531396,6.3611092356221155,0 80.01495094701906,6.361002529282737,0 80.01501054171919,6.360896491586446,0 80.01507165156411,6.360791297555739,0 80.01513146972947,6.36068538428974,0 80.01519056993696,6.360579071249182,0 80.01524965568525,6.360472750157431,0 80.0153076146643,6.36036580165604,0 80.01537102203311,6.360261886936629,0 80.01543680020535,6.360159292332145,0 80.01550144865121,6.360056068671432,0 80.01556515256719,6.3599523190759335,0 80.01562416570911,6.3598459575553745,0 80.01568021152613,6.359737943763746,0 80.01573832918271,6.359631083617457,0 80.01578889391642,6.359520017839377,0 80.01584114868861,6.359409893111499,0 80.01588845668782,6.359297013912786,0 80.01593979507436,6.359186378921439,0 80.01599425145328,6.359077480096086,0 80.01605081247911,6.358969753183932,0 80.01611061932459,6.358863833614784,0 80.01616377078606,6.358754208183013,0 80.01621125181246,6.358641425329602,0 80.0162635698833,6.358531335847775,0 80.01630662468975,6.3584160883788,0 80.01635378310527,6.358303125888637,0 80.01638985786167,6.358183991775908,0 80.01642423932869,6.358063914802811,0 80.01645654031263,6.357942679371459,0 80.01647491088407,6.357813687183329,0 80.01647791758063,6.357676140055361,0 80.01645677147152,6.357525144119669,0 80.01638962291052,6.3573485330178094,0 80.01636480341122,6.357195491658522,0</coordinates>
      </LineString>
    </Placemark>
    
    <Placemark>
      <name>Current Shoreline (Reference)</name>
      <styleUrl>#whiteLine</styleUrl>
      <LineString><tessellate>1</tessellate>
        <coordinates>80.01089495606534,6.367840831745068,0 80.01123468298192,6.367380747637505,0 80.01147555684533,6.367037130177167,0 80.01167713335592,6.366732190245781,0 80.0118765249622,6.366405212194404,0 80.01202252558642,6.366021331327053,0 80.01223391745788,6.365713792859998,0 80.0124613106721,6.365325714288254,0 80.0126828758903,6.364970377184564,0 80.01291582137725,6.364614899811569,0 80.01309593848768,6.36425857965996,0 80.01330079420875,6.363913318712918,0 80.01354926542416,6.363528715264485,0 80.01398146263446,6.36281213250644,0 80.01425817964753,6.362292880061967,0 80.01452187178656,6.361854319693663,0 80.01487228586414,6.361176861056349,0 80.0152686961614,6.360478250832422,0 80.0156470229415,6.359872832354955,0 80.01578111750139,6.359407814713297,0 80.01605039760467,6.358805058525987,0 80.01614147802562,6.358459331534737,0 80.0164167715383,6.357734394787326,0 80.01641428627137,6.357436136598702,0 80.01633395971254,6.357240809683926,0</coordinates>
      </LineString>
    </Placemark>
  </Document>
</kml>