<?xml version="1.0" encoding="UTF-8"?>
<kml xmlns="http://www.opengis.net/kml/2.2">
  <Document>
    <name>30-day Risk Zones</name>
    
    <Style id="risk0">
      <LineStyle><color>ff00ff00</color><width>4</width></LineStyle>
    </Style>

    <Style id="risk1">
      <LineStyle><color>ff00ffff</color><width>4</width></LineStyle>
    </Style>

    <Style id="risk2">
      <LineStyle><color>ff0000ff</color><width>4</width></LineStyle>
    </Style>
    
    <Placemark>
      <name>Transect 0 Risk 2</name>
      <styleUrl>#risk2</styleUrl>
      <LineString><tessellate>1</tessellate>
        <coordinates>80.01085592020883,6.367910936506444,0 80.01091974838118,6.367807256099601,0</coordinates>
      </LineString>
    </Placemark>

    <Placemark>
      <name>Transect 1 Risk 2</name>
      <styleUrl>#risk2</styleUrl>
      <LineString><tessellate>1</tessellate>
        <coordinates>80.01091974838118,6.367807256099601,0 80.01099259724535,6.3677085986102355,0</coordinates>
      </LineString>
    </Placemark>

    <Placemark>
      <name>Transect 2 Risk 2</name>
      <styleUrl>#risk2</styleUrl>
      <LineString><tessellate>1</tessellate>
        <coordinates>80.01099259724535,6.3677085986102355,0 80.01106544610953,6.367609941120871,0</coordinates>
      </LineString>
    </Placemark>

    <Placemark>
      <name>Transect 3 Risk 2</name>
      <styleUrl>#risk2</styleUrl>
      <LineString><tessellate>1</tessellate>
        <coordinates>80.01106544610953,6.367609941120871,0 80.01113829497369,6.367511283631506,0</coordinates>
      </LineString>
    </Placemark>

    <Placemark>
      <name>Transect 4 Risk 2</name>
      <styleUrl>#risk2</styleUrl>
      <LineString><tessellate>1</tessellate>
        <coordinates>80.01113829497369,6.367511283631506,0 80.01121114383787,6.367412626142142,0</coordinates>
      </LineString>
    </Placemark>

    <Placemark>
      <name>Transect 5 Risk 2</name>
      <styleUrl>#risk2</styleUrl>
      <LineString><tessellate>1</tessellate>
        <coordinates>80.01121114383787,6.367412626142142,0 80.01128219597899,6.367312968198287,0</coordinates>
      </LineString>
    </Placemark>

    <Placemark>
      <name>Transect 6 Risk 2</name>
      <styleUrl>#risk2</styleUrl>
      <LineString><tessellate>1</tessellate>
        <coordinates>80.01128219597899,6.367312968198287,0 80.01135239041248,6.3672128326641655,0</coordinates>
      </LineString>
    </Placemark>

    <Placemark>
      <name>Transect 7 Risk 2</name>
      <styleUrl>#risk2</styleUrl>
      <LineString><tessellate>1</tessellate>
        <coordinates>80.01135239041248,6.3672128326641655,0 80.01142258484597,6.367112697130044,0</coordinates>
      </LineString>
    </Placemark>

    <Placemark>
      <name>Transect 8 Risk 2</name>
      <styleUrl>#risk2</styleUrl>
      <LineString><tessellate>1</tessellate>
        <coordinates>80.01142258484597,6.367112697130044,0 80.01149206170554,6.367012162035148,0</coordinates>
      </LineString>
    </Placemark>

    <Placemark>
      <name>Transect 9 Risk 2</name>
      <styleUrl>#risk2</styleUrl>
      <LineString><tessellate>1</tessellate>
        <coordinates>80.01149206170554,6.367012162035148,0 80.01155933148307,6.366910397988937,0</coordinates>
      </LineString>
    </Placemark>

    <Placemark>
      <name>Transect 10 Risk 2</name>
      <styleUrl>#risk2</styleUrl>
      <LineString><tessellate>1</tessellate>
        <coordinates>80.01155933148307,6.366910397988937,0 80.01162660126057,6.366808633942727,0</coordinates>
      </LineString>
    </Placemark>

    <Placemark>
      <name>Transect 11 Risk 2</name>
      <styleUrl>#risk2</styleUrl>
      <LineString><tessellate>1</tessellate>
        <coordinates>80.01162660126057,6.366808633942727,0 80.01169290257674,6.366706330636171,0</coordinates>
      </LineString>
    </Placemark>

    <Placemark>
      <name>Transect 12 Risk 2</name>
      <styleUrl>#risk2</styleUrl>
      <LineString><tessellate>1</tessellate>
        <coordinates>80.01169290257674,6.366706330636171,0 80.01175628004837,6.366602399269351,0</coordinates>
      </LineString>
    </Placemark>

    <Placemark>
      <name>Transect 13 Risk 2</name>
      <styleUrl>#risk2</styleUrl>
      <LineString><tessellate>1</tessellate>
        <coordinates>80.01175628004837,6.366602399269351,0 80.01181965752,6.366498467902533,0</coordinates>
      </LineString>
    </Placemark>

    <Placemark>
      <name>Transect 14 Risk 2</name>
      <styleUrl>#risk2</styleUrl>
      <LineString><tessellate>1</tessellate>
        <coordinates>80.01181965752,6.366498467902533,0 80.01188101334714,6.366393410840072,0</coordinates>
      </LineString>
    </Placemark>

    <Placemark>
      <name>Transect 15 Risk 2</name>
      <styleUrl>#risk2</styleUrl>
      <LineString><tessellate>1</tessellate>
        <coordinates>80.01188101334714,6.366393410840072,0 80.01192470938443,6.366278520422378,0</coordinates>
      </LineString>
    </Placemark>

    <Placemark>
      <name>Transect 16 Risk 2</name>
      <styleUrl>#risk2</styleUrl>
      <LineString><tessellate>1</tessellate>
        <coordinates>80.01192470938443,6.366278520422378,0 80.01196840542174,6.366163630004685,0</coordinates>
      </LineString>
    </Placemark>

    <Placemark>
      <name>Transect 17 Risk 2</name>
      <styleUrl>#risk2</styleUrl>
      <LineString><tessellate>1</tessellate>
        <coordinates>80.01196840542174,6.366163630004685,0 80.01201210145904,6.366048739586992,0</coordinates>
      </LineString>
    </Placemark>

    <Placemark>
      <name>Transect 18 Risk 2</name>
      <styleUrl>#risk2</styleUrl>
      <LineString><tessellate>1</tessellate>
        <coordinates>80.01201210145904,6.366048739586992,0 80.01207522301402,6.365944665720221,0</coordinates>
      </LineString>
    </Placemark>

    <Placemark>
      <name>Transect 19 Risk 2</name>
      <styleUrl>#risk2</styleUrl>
      <LineString><tessellate>1</tessellate>
        <coordinates>80.01207522301402,6.365944665720221,0 80.0121444306059,6.365843980691207,0</coordinates>
      </LineString>
    </Placemark>

    <Placemark>
      <name>Transect 20 Risk 2</name>
      <styleUrl>#risk2</styleUrl>
      <LineString><tessellate>1</tessellate>
        <coordinates>80.0121444306059,6.365843980691207,0 80.01221363819776,6.365743295662194,0</coordinates>
      </LineString>
    </Placemark>

    <Placemark>
      <name>Transect 21 Risk 2</name>
      <styleUrl>#risk2</styleUrl>
      <LineString><tessellate>1</tessellate>
        <coordinates>80.01221363819776,6.365743295662194,0 80.01227740241835,6.3656395796456176,0</coordinates>
      </LineString>
    </Placemark>

    <Placemark>
      <name>Transect 22 Risk 2</name>
      <styleUrl>#risk2</styleUrl>
      <LineString><tessellate>1</tessellate>
        <coordinates>80.01227740241835,6.3656395796456176,0 80.01233891053215,6.3655346073796855,0</coordinates>
      </LineString>
    </Placemark>

    <Placemark>
      <name>Transect 23 Risk 2</name>
      <styleUrl>#risk2</styleUrl>
      <LineString><tessellate>1</tessellate>
        <coordinates>80.01233891053215,6.3655346073796855,0 80.01240041864595,6.365429635113753,0</coordinates>
      </LineString>
    </Placemark>

    <Placemark>
      <name>Transect 24 Risk 2</name>
      <styleUrl>#risk2</styleUrl>
      <LineString><tessellate>1</tessellate>
        <coordinates>80.01240041864595,6.365429635113753,0 80.0124619560966,6.365324679183214,0</coordinates>
      </LineString>
    </Placemark>

    <Placemark>
      <name>Transect 25 Risk 2</name>
      <styleUrl>#risk2</styleUrl>
      <LineString><tessellate>1</tessellate>
        <coordinates>80.0124619560966,6.365324679183214,0 80.01252639310188,6.36522133778779,0</coordinates>
      </LineString>
    </Placemark>

    <Placemark>
      <name>Transect 26 Risk 2</name>
      <styleUrl>#risk2</styleUrl>
      <LineString><tessellate>1</tessellate>
        <coordinates>80.01252639310188,6.36522133778779,0 80.01259083010716,6.365117996392365,0</coordinates>
      </LineString>
    </Placemark>

    <Placemark>
      <name>Transect 27 Risk 2</name>
      <styleUrl>#risk2</styleUrl>
      <LineString><tessellate>1</tessellate>
        <coordinates>80.01259083010716,6.365117996392365,0 80.01265526711244,6.36501465499694,0</coordinates>
      </LineString>
    </Placemark>

    <Placemark>
      <name>Transect 28 Risk 2</name>
      <styleUrl>#risk2</styleUrl>
      <LineString><tessellate>1</tessellate>
        <coordinates>80.01265526711244,6.36501465499694,0 80.01272107883362,6.364912079073236,0</coordinates>
      </LineString>
    </Placemark>

    <Placemark>
      <name>Transect 29 Risk 2</name>
      <styleUrl>#risk2</styleUrl>
      <LineString><tessellate>1</tessellate>
        <coordinates>80.01272107883362,6.364912079073236,0 80.01278792112913,6.3648100769957425,0</coordinates>
      </LineString>
    </Placemark>

    <Placemark>
      <name>Transect 30 Risk 2</name>
      <styleUrl>#risk2</styleUrl>
      <LineString><tessellate>1</tessellate>
        <coordinates>80.01278792112913,6.3648100769957425,0 80.01285476342463,6.364708074918249,0</coordinates>
      </LineString>
    </Placemark>

    <Placemark>
      <name>Transect 31 Risk 2</name>
      <styleUrl>#risk2</styleUrl>
      <LineString><tessellate>1</tessellate>
        <coordinates>80.01285476342463,6.364708074918249,0 80.01292057379776,6.364605498243924,0</coordinates>
      </LineString>
    </Placemark>

    <Placemark>
      <name>Transect 32 Risk 2</name>
      <styleUrl>#risk2</styleUrl>
      <LineString><tessellate>1</tessellate>
        <coordinates>80.01292057379776,6.364605498243924,0 80.01297549147854,6.364496856281493,0</coordinates>
      </LineString>
    </Placemark>

    <Placemark>
      <name>Transect 33 Risk 2</name>
      <styleUrl>#risk2</styleUrl>
      <LineString><tessellate>1</tessellate>
        <coordinates>80.01297549147854,6.364496856281493,0 80.01303040915934,6.364388214319062,0</coordinates>
      </LineString>
    </Placemark>

    <Placemark>
      <name>Transect 34 Risk 2</name>
      <styleUrl>#risk2</styleUrl>
      <LineString><tessellate>1</tessellate>
        <coordinates>80.01303040915934,6.364388214319062,0 80.01308532684013,6.36427957235663,0</coordinates>
      </LineString>
    </Placemark>

    <Placemark>
      <name>Transect 35 Risk 2</name>
      <styleUrl>#risk2</styleUrl>
      <LineString><tessellate>1</tessellate>
        <coordinates>80.01308532684013,6.36427957235663,0 80.01314603189802,6.364174152931697,0</coordinates>
      </LineString>
    </Placemark>

    <Placemark>
      <name>Transect 36 Risk 2</name>
      <styleUrl>#risk2</styleUrl>
      <LineString><tessellate>1</tessellate>
        <coordinates>80.01314603189802,6.364174152931697,0 80.01320812307878,6.36406950533014,0</coordinates>
      </LineString>
    </Placemark>

    <Placemark>
      <name>Transect 37 Risk 2</name>
      <styleUrl>#risk2</styleUrl>
      <LineString><tessellate>1</tessellate>
        <coordinates>80.01320812307878,6.36406950533014,0 80.01327021425955,6.363964857728583,0</coordinates>
      </LineString>
    </Placemark>

    <Placemark>
      <name>Transect 38 Risk 2</name>
      <styleUrl>#risk2</styleUrl>
      <LineString><tessellate>1</tessellate>
        <coordinates>80.01327021425955,6.363964857728583,0 80.01333436416651,6.363861356470555,0</coordinates>
      </LineString>
    </Placemark>

    <Placemark>
      <name>Transect 39 Risk 2</name>
      <styleUrl>#risk2</styleUrl>
      <LineString><tessellate>1</tessellate>
        <coordinates>80.01333436416651,6.363861356470555,0 80.01340051195606,6.363758967677038,0</coordinates>
      </LineString>
    </Placemark>

    <Placemark>
      <name>Transect 40 Risk 2</name>
      <styleUrl>#risk2</styleUrl>
      <LineString><tessellate>1</tessellate>
        <coordinates>80.01340051195606,6.363758967677038,0 80.01346665974562,6.363656578883521,0</coordinates>
      </LineString>
    </Placemark>

    <Placemark>
      <name>Transect 41 Risk 2</name>
      <styleUrl>#risk2</styleUrl>
      <LineString><tessellate>1</tessellate>
        <coordinates>80.01346665974562,6.363656578883521,0 80.01353280753517,6.363554190090005,0</coordinates>
      </LineString>
    </Placemark>

    <Placemark>
      <name>Transect 42 Risk 2</name>
      <styleUrl>#risk2</styleUrl>
      <LineString><tessellate>1</tessellate>
        <coordinates>80.01353280753517,6.363554190090005,0 80.01359648475866,6.363450425631547,0</coordinates>
      </LineString>
    </Placemark>

    <Placemark>
      <name>Transect 43 Risk 2</name>
      <styleUrl>#risk2</styleUrl>
      <LineString><tessellate>1</tessellate>
        <coordinates>80.01359648475866,6.363450425631547,0 80.01365934370115,6.363346205536418,0</coordinates>
      </LineString>
    </Placemark>

    <Placemark>
      <name>Transect 44 Risk 2</name>
      <styleUrl>#risk2</styleUrl>
      <LineString><tessellate>1</tessellate>
        <coordinates>80.01365934370115,6.363346205536418,0 80.01372220264363,6.363241985441289,0</coordinates>
      </LineString>
    </Placemark>

    <Placemark>
      <name>Transect 45 Risk 2</name>
      <styleUrl>#risk2</styleUrl>
      <LineString><tessellate>1</tessellate>
        <coordinates>80.01372220264363,6.363241985441289,0 80.0137850615861,6.363137765346162,0</coordinates>
      </LineString>
    </Placemark>

    <Placemark>
      <name>Transect 46 Risk 2</name>
      <styleUrl>#risk2</styleUrl>
      <LineString><tessellate>1</tessellate>
        <coordinates>80.0137850615861,6.363137765346162,0 80.01384792052859,6.3630335452510325,0</coordinates>
      </LineString>
    </Placemark>

    <Placemark>
      <name>Transect 47 Risk 2</name>
      <styleUrl>#risk2</styleUrl>
      <LineString><tessellate>1</tessellate>
        <coordinates>80.01384792052859,6.3630335452510325,0 80.01391077947108,6.362929325155903,0</coordinates>
      </LineString>
    </Placemark>

    <Placemark>
      <name>Transect 48 Risk 2</name>
      <styleUrl>#risk2</styleUrl>
      <LineString><tessellate>1</tessellate>
        <coordinates>80.01391077947108,6.362929325155903,0 80.01397363841356,6.362825105060775,0</coordinates>
      </LineString>
    </Placemark>

    <Placemark>
      <name>Transect 49 Risk 2</name>
      <styleUrl>#risk2</styleUrl>
      <LineString><tessellate>1</tessellate>
        <coordinates>80.01397363841356,6.362825105060775,0 80.0140315560278,6.362718133526564,0</coordinates>
      </LineString>
    </Placemark>

    <Placemark>
      <name>Transect 50 Risk 2</name>
      <styleUrl>#risk2</styleUrl>
      <LineString><tessellate>1</tessellate>
        <coordinates>80.0140315560278,6.362718133526564,0 80.01408877113928,6.362610770823531,0</coordinates>
      </LineString>
    </Placemark>

    <Placemark>
      <name>Transect 51 Risk 2</name>
      <styleUrl>#risk2</styleUrl>
      <LineString><tessellate>1</tessellate>
        <coordinates>80.01408877113928,6.362610770823531,0 80.01414598625077,6.3625034081204985,0</coordinates>
      </LineString>
    </Placemark>

    <Placemark>
      <name>Transect 52 Risk 2</name>
      <styleUrl>#risk2</styleUrl>
      <LineString><tessellate>1</tessellate>
        <coordinates>80.01414598625077,6.3625034081204985,0 80.01420320136224,6.3623960454174675,0</coordinates>
      </LineString>
    </Placemark>

    <Placemark>
      <name>Transect 53 Risk 2</name>
      <styleUrl>#risk2</styleUrl>
      <LineString><tessellate>1</tessellate>
        <coordinates>80.01420320136224,6.3623960454174675,0 80.01426063141463,6.3622888023982025,0</coordinates>
      </LineString>
    </Placemark>

    <Placemark>
      <name>Transect 54 Risk 2</name>
      <styleUrl>#risk2</styleUrl>
      <LineString><tessellate>1</tessellate>
        <coordinates>80.01426063141463,6.3622888023982025,0 80.0143233444353,6.362184501050635,0</coordinates>
      </LineString>
    </Placemark>

    <Placemark>
      <name>Transect 55 Risk 2</name>
      <styleUrl>#risk2</styleUrl>
      <LineString><tessellate>1</tessellate>
        <coordinates>80.0143233444353,6.362184501050635,0 80.01438605745597,6.362080199703067,0</coordinates>
      </LineString>
    </Placemark>

    <Placemark>
      <name>Transect 56 Risk 2</name>
      <styleUrl>#risk2</styleUrl>
      <LineString><tessellate>1</tessellate>
        <coordinates>80.01438605745597,6.362080199703067,0 80.01444877047663,6.3619758983554995,0</coordinates>
      </LineString>
    </Placemark>

    <Placemark>
      <name>Transect 57 Risk 2</name>
      <styleUrl>#risk2</styleUrl>
      <LineString><tessellate>1</tessellate>
        <coordinates>80.01444877047663,6.3619758983554995,0 80.0145114834973,6.361871597007932,0</coordinates>
      </LineString>
    </Placemark>

    <Placemark>
      <name>Transect 58 Risk 2</name>
      <styleUrl>#risk2</styleUrl>
      <LineString><tessellate>1</tessellate>
        <coordinates>80.0145114834973,6.361871597007932,0 80.01456851977437,6.361764134725998,0</coordinates>
      </LineString>
    </Placemark>

    <Placemark>
      <name>Transect 59 Risk 2</name>
      <styleUrl>#risk2</styleUrl>
      <LineString><tessellate>1</tessellate>
        <coordinates>80.01456851977437,6.361764134725998,0 80.01462442901928,6.361656044888042,0</coordinates>
      </LineString>
    </Placemark>

    <Placemark>
      <name>Transect 60 Risk 1</name>
      <styleUrl>#risk1</styleUrl>
      <LineString><tessellate>1</tessellate>
        <coordinates>80.01462442901928,6.361656044888042,0 80.01468033826417,6.361547955050083,0</coordinates>
      </LineString>
    </Placemark>

    <Placemark>
      <name>Transect 61 Risk 1</name>
      <styleUrl>#risk1</styleUrl>
      <LineString><tessellate>1</tessellate>
        <coordinates>80.01468033826417,6.361547955050083,0 80.01473624750908,6.361439865212126,0</coordinates>
      </LineString>
    </Placemark>

    <Placemark>
      <name>Transect 62 Risk 1</name>
      <styleUrl>#risk1</styleUrl>
      <LineString><tessellate>1</tessellate>
        <coordinates>80.01473624750908,6.361439865212126,0 80.01479215675397,6.361331775374167,0</coordinates>
      </LineString>
    </Placemark>

    <Placemark>
      <name>Transect 63 Risk 1</name>
      <styleUrl>#risk1</styleUrl>
      <LineString><tessellate>1</tessellate>
        <coordinates>80.01479215675397,6.361331775374167,0 80.01484806599889,6.361223685536209,0</coordinates>
      </LineString>
    </Placemark>

    <Placemark>
      <name>Transect 64 Risk 1</name>
      <styleUrl>#risk1</styleUrl>
      <LineString><tessellate>1</tessellate>
        <coordinates>80.01484806599889,6.361223685536209,0 80.01490631136967,6.361116896503975,0</coordinates>
      </LineString>
    </Placemark>

    <Placemark>
      <name>Transect 65 Risk 1</name>
      <styleUrl>#risk1</styleUrl>
      <LineString><tessellate>1</tessellate>
        <coordinates>80.01490631136967,6.361116896503975,0 80.01496634221732,6.361011101664108,0</coordinates>
      </LineString>
    </Placemark>

    <Placemark>
      <name>Transect 66 Risk 1</name>
      <styleUrl>#risk1</styleUrl>
      <LineString><tessellate>1</tessellate>
        <coordinates>80.01496634221732,6.361011101664108,0 80.01502637306497,6.360905306824242,0</coordinates>
      </LineString>
    </Placemark>

    <Placemark>
      <name>Transect 67 Risk 1</name>
      <styleUrl>#risk1</styleUrl>
      <LineString><tessellate>1</tessellate>
        <coordinates>80.01502637306497,6.360905306824242,0 80.0150864039126,6.360799511984375,0</coordinates>
      </LineString>
    </Placemark>

    <Placemark>
      <name>Transect 68 Risk 1</name>
      <styleUrl>#risk1</styleUrl>
      <LineString><tessellate>1</tessellate>
        <coordinates>80.0150864039126,6.360799511984375,0 80.01514643476027,6.360693717144508,0</coordinates>
      </LineString>
    </Placemark>

    <Placemark>
      <name>Transect 69 Risk 1</name>
      <styleUrl>#risk1</styleUrl>
      <LineString><tessellate>1</tessellate>
        <coordinates>80.01514643476027,6.360693717144508,0 80.01520646560792,6.360587922304641,0</coordinates>
      </LineString>
    </Placemark>

    <Placemark>
      <name>Transect 70 Risk 1</name>
      <styleUrl>#risk1</styleUrl>
      <LineString><tessellate>1</tessellate>
        <coordinates>80.01520646560792,6.360587922304641,0 80.01526649645557,6.360482127464774,0</coordinates>
      </LineString>
    </Placemark>

    <Placemark>
      <name>Transect 71 Risk 1</name>
      <styleUrl>#risk1</styleUrl>
      <LineString><tessellate>1</tessellate>
        <coordinates>80.01526649645557,6.360482127464774,0 80.01533087289377,6.360378752344278,0</coordinates>
      </LineString>
    </Placemark>

    <Placemark>
      <name>Transect 72 Risk 1</name>
      <styleUrl>#risk1</styleUrl>
      <LineString><tessellate>1</tessellate>
        <coordinates>80.01533087289377,6.360378752344278,0 80.01539541462388,6.360275469261924,0</coordinates>
      </LineString>
    </Placemark>

    <Placemark>
      <name>Transect 73 Risk 1</name>
      <styleUrl>#risk1</styleUrl>
      <LineString><tessellate>1</tessellate>
        <coordinates>80.01539541462388,6.360275469261924,0 80.01545995635402,6.360172186179571,0</coordinates>
      </LineString>
    </Placemark>

    <Placemark>
      <name>Transect 74 Risk 1</name>
      <styleUrl>#risk1</styleUrl>
      <LineString><tessellate>1</tessellate>
        <coordinates>80.01545995635402,6.360172186179571,0 80.01552449808415,6.360068903097217,0</coordinates>
      </LineString>
    </Placemark>

    <Placemark>
      <name>Transect 75 Risk 1</name>
      <styleUrl>#risk1</styleUrl>
      <LineString><tessellate>1</tessellate>
        <coordinates>80.01552449808415,6.360068903097217,0 80.01558903981426,6.3599656200148615,0</coordinates>
      </LineString>
    </Placemark>

    <Placemark>
      <name>Transect 76 Risk 1</name>
      <styleUrl>#risk1</styleUrl>
      <LineString><tessellate>1</tessellate>
        <coordinates>80.01558903981426,6.3599656200148615,0 80.01565053812315,6.359860642289339,0</coordinates>
      </LineString>
    </Placemark>

    <Placemark>
      <name>Transect 77 Risk 1</name>
      <styleUrl>#risk1</styleUrl>
      <LineString><tessellate>1</tessellate>
        <coordinates>80.01565053812315,6.359860642289339,0 80.01568513023207,6.359740682606235,0</coordinates>
      </LineString>
    </Placemark>

    <Placemark>
      <name>Transect 78 Risk 1</name>
      <styleUrl>#risk1</styleUrl>
      <LineString><tessellate>1</tessellate>
        <coordinates>80.01568513023207,6.359740682606235,0 80.015719722341,6.359620722923131,0</coordinates>
      </LineString>
    </Placemark>

    <Placemark>
      <name>Transect 79 Risk 0</name>
      <styleUrl>#risk0</styleUrl>
      <LineString><tessellate>1</tessellate>
        <coordinates>80.015719722341,6.359620722923131,0 80.01575431444992,6.3595007632400264,0</coordinates>
      </LineString>
    </Placemark>

    <Placemark>
      <name>Transect 80 Risk 0</name>
      <styleUrl>#risk0</styleUrl>
      <LineString><tessellate>1</tessellate>
        <coordinates>80.01575431444992,6.3595007632400264,0 80.01579233245756,6.359382711171877,0</coordinates>
      </LineString>
    </Placemark>

    <Placemark>
      <name>Transect 81 Risk 0</name>
      <styleUrl>#risk0</styleUrl>
      <LineString><tessellate>1</tessellate>
        <coordinates>80.01579233245756,6.359382711171877,0 80.0158421393807,6.359271223428376,0</coordinates>
      </LineString>
    </Placemark>

    <Placemark>
      <name>Transect 82 Risk 0</name>
      <styleUrl>#risk0</styleUrl>
      <LineString><tessellate>1</tessellate>
        <coordinates>80.0158421393807,6.359271223428376,0 80.01589194630381,6.359159735684874,0</coordinates>
      </LineString>
    </Placemark>

    <Placemark>
      <name>Transect 83 Risk 0</name>
      <styleUrl>#risk0</styleUrl>
      <LineString><tessellate>1</tessellate>
        <coordinates>80.01589194630381,6.359159735684874,0 80.01594175322695,6.359048247941372,0</coordinates>
      </LineString>
    </Placemark>

    <Placemark>
      <name>Transect 84 Risk 0</name>
      <styleUrl>#risk0</styleUrl>
      <LineString><tessellate>1</tessellate>
        <coordinates>80.01594175322695,6.359048247941372,0 80.01599156015007,6.35893676019787,0</coordinates>
      </LineString>
    </Placemark>

    <Placemark>
      <name>Transect 85 Risk 0</name>
      <styleUrl>#risk0</styleUrl>
      <LineString><tessellate>1</tessellate>
        <coordinates>80.01599156015007,6.35893676019787,0 80.0160413670732,6.358825272454369,0</coordinates>
      </LineString>
    </Placemark>

    <Placemark>
      <name>Transect 86 Risk 0</name>
      <styleUrl>#risk0</styleUrl>
      <LineString><tessellate>1</tessellate>
        <coordinates>80.0160413670732,6.358825272454369,0 80.01607658363089,6.35870566047793,0</coordinates>
      </LineString>
    </Placemark>

    <Placemark>
      <name>Transect 87 Risk 0</name>
      <styleUrl>#risk0</styleUrl>
      <LineString><tessellate>1</tessellate>
        <coordinates>80.01607658363089,6.35870566047793,0 80.01610856893764,6.358584249270654,0</coordinates>
      </LineString>
    </Placemark>

    <Placemark>
      <name>Transect 88 Risk 0</name>
      <styleUrl>#risk0</styleUrl>
      <LineString><tessellate>1</tessellate>
        <coordinates>80.01610856893764,6.358584249270654,0 80.01614055424439,6.358462838063378,0</coordinates>
      </LineString>
    </Placemark>

    <Placemark>
      <name>Transect 89 Risk 0</name>
      <styleUrl>#risk0</styleUrl>
      <LineString><tessellate>1</tessellate>
        <coordinates>80.01614055424439,6.358462838063378,0 80.01618385867627,6.358347729591268,0</coordinates>
      </LineString>
    </Placemark>

    <Placemark>
      <name>Transect 90 Risk 0</name>
      <styleUrl>#risk0</styleUrl>
      <LineString><tessellate>1</tessellate>
        <coordinates>80.01618385867627,6.358347729591268,0 80.01622749974311,6.358232808564827,0</coordinates>
      </LineString>
    </Placemark>

    <Placemark>
      <name>Transect 91 Risk 0</name>
      <styleUrl>#risk0</styleUrl>
      <LineString><tessellate>1</tessellate>
        <coordinates>80.01622749974311,6.358232808564827,0 80.01627114080996,6.358117887538386,0</coordinates>
      </LineString>
    </Placemark>

    <Placemark>
      <name>Transect 92 Risk 0</name>
      <styleUrl>#risk0</styleUrl>
      <LineString><tessellate>1</tessellate>
        <coordinates>80.01627114080996,6.358117887538386,0 80.0163147818768,6.358002966511944,0</coordinates>
      </LineString>
    </Placemark>

    <Placemark>
      <name>Transect 93 Risk 0</name>
      <styleUrl>#risk0</styleUrl>
      <LineString><tessellate>1</tessellate>
        <coordinates>80.0163147818768,6.358002966511944,0 80.01635842294365,6.357888045485504,0</coordinates>
      </LineString>
    </Placemark>

    <Placemark>
      <name>Transect 94 Risk 0</name>
      <styleUrl>#risk0</styleUrl>
      <LineString><tessellate>1</tessellate>
        <coordinates>80.01635842294365,6.357888045485504,0 80.01640206401049,6.357773124459063,0</coordinates>
      </LineString>
    </Placemark>

    <Placemark>
      <name>Transect 95 Risk 0</name>
      <styleUrl>#risk0</styleUrl>
      <LineString><tessellate>1</tessellate>
        <coordinates>80.01640206401049,6.357773124459063,0 80.01641599883577,6.357641662350953,0</coordinates>
      </LineString>
    </Placemark>

    <Placemark>
      <name>Transect 96 Risk 0</name>
      <styleUrl>#risk0</styleUrl>
      <LineString><tessellate>1</tessellate>
        <coordinates>80.01641599883577,6.357641662350953,0 80.01641483335224,6.3575017920623385,0</coordinates>
      </LineString>
    </Placemark>

    <Placemark>
      <name>Transect 97 Risk 0</name>
      <styleUrl>#risk0</styleUrl>
      <LineString><tessellate>1</tessellate>
        <coordinates>80.01641483335224,6.3575017920623385,0 80.01637488528931,6.3573403267896476,0</coordinates>
      </LineString>
    </Placemark>

    <Placemark>
      <name>Transect 98 Risk 0</name>
      <styleUrl>#risk0</styleUrl>
      <LineString><tessellate>1</tessellate>
        <coordinates>80.01637488528931,6.3573403267896476,0 80.01636052141126,6.35719310734777,0</coordinates>
      </LineString>
    </Placemark>
  </Document>
</kml>
