<?xml version="1.0" encoding="UTF-8"?>
<kml xmlns="http://www.opengis.net/kml/2.2">
  <Document>
    <name>WOW Risk Map — 2026-08-23</name>
    
      <description><![CDATA[
        <h3>Shoreline Risk Forecast</h3>
        <b>Date:</b> 2026-08-23<br/>
        <b>Mean change:</b> -5.02 m<br/>
        <b>Max retreat:</b> -16.17 m<br/>
        <b>Max advance:</b> 12.71 m<br/>
        <hr/>
        <b>Predicted Sea Conditions:</b><br/>Wind Speed: 3.8927 m/s<br/>Wind Gust: 7.3647 m/s<br/>Sea Level Pressure: 101002.5091 Pa<br/>Total Precipitation: 0.0004 m/day<br/>Sig. Wave Height: 1.5425 m<br/>Wave Peak Period: 12.241 s<br/>Wave Direction: 226.9981 °<br/>Wave Energy Proxy: 2.442 m²
      ]]></description>
    

    
    <Style id="refLine">
      <LineStyle><color>ffffffff</color><width>3</width></LineStyle>
    </Style>
    <Style id="fcLine">
      <LineStyle><color>ff0000ff</color><width>3</width></LineStyle>
    </Style>
    <Style id="hotspot">
      <IconStyle>
        <scale>1.2</scale>
        <Icon><href>http://maps.google.com/mapfiles/kml/paddle/red-circle.png</href></Icon>
      </IconStyle>
      <LabelStyle><scale>0.9</scale></LabelStyle>
    </Style>
    
    
    <Style id="risk2">
      <LineStyle><color>ff0000ff</color><width>4</width></LineStyle>
      <PolyStyle><color>7f0000ff</color><fill>1</fill><outline>1</outline></PolyStyle>
    </Style>

    <Style id="risk1">
      <LineStyle><color>ff00a5ff</color><width>4</width></LineStyle>
      <PolyStyle><color>7f00a5ff</color><fill>1</fill><outline>1</outline></PolyStyle>
    </Style>

    <Style id="risk0">
      <LineStyle><color>ff00ff00</color><width>4</width></LineStyle>
      <PolyStyle><color>7f00ff00</color><fill>1</fill><outline>1</outline></PolyStyle>
    </Style>

    <!-- Reference shoreline -->
    <Placemark>
      <name>Current Shoreline (Reference)</name>
      <styleUrl>#refLine</styleUrl>
      <LineString><tessellate>1</tessellate>
        <coordinates>80.01085592020883,6.367910936506444,0 80.01091974838118,6.367807256099601,0 80.01099259724535,6.3677085986102355,0 80.01106544610953,6.367609941120871,0 80.01113829497369,6.367511283631506,0 80.01121114383787,6.367412626142142,0 80.01128219597899,6.367312968198287,0 80.01135239041248,6.3672128326641655,0 80.01142258484597,6.367112697130044,0 80.01149206170554,6.367012162035148,0 80.01155933148307,6.366910397988937,0 80.01162660126057,6.366808633942727,0 80.01169290257674,6.366706330636171,0 80.01175628004837,6.366602399269351,0 80.01181965752,6.366498467902533,0 80.01188101334714,6.366393410840072,0 80.01192470938443,6.366278520422378,0 80.01196840542174,6.366163630004685,0 80.01201210145904,6.366048739586992,0 80.01207522301402,6.365944665720221,0 80.0121444306059,6.365843980691207,0 80.01221363819776,6.365743295662194,0 80.01227740241835,6.3656395796456176,0 80.01233891053215,6.3655346073796855,0 80.01240041864595,6.365429635113753,0 80.0124619560966,6.365324679183214,0 80.01252639310188,6.36522133778779,0 80.01259083010716,6.365117996392365,0 80.01265526711244,6.36501465499694,0 80.01272107883362,6.364912079073236,0 80.01278792112913,6.3648100769957425,0 80.01285476342463,6.364708074918249,0 80.01292057379776,6.364605498243924,0 80.01297549147854,6.364496856281493,0 80.01303040915934,6.364388214319062,0 80.01308532684013,6.36427957235663,0 80.01314603189802,6.364174152931697,0 80.01320812307878,6.36406950533014,0 80.01327021425955,6.363964857728583,0 80.01333436416651,6.363861356470555,0 80.01340051195606,6.363758967677038,0 80.01346665974562,6.363656578883521,0 80.01353280753517,6.363554190090005,0 80.01359648475866,6.363450425631547,0 80.01365934370115,6.363346205536418,0 80.01372220264363,6.363241985441289,0 80.0137850615861,6.363137765346162,0 80.01384792052859,6.3630335452510325,0 80.01391077947108,6.362929325155903,0 80.01397363841356,6.362825105060775,0 80.0140315560278,6.362718133526564,0 80.01408877113928,6.362610770823531,0 80.01414598625077,6.3625034081204985,0 80.01420320136224,6.3623960454174675,0 80.01426063141463,6.3622888023982025,0 80.0143233444353,6.362184501050635,0 80.01438605745597,6.362080199703067,0 80.01444877047663,6.3619758983554995,0 80.0145114834973,6.361871597007932,0 80.01456851977437,6.361764134725998,0 80.01462442901928,6.361656044888042,0 80.01468033826417,6.361547955050083,0 80.01473624750908,6.361439865212126,0 80.01479215675397,6.361331775374167,0 80.01484806599889,6.361223685536209,0 80.01490631136967,6.361116896503975,0 80.01496634221732,6.361011101664108,0 80.01502637306497,6.360905306824242,0 80.0150864039126,6.360799511984375,0 80.01514643476027,6.360693717144508,0 80.01520646560792,6.360587922304641,0 80.01526649645557,6.360482127464774,0 80.01533087289377,6.360378752344278,0 80.01539541462388,6.360275469261924,0 80.01545995635402,6.360172186179571,0 80.01552449808415,6.360068903097217,0 80.01558903981426,6.3599656200148615,0 80.01565053812315,6.359860642289339,0 80.01568513023207,6.359740682606235,0 80.015719722341,6.359620722923131,0 80.01575431444992,6.3595007632400264,0 80.01579233245756,6.359382711171877,0 80.0158421393807,6.359271223428376,0 80.01589194630381,6.359159735684874,0 80.01594175322695,6.359048247941372,0 80.01599156015007,6.35893676019787,0 80.0160413670732,6.358825272454369,0 80.01607658363089,6.35870566047793,0 80.01610856893764,6.358584249270654,0 80.01614055424439,6.358462838063378,0 80.01618385867627,6.358347729591268,0 80.01622749974311,6.358232808564827,0 80.01627114080996,6.358117887538386,0 80.0163147818768,6.358002966511944,0 80.01635842294365,6.357888045485504,0 80.01640206401049,6.357773124459063,0 80.01641599883577,6.357641662350953,0 80.01641483335224,6.3575017920623385,0 80.01637488528931,6.3573403267896476,0 80.01636052141126,6.35719310734777,0</coordinates>
      </LineString>
    </Placemark>

    <!-- Forecast shoreline -->
    <Placemark>
      <name>Forecast Shoreline (2026-08-23)</name>
      <styleUrl>#fcLine</styleUrl>
      <LineString><tessellate>1</tessellate>
        <coordinates>80.01072861554758,6.367840050501076,0 80.01080605893029,6.367743951339606,0 80.01092237026175,6.367669494697725,0 80.0110118395424,6.3675800918178895,0 80.01108596970818,6.367482147785136,0 80.01115954129004,6.367383892720704,0 80.0112295852475,6.367283673398255,0 80.01128777060369,6.367176850948587,0 80.01135255988595,6.367073705708647,0 80.0114199569849,6.366972012557789,0 80.0114879616797,6.36687065772951,0 80.01155630222345,6.366769489909244,0 80.01161439610104,6.366662616522295,0 80.01167505649275,6.366557172226264,0 80.01173421799818,6.366450893317733,0 80.01179341788043,6.366344635778246,0 80.01185369779625,6.366238979624959,0 80.0119119505538,6.36613219470583,0 80.01197212910114,6.366026482108366,0 80.01203194149511,6.365920565628743,0 80.01209605686526,6.365817045139875,0 80.01216412505552,6.365715725667256,0 80.01222627381834,6.365611110128641,0 80.0122900729318,6.36550741354117,0 80.01234614771417,6.365399415878076,0 80.01240941505232,6.3652954231865335,0 80.0124670136711,6.365188274028707,0 80.01252173149786,6.3650795207832065,0 80.01258977794852,6.36497818920551,0 80.01265707616791,6.364876440996361,0 80.0127200872825,6.364772305633964,0 80.01278551306076,6.364669514808849,0 80.01283454582617,6.364557595997486,0 80.01290087338487,6.364455307303338,0 80.0129637239248,6.364351082529482,0 80.0130289238085,6.364248165921363,0 80.01308856484017,6.36414215402348,0 80.01314466364411,6.364034169736119,0 80.01320672895935,6.363929507732073,0 80.01327061596551,6.3638258600851625,0 80.0133308427819,6.363720174364952,0 80.01339463059308,6.363616471484129,0 80.01346479109391,6.363516317055561,0 80.01352743958996,6.363411979779289,0 80.01359197333885,6.363308692252794,0 80.01365219669285,6.36320300460465,0 80.01371482167959,6.363098654237878,0 80.01376795431531,6.36298901832352,0 80.01382215784862,6.36287997870823,0 80.01388751083954,6.362777147353535,0 80.01395382721485,6.362674852432234,0 80.01401482429033,6.362569595609048,0 80.01407354219695,6.362463069695052,0 80.01413355147795,6.362357262846409,0 80.01420205654621,6.362256186636953,0 80.01426738226428,6.362153340096146,0 80.0143235934947,6.3620454184102915,0 80.01438811492581,6.361942124025014,0 80.01445227546428,6.3618386286868525,0 80.01451907951554,6.36173660531412,0 80.0145856690862,6.3616344625139405,0 80.01465093954454,6.361531585203309,0 80.01471176872248,6.3614262348911215,0 80.01477484229322,6.361322134305682,0 80.01483642454657,6.361217203322257,0 80.01489419808414,6.361110151563018,0 80.01494558317866,6.360999542579696,0 80.01500899308132,6.360895629271186,0 80.01506543495918,6.360787836014851,0 80.01512258285358,6.360680435883872,0 80.01518557672529,6.360576290920279,0 80.01523843245234,6.360466500817135,0 80.01529367238538,6.360358038291778,0 80.01534932255525,6.360249804195207,0 80.01540719987653,6.360142810224994,0 80.01546308056871,6.360034704488258,0 80.0155180345886,6.35992608276023,0 80.01557732636856,6.359819876391395,0 80.01563794118321,6.359714406717065,0 80.01569067989811,6.359604551459008,0 80.01574721368124,6.359496809377517,0 80.01580535397223,6.35938996183457,0 80.01585979429406,6.359281054068288,0 80.01591689084047,6.359173625345642,0 80.01596825411949,6.359063004214963,0 80.01601756588992,6.3589512407596676,0 80.0160718546231,6.358842248585531,0 80.01612318482833,6.3587316090386485,0 80.01617607663448,6.358621839025134,0 80.01622991378406,6.358512595399407,0 80.0162757387979,6.358398890442178,0 80.01632750438263,6.358288493324075,0 80.01636152080232,6.358168213084687,0 80.0163816956665,6.358040225566003,0 80.01640660029469,6.357914871682835,0 80.01641800913455,6.357782003051089,0 80.01642984658278,6.357649373077797,0 80.01642830856571,6.357509295354392,0 80.0163616051393,6.357332932113157,0 80.01635291469483,6.357188871762553,0</coordinates>
      </LineString>
    </Placemark>

    <!-- Risk band polygons -->
    
    <Placemark>
      <name>HIGH Risk Zone (0-2)</name>
      <description><![CDATA[
        <b>Date:</b> 2026-08-23<br/>
        <b>Transects:</b> 0 to 2<br/>
        <b>Mean change:</b> -13.18 m<br/>
        <b>Worst retreat:</b> -16.17 m<br/>
      ]]></description>
      <styleUrl>#risk2</styleUrl>
      <Polygon>
        <tessellate>1</tessellate>
        <outerBoundaryIs>
          <LinearRing>
            <coordinates>80.01085592020883,6.367910936506444,0 80.01091974838118,6.367807256099601,0 80.01099259724535,6.3677085986102355,0 80.01092237026175,6.367669494697725,0 80.01080605893029,6.367743951339606,0 80.01072861554758,6.367840050501076,0 80.01085592020883,6.367910936506444,0</coordinates>
          </LinearRing>
        </outerBoundaryIs>
      </Polygon>
    </Placemark>
        

    <Placemark>
      <name>MED Risk Zone (3-6)</name>
      <description><![CDATA[
        <b>Date:</b> 2026-08-23<br/>
        <b>Transects:</b> 3 to 6<br/>
        <b>Mean change:</b> -6.67 m<br/>
        <b>Worst retreat:</b> -6.81 m<br/>
      ]]></description>
      <styleUrl>#risk1</styleUrl>
      <Polygon>
        <tessellate>1</tessellate>
        <outerBoundaryIs>
          <LinearRing>
            <coordinates>80.01106544610953,6.367609941120871,0 80.01113829497369,6.367511283631506,0 80.01121114383787,6.367412626142142,0 80.01128219597899,6.367312968198287,0 80.0112295852475,6.367283673398255,0 80.01115954129004,6.367383892720704,0 80.01108596970818,6.367482147785136,0 80.0110118395424,6.3675800918178895,0 80.01106544610953,6.367609941120871,0</coordinates>
          </LinearRing>
        </outerBoundaryIs>
      </Polygon>
    </Placemark>
        

    <Placemark>
      <name>HIGH Risk Zone (7-16)</name>
      <description><![CDATA[
        <b>Date:</b> 2026-08-23<br/>
        <b>Transects:</b> 7 to 16<br/>
        <b>Mean change:</b> -9.56 m<br/>
        <b>Worst retreat:</b> -11.13 m<br/>
      ]]></description>
      <styleUrl>#risk2</styleUrl>
      <Polygon>
        <tessellate>1</tessellate>
        <outerBoundaryIs>
          <LinearRing>
            <coordinates>80.01135239041248,6.3672128326641655,0 80.01142258484597,6.367112697130044,0 80.01149206170554,6.367012162035148,0 80.01155933148307,6.366910397988937,0 80.01162660126057,6.366808633942727,0 80.01169290257674,6.366706330636171,0 80.01175628004837,6.366602399269351,0 80.01181965752,6.366498467902533,0 80.01188101334714,6.366393410840072,0 80.01192470938443,6.366278520422378,0 80.01185369779625,6.366238979624959,0 80.01179341788043,6.366344635778246,0 80.01173421799818,6.366450893317733,0 80.01167505649275,6.366557172226264,0 80.01161439610104,6.366662616522295,0 80.01155630222345,6.366769489909244,0 80.0114879616797,6.36687065772951,0 80.0114199569849,6.366972012557789,0 80.01135255988595,6.367073705708647,0 80.01128777060369,6.367176850948587,0 80.01135239041248,6.3672128326641655,0</coordinates>
          </LinearRing>
        </outerBoundaryIs>
      </Polygon>
    </Placemark>
        

    <Placemark>
      <name>MED Risk Zone (17-26)</name>
      <description><![CDATA[
        <b>Date:</b> 2026-08-23<br/>
        <b>Transects:</b> 17 to 26<br/>
        <b>Mean change:</b> -6.40 m<br/>
        <b>Worst retreat:</b> -7.54 m<br/>
      ]]></description>
      <styleUrl>#risk1</styleUrl>
      <Polygon>
        <tessellate>1</tessellate>
        <outerBoundaryIs>
          <LinearRing>
            <coordinates>80.01196840542174,6.366163630004685,0 80.01201210145904,6.366048739586992,0 80.01207522301402,6.365944665720221,0 80.0121444306059,6.365843980691207,0 80.01221363819776,6.365743295662194,0 80.01227740241835,6.3656395796456176,0 80.01233891053215,6.3655346073796855,0 80.01240041864595,6.365429635113753,0 80.0124619560966,6.365324679183214,0 80.01252639310188,6.36522133778779,0 80.0124670136711,6.365188274028707,0 80.01240941505232,6.3652954231865335,0 80.01234614771417,6.365399415878076,0 80.0122900729318,6.36550741354117,0 80.01222627381834,6.365611110128641,0 80.01216412505552,6.365715725667256,0 80.01209605686526,6.365817045139875,0 80.01203194149511,6.365920565628743,0 80.01197212910114,6.366026482108366,0 80.0119119505538,6.36613219470583,0 80.01196840542174,6.366163630004685,0</coordinates>
          </LinearRing>
        </outerBoundaryIs>
      </Polygon>
    </Placemark>
        

    <Placemark>
      <name>HIGH Risk Zone (27-34)</name>
      <description><![CDATA[
        <b>Date:</b> 2026-08-23<br/>
        <b>Transects:</b> 27 to 34<br/>
        <b>Mean change:</b> -8.94 m<br/>
        <b>Worst retreat:</b> -10.93 m<br/>
      ]]></description>
      <styleUrl>#risk2</styleUrl>
      <Polygon>
        <tessellate>1</tessellate>
        <outerBoundaryIs>
          <LinearRing>
            <coordinates>80.01259083010716,6.365117996392365,0 80.01265526711244,6.36501465499694,0 80.01272107883362,6.364912079073236,0 80.01278792112913,6.3648100769957425,0 80.01285476342463,6.364708074918249,0 80.01292057379776,6.364605498243924,0 80.01297549147854,6.364496856281493,0 80.01303040915934,6.364388214319062,0 80.0129637239248,6.364351082529482,0 80.01290087338487,6.364455307303338,0 80.01283454582617,6.364557595997486,0 80.01278551306076,6.364669514808849,0 80.0127200872825,6.364772305633964,0 80.01265707616791,6.364876440996361,0 80.01258977794852,6.36497818920551,0 80.01252173149786,6.3650795207832065,0 80.01259083010716,6.365117996392365,0</coordinates>
          </LinearRing>
        </outerBoundaryIs>
      </Polygon>
    </Placemark>
        

    <Placemark>
      <name>MED Risk Zone (35-36)</name>
      <description><![CDATA[
        <b>Date:</b> 2026-08-23<br/>
        <b>Transects:</b> 35 to 36<br/>
        <b>Mean change:</b> -7.23 m<br/>
        <b>Worst retreat:</b> -7.30 m<br/>
      ]]></description>
      <styleUrl>#risk1</styleUrl>
      <Polygon>
        <tessellate>1</tessellate>
        <outerBoundaryIs>
          <LinearRing>
            <coordinates>80.01308532684013,6.36427957235663,0 80.01314603189802,6.364174152931697,0 80.01308856484017,6.36414215402348,0 80.0130289238085,6.364248165921363,0 80.01308532684013,6.36427957235663,0</coordinates>
          </LinearRing>
        </outerBoundaryIs>
      </Polygon>
    </Placemark>
        

    <Placemark>
      <name>HIGH Risk Zone (37-53)</name>
      <description><![CDATA[
        <b>Date:</b> 2026-08-23<br/>
        <b>Transects:</b> 37 to 53<br/>
        <b>Mean change:</b> -9.16 m<br/>
        <b>Worst retreat:</b> -11.26 m<br/>
      ]]></description>
      <styleUrl>#risk2</styleUrl>
      <Polygon>
        <tessellate>1</tessellate>
        <outerBoundaryIs>
          <LinearRing>
            <coordinates>80.01320812307878,6.36406950533014,0 80.01327021425955,6.363964857728583,0 80.01333436416651,6.363861356470555,0 80.01340051195606,6.363758967677038,0 80.01346665974562,6.363656578883521,0 80.01353280753517,6.363554190090005,0 80.01359648475866,6.363450425631547,0 80.01365934370115,6.363346205536418,0 80.01372220264363,6.363241985441289,0 80.0137850615861,6.363137765346162,0 80.01384792052859,6.3630335452510325,0 80.01391077947108,6.362929325155903,0 80.01397363841356,6.362825105060775,0 80.0140315560278,6.362718133526564,0 80.01408877113928,6.362610770823531,0 80.01414598625077,6.3625034081204985,0 80.01420320136224,6.3623960454174675,0 80.01413355147795,6.362357262846409,0 80.01407354219695,6.362463069695052,0 80.01401482429033,6.362569595609048,0 80.01395382721485,6.362674852432234,0 80.01388751083954,6.362777147353535,0 80.01382215784862,6.36287997870823,0 80.01376795431531,6.36298901832352,0 80.01371482167959,6.363098654237878,0 80.01365219669285,6.36320300460465,0 80.01359197333885,6.363308692252794,0 80.01352743958996,6.363411979779289,0 80.01346479109391,6.363516317055561,0 80.01339463059308,6.363616471484129,0 80.0133308427819,6.363720174364952,0 80.01327061596551,6.3638258600851625,0 80.01320672895935,6.363929507732073,0 80.01314466364411,6.364034169736119,0 80.01320812307878,6.36406950533014,0</coordinates>
          </LinearRing>
        </outerBoundaryIs>
      </Polygon>
    </Placemark>
        

    <Placemark>
      <name>MED Risk Zone (54-62)</name>
      <description><![CDATA[
        <b>Date:</b> 2026-08-23<br/>
        <b>Transects:</b> 54 to 62<br/>
        <b>Mean change:</b> -6.20 m<br/>
        <b>Worst retreat:</b> -7.94 m<br/>
      ]]></description>
      <styleUrl>#risk1</styleUrl>
      <Polygon>
        <tessellate>1</tessellate>
        <outerBoundaryIs>
          <LinearRing>
            <coordinates>80.01426063141463,6.3622888023982025,0 80.0143233444353,6.362184501050635,0 80.01438605745597,6.362080199703067,0 80.01444877047663,6.3619758983554995,0 80.0145114834973,6.361871597007932,0 80.01456851977437,6.361764134725998,0 80.01462442901928,6.361656044888042,0 80.01468033826417,6.361547955050083,0 80.01473624750908,6.361439865212126,0 80.01471176872248,6.3614262348911215,0 80.01465093954454,6.361531585203309,0 80.0145856690862,6.3616344625139405,0 80.01451907951554,6.36173660531412,0 80.01445227546428,6.3618386286868525,0 80.01438811492581,6.361942124025014,0 80.0143235934947,6.3620454184102915,0 80.01426738226428,6.362153340096146,0 80.01420205654621,6.362256186636953,0 80.01426063141463,6.3622888023982025,0</coordinates>
          </LinearRing>
        </outerBoundaryIs>
      </Polygon>
    </Placemark>
        

    <Placemark>
      <name>LOW Risk Zone (63-68)</name>
      <description><![CDATA[
        <b>Date:</b> 2026-08-23<br/>
        <b>Transects:</b> 63 to 68<br/>
        <b>Mean change:</b> -2.12 m<br/>
        <b>Worst retreat:</b> -2.66 m<br/>
      ]]></description>
      <styleUrl>#risk0</styleUrl>
      <Polygon>
        <tessellate>1</tessellate>
        <outerBoundaryIs>
          <LinearRing>
            <coordinates>80.01479215675397,6.361331775374167,0 80.01484806599889,6.361223685536209,0 80.01490631136967,6.361116896503975,0 80.01496634221732,6.361011101664108,0 80.01502637306497,6.360905306824242,0 80.0150864039126,6.360799511984375,0 80.01506543495918,6.360787836014851,0 80.01500899308132,6.360895629271186,0 80.01494558317866,6.360999542579696,0 80.01489419808414,6.361110151563018,0 80.01483642454657,6.361217203322257,0 80.01477484229322,6.361322134305682,0 80.01479215675397,6.361331775374167,0</coordinates>
          </LinearRing>
        </outerBoundaryIs>
      </Polygon>
    </Placemark>
        

    <Placemark>
      <name>MED Risk Zone (71-75)</name>
      <description><![CDATA[
        <b>Date:</b> 2026-08-23<br/>
        <b>Transects:</b> 71 to 75<br/>
        <b>Mean change:</b> -5.73 m<br/>
        <b>Worst retreat:</b> -7.80 m<br/>
      ]]></description>
      <styleUrl>#risk1</styleUrl>
      <Polygon>
        <tessellate>1</tessellate>
        <outerBoundaryIs>
          <LinearRing>
            <coordinates>80.01526649645557,6.360482127464774,0 80.01533087289377,6.360378752344278,0 80.01539541462388,6.360275469261924,0 80.01545995635402,6.360172186179571,0 80.01552449808415,6.360068903097217,0 80.01546308056871,6.360034704488258,0 80.01540719987653,6.360142810224994,0 80.01534932255525,6.360249804195207,0 80.01529367238538,6.360358038291778,0 80.01523843245234,6.360466500817135,0 80.01526649645557,6.360482127464774,0</coordinates>
          </LinearRing>
        </outerBoundaryIs>
      </Polygon>
    </Placemark>
        

    <Placemark>
      <name>HIGH Risk Zone (76-77)</name>
      <description><![CDATA[
        <b>Date:</b> 2026-08-23<br/>
        <b>Transects:</b> 76 to 77<br/>
        <b>Mean change:</b> -9.16 m<br/>
        <b>Worst retreat:</b> -9.30 m<br/>
      ]]></description>
      <styleUrl>#risk2</styleUrl>
      <Polygon>
        <tessellate>1</tessellate>
        <outerBoundaryIs>
          <LinearRing>
            <coordinates>80.01558903981426,6.3599656200148615,0 80.01565053812315,6.359860642289339,0 80.01557732636856,6.359819876391395,0 80.0155180345886,6.35992608276023,0 80.01558903981426,6.3599656200148615,0</coordinates>
          </LinearRing>
        </outerBoundaryIs>
      </Polygon>
    </Placemark>
        

    <Placemark>
      <name>MED Risk Zone (78-79)</name>
      <description><![CDATA[
        <b>Date:</b> 2026-08-23<br/>
        <b>Transects:</b> 78 to 79<br/>
        <b>Mean change:</b> -4.84 m<br/>
        <b>Worst retreat:</b> -6.00 m<br/>
      ]]></description>
      <styleUrl>#risk1</styleUrl>
      <Polygon>
        <tessellate>1</tessellate>
        <outerBoundaryIs>
          <LinearRing>
            <coordinates>80.01568513023207,6.359740682606235,0 80.015719722341,6.359620722923131,0 80.01569067989811,6.359604551459008,0 80.01563794118321,6.359714406717065,0 80.01568513023207,6.359740682606235,0</coordinates>
          </LinearRing>
        </outerBoundaryIs>
      </Polygon>
    </Placemark>
        

    <Placemark>
      <name>LOW Risk Zone (80-99)</name>
      <description><![CDATA[
        <b>Date:</b> 2026-08-23<br/>
        <b>Transects:</b> 80 to 99<br/>
        <b>Mean change:</b> 4.79 m<br/>
        <b>Worst retreat:</b> -1.69 m<br/>
      ]]></description>
      <styleUrl>#risk0</styleUrl>
      <Polygon>
        <tessellate>1</tessellate>
        <outerBoundaryIs>
          <LinearRing>
            <coordinates>80.01575431444992,6.3595007632400264,0 80.01579233245756,6.359382711171877,0 80.0158421393807,6.359271223428376,0 80.01589194630381,6.359159735684874,0 80.01594175322695,6.359048247941372,0 80.01599156015007,6.35893676019787,0 80.0160413670732,6.358825272454369,0 80.01607658363089,6.35870566047793,0 80.01610856893764,6.358584249270654,0 80.01614055424439,6.358462838063378,0 80.01618385867627,6.358347729591268,0 80.01622749974311,6.358232808564827,0 80.01627114080996,6.358117887538386,0 80.0163147818768,6.358002966511944,0 80.01635842294365,6.357888045485504,0 80.01640206401049,6.357773124459063,0 80.01641599883577,6.357641662350953,0 80.01641483335224,6.3575017920623385,0 80.01637488528931,6.3573403267896476,0 80.01636052141126,6.35719310734777,0 80.01635291469483,6.357188871762553,0 80.0163616051393,6.357332932113157,0 80.01642830856571,6.357509295354392,0 80.01642984658278,6.357649373077797,0 80.01641800913455,6.357782003051089,0 80.01640660029469,6.357914871682835,0 80.0163816956665,6.358040225566003,0 80.01636152080232,6.358168213084687,0 80.01632750438263,6.358288493324075,0 80.0162757387979,6.358398890442178,0 80.01622991378406,6.358512595399407,0 80.01617607663448,6.358621839025134,0 80.01612318482833,6.3587316090386485,0 80.0160718546231,6.358842248585531,0 80.01601756588992,6.3589512407596676,0 80.01596825411949,6.359063004214963,0 80.01591689084047,6.359173625345642,0 80.01585979429406,6.359281054068288,0 80.01580535397223,6.35938996183457,0 80.01574721368124,6.359496809377517,0 80.01575431444992,6.3595007632400264,0</coordinates>
          </LinearRing>
        </outerBoundaryIs>
      </Polygon>
    </Placemark>
        

    <!-- Hotspot pins -->
    
    <Placemark>
      <name>Hotspot #1: -16.17 m (HIGH)</name>
      <description><![CDATA[
        <b>Date:</b> 2026-08-23<br/>
        <b>Transect:</b> 0<br/>
        <b>Change:</b> -16.17 m<br/>
        <b>Risk:</b> HIGH<br/>
      ]]></description>
      <styleUrl>#hotspot</styleUrl>
      <Point><coordinates>80.0107922678782,6.36787549350376,0</coordinates></Point>
    </Placemark>
        

    <Placemark>
      <name>Hotspot #2: -14.44 m (HIGH)</name>
      <description><![CDATA[
        <b>Date:</b> 2026-08-23<br/>
        <b>Transect:</b> 1<br/>
        <b>Change:</b> -14.44 m<br/>
        <b>Risk:</b> HIGH<br/>
      ]]></description>
      <styleUrl>#hotspot</styleUrl>
      <Point><coordinates>80.01086290365573,6.367775603719604,0</coordinates></Point>
    </Placemark>
        

    <Placemark>
      <name>Hotspot #3: -11.26 m (HIGH)</name>
      <description><![CDATA[
        <b>Date:</b> 2026-08-23<br/>
        <b>Transect:</b> 48<br/>
        <b>Change:</b> -11.26 m<br/>
        <b>Risk:</b> HIGH<br/>
      ]]></description>
      <styleUrl>#hotspot</styleUrl>
      <Point><coordinates>80.01386646865984,6.362904651932067,0</coordinates></Point>
    </Placemark>
        

    <Placemark>
      <name>Hotspot #4: -11.13 m (HIGH)</name>
      <description><![CDATA[
        <b>Date:</b> 2026-08-23<br/>
        <b>Transect:</b> 15<br/>
        <b>Change:</b> -11.13 m<br/>
        <b>Risk:</b> HIGH<br/>
      ]]></description>
      <styleUrl>#hotspot</styleUrl>
      <Point><coordinates>80.01183721561378,6.366369023309159,0</coordinates></Point>
    </Placemark>
        

    <Placemark>
      <name>Hotspot #5: -10.94 m (HIGH)</name>
      <description><![CDATA[
        <b>Date:</b> 2026-08-23<br/>
        <b>Transect:</b> 49<br/>
        <b>Change:</b> -10.94 m<br/>
        <b>Risk:</b> HIGH<br/>
      ]]></description>
      <styleUrl>#hotspot</styleUrl>
      <Point><coordinates>80.01393057462656,6.362801126207155,0</coordinates></Point>
    </Placemark>
        

    <Placemark>
      <name>Hotspot #6: -10.93 m (HIGH)</name>
      <description><![CDATA[
        <b>Date:</b> 2026-08-23<br/>
        <b>Transect:</b> 32<br/>
        <b>Change:</b> -10.93 m<br/>
        <b>Risk:</b> HIGH<br/>
      ]]></description>
      <styleUrl>#hotspot</styleUrl>
      <Point><coordinates>80.01287755981195,6.3645815471207055,0</coordinates></Point>
    </Placemark>
        

    <Placemark>
      <name>Hotspot #7: -10.85 m (HIGH)</name>
      <description><![CDATA[
        <b>Date:</b> 2026-08-23<br/>
        <b>Transect:</b> 14<br/>
        <b>Change:</b> -10.85 m<br/>
        <b>Risk:</b> HIGH<br/>
      ]]></description>
      <styleUrl>#hotspot</styleUrl>
      <Point><coordinates>80.0117769377591,6.366474680610133,0</coordinates></Point>
    </Placemark>
        

  </Document>
</kml>
