<?xml version="1.0" encoding="UTF-8"?>
<kml xmlns="http://www.opengis.net/kml/2.2">
  <Document>
    <name>WOW Risk Map — 2026-03-26</name>
    
      <description><![CDATA[
        <h3>Shoreline Risk Forecast</h3>
        <b>Date:</b> 2026-03-26<br/>
        <b>Mean change:</b> -8.74 m<br/>
        <b>Max retreat:</b> -20.59 m<br/>
        <b>Max advance:</b> 14.41 m<br/>
        <hr/>
        <b>Predicted Sea Conditions:</b><br/>Wind Speed: 1.0797 m/s<br/>Wind Gust: 4.0044 m/s<br/>Sea Level Pressure: 101038.6437 Pa<br/>Total Precipitation: 0.0002 m/day<br/>Sig. Wave Height: 0.7606 m<br/>Wave Peak Period: 13.609 s<br/>Wave Direction: 188.4675 °<br/>Wave Energy Proxy: 0.6009 m²
      ]]></description>
    

    
    <Style id="refLine">
      <LineStyle><color>ffffffff</color><width>3</width></LineStyle>
    </Style>
    <Style id="fcLine">
      <LineStyle><color>ff0000ff</color><width>3</width></LineStyle>
    </Style>
    <Style id="hotspot">
      <IconStyle>
        <scale>1.2</scale>
        <Icon><href>http://maps.google.com/mapfiles/kml/paddle/red-circle.png</href></Icon>
      </IconStyle>
      <LabelStyle><scale>0.9</scale></LabelStyle>
    </Style>
    
    
    <Style id="risk2">
      <LineStyle><color>ff0000ff</color><width>4</width></LineStyle>
      <PolyStyle><color>7f0000ff</color><fill>1</fill><outline>1</outline></PolyStyle>
    </Style>

    <Style id="risk1">
      <LineStyle><color>ff00a5ff</color><width>4</width></LineStyle>
      <PolyStyle><color>7f00a5ff</color><fill>1</fill><outline>1</outline></PolyStyle>
    </Style>

    <Style id="risk0">
      <LineStyle><color>ff00ff00</color><width>4</width></LineStyle>
      <PolyStyle><color>7f00ff00</color><fill>1</fill><outline>1</outline></PolyStyle>
    </Style>

    <!-- Reference shoreline -->
    <Placemark>
      <name>Current Shoreline (Reference)</name>
      <styleUrl>#refLine</styleUrl>
      <LineString><tessellate>1</tessellate>
        <coordinates>80.01085592020883,6.367910936506444,0 80.01091974838118,6.367807256099601,0 80.01099259724535,6.3677085986102355,0 80.01106544610953,6.367609941120871,0 80.01113829497369,6.367511283631506,0 80.01121114383787,6.367412626142142,0 80.01128219597899,6.367312968198287,0 80.01135239041248,6.3672128326641655,0 80.01142258484597,6.367112697130044,0 80.01149206170554,6.367012162035148,0 80.01155933148307,6.366910397988937,0 80.01162660126057,6.366808633942727,0 80.01169290257674,6.366706330636171,0 80.01175628004837,6.366602399269351,0 80.01181965752,6.366498467902533,0 80.01188101334714,6.366393410840072,0 80.01192470938443,6.366278520422378,0 80.01196840542174,6.366163630004685,0 80.01201210145904,6.366048739586992,0 80.01207522301402,6.365944665720221,0 80.0121444306059,6.365843980691207,0 80.01221363819776,6.365743295662194,0 80.01227740241835,6.3656395796456176,0 80.01233891053215,6.3655346073796855,0 80.01240041864595,6.365429635113753,0 80.0124619560966,6.365324679183214,0 80.01252639310188,6.36522133778779,0 80.01259083010716,6.365117996392365,0 80.01265526711244,6.36501465499694,0 80.01272107883362,6.364912079073236,0 80.01278792112913,6.3648100769957425,0 80.01285476342463,6.364708074918249,0 80.01292057379776,6.364605498243924,0 80.01297549147854,6.364496856281493,0 80.01303040915934,6.364388214319062,0 80.01308532684013,6.36427957235663,0 80.01314603189802,6.364174152931697,0 80.01320812307878,6.36406950533014,0 80.01327021425955,6.363964857728583,0 80.01333436416651,6.363861356470555,0 80.01340051195606,6.363758967677038,0 80.01346665974562,6.363656578883521,0 80.01353280753517,6.363554190090005,0 80.01359648475866,6.363450425631547,0 80.01365934370115,6.363346205536418,0 80.01372220264363,6.363241985441289,0 80.0137850615861,6.363137765346162,0 80.01384792052859,6.3630335452510325,0 80.01391077947108,6.362929325155903,0 80.01397363841356,6.362825105060775,0 80.0140315560278,6.362718133526564,0 80.01408877113928,6.362610770823531,0 80.01414598625077,6.3625034081204985,0 80.01420320136224,6.3623960454174675,0 80.01426063141463,6.3622888023982025,0 80.0143233444353,6.362184501050635,0 80.01438605745597,6.362080199703067,0 80.01444877047663,6.3619758983554995,0 80.0145114834973,6.361871597007932,0 80.01456851977437,6.361764134725998,0 80.01462442901928,6.361656044888042,0 80.01468033826417,6.361547955050083,0 80.01473624750908,6.361439865212126,0 80.01479215675397,6.361331775374167,0 80.01484806599889,6.361223685536209,0 80.01490631136967,6.361116896503975,0 80.01496634221732,6.361011101664108,0 80.01502637306497,6.360905306824242,0 80.0150864039126,6.360799511984375,0 80.01514643476027,6.360693717144508,0 80.01520646560792,6.360587922304641,0 80.01526649645557,6.360482127464774,0 80.01533087289377,6.360378752344278,0 80.01539541462388,6.360275469261924,0 80.01545995635402,6.360172186179571,0 80.01552449808415,6.360068903097217,0 80.01558903981426,6.3599656200148615,0 80.01565053812315,6.359860642289339,0 80.01568513023207,6.359740682606235,0 80.015719722341,6.359620722923131,0 80.01575431444992,6.3595007632400264,0 80.01579233245756,6.359382711171877,0 80.0158421393807,6.359271223428376,0 80.01589194630381,6.359159735684874,0 80.01594175322695,6.359048247941372,0 80.01599156015007,6.35893676019787,0 80.0160413670732,6.358825272454369,0 80.01607658363089,6.35870566047793,0 80.01610856893764,6.358584249270654,0 80.01614055424439,6.358462838063378,0 80.01618385867627,6.358347729591268,0 80.01622749974311,6.358232808564827,0 80.01627114080996,6.358117887538386,0 80.0163147818768,6.358002966511944,0 80.01635842294365,6.357888045485504,0 80.01640206401049,6.357773124459063,0 80.01641599883577,6.357641662350953,0 80.01641483335224,6.3575017920623385,0 80.01637488528931,6.3573403267896476,0 80.01636052141126,6.35719310734777,0</coordinates>
      </LineString>
    </Placemark>

    <!-- Forecast shoreline -->
    <Placemark>
      <name>Forecast Shoreline (2026-03-26)</name>
      <styleUrl>#fcLine</styleUrl>
      <LineString><tessellate>1</tessellate>
        <coordinates>80.01069384928311,6.367820691888556,0 80.01076068372706,6.3677186854391445,0 80.01085632118098,6.3676327171324045,0 80.01094325072295,6.367541900070811,0 80.01102136814455,6.367446176228869,0 80.01109718621346,6.367349172057303,0 80.0111652203678,6.367247833632746,0 80.01123658715827,6.36714835089249,0 80.01130703319473,6.367048355456376,0 80.01137499137006,6.366946974725057,0 80.01144047625728,6.366844216813086,0 80.01149951434238,6.366737869181426,0 80.0115550238345,6.366629556752431,0 80.0116186289644,6.366525752150687,0 80.01167062654389,6.366415484212322,0 80.01173136938515,6.3663100858259805,0 80.01179605771384,6.3662068843729,0 80.01185407312113,6.366099967291988,0 80.01191452418686,6.365994406438696,0 80.01197040174033,6.365886298954255,0 80.01202634935807,6.365778230483122,0 80.01209011952382,6.36567451777694,0 80.01215159508041,6.36556952738245,0 80.01221060298566,6.365463162945996,0 80.01227755047871,6.3653612194447895,0 80.01234226420536,6.365258032133828,0 80.01239985115804,6.365150876480068,0 80.01245239166066,6.365040910853114,0 80.01252582142986,6.364942576824307,0 80.01258841702668,6.364838210092581,0 80.01265287603377,6.364734880948241,0 80.01271593448496,6.3646307719439,0 80.01276496609402,6.3645188524886604,0 80.01282625248943,6.364413756765112,0 80.01289631427065,6.364313547367306,0 80.01296610078009,6.364213184692196,0 80.01303226192995,6.36411080333799,0 80.01309123479066,6.364004419387975,0 80.01315104031733,6.363898499084479,0 80.01320568740039,6.363789706447341,0 80.01326942494876,6.3636859755790915,0 80.01332877927543,6.363579804037625,0 80.01340477025029,6.363482896143861,0 80.01347061032207,6.363380336006396,0 80.0135352197883,6.363277090640966,0 80.0135981432569,6.363172906475386,0 80.01366918357154,6.363073241946294,0 80.013736550009,6.362971531722447,0 80.01380007603753,6.362867683075346,0 80.01385949880638,6.362761549643964,0 80.01392497788528,6.36265878849781,0 80.01399077538501,6.362556204655296,0 80.01405286329974,6.362451555235139,0 80.01412074294214,6.362350130774971,0 80.01418958255655,6.362249240848097,0 80.01425148445279,6.362144487848791,0 80.01431327355299,6.362039672042205,0 80.01437732719687,6.361936117182811,0 80.01443137320008,6.361826989851338,0 80.0144924516039,6.361721778313536,0 80.01456297146082,6.3616218239822615,0 80.01464125116574,6.361526190503197,0 80.01469321304248,6.361415902684754,0 80.01475243135106,6.361309655405455,0 80.01481294361754,6.361204128630058,0 80.01487374103509,6.3610987606329905,0 80.01492869578999,6.360990139314236,0 80.01499330680893,6.360886894813407,0 80.0150509377641,6.360779763661187,0 80.01511691732719,6.36067728119551,0 80.01517595539198,6.3605709335525455,0 80.01523443275431,6.360464273698247,0 80.01529265842265,6.360357473695264,0 80.01535344686289,6.360252100699439,0 80.0154173656622,6.3601484707556475,0 80.01547909899958,6.360043623899105,0 80.01553769469622,6.359937029935935,0 80.01560065185878,6.359832864531879,0 80.01565809074873,6.359725626433569,0 80.01571285452627,6.3596168987744575,0 80.01576262999254,6.35950539351509,0 80.01581234563965,6.359393854947119,0 80.01587584505081,6.359289991478889,0 80.01592602316741,6.359178710423991,0 80.01597748129552,6.359068142107347,0 80.01603506841892,6.358960986548644,0 80.01609168260833,6.358853289239132,0 80.01615294781426,6.358748181716818,0 80.01619912028733,6.358634670232445,0 80.01623940978989,6.358517882982077,0 80.01629726123734,6.358410874604763,0 80.01633052877595,6.358290177372087,0 80.01637333698484,6.358174792592221,0 80.01639880076105,6.3580497500548425,0 80.01643346583774,6.35792983100177,0 80.01644029758582,6.35779441374572,0 80.01643962296372,6.357654816779427,0 80.01642558406957,6.357507778295665,0 80.01637714276,6.357341583798454,0 80.0163560742485,6.357190631070789,0</coordinates>
      </LineString>
    </Placemark>

    <!-- Risk band polygons -->
    
    <Placemark>
      <name>HIGH Risk Zone (0-59)</name>
      <description><![CDATA[
        <b>Date:</b> 2026-03-26<br/>
        <b>Transects:</b> 0 to 59<br/>
        <b>Mean change:</b> -15.17 m<br/>
        <b>Worst retreat:</b> -20.59 m<br/>
      ]]></description>
      <styleUrl>#risk2</styleUrl>
      <Polygon>
        <tessellate>1</tessellate>
        <outerBoundaryIs>
          <LinearRing>
            <coordinates>80.01085592020883,6.367910936506444,0 80.01091974838118,6.367807256099601,0 80.01099259724535,6.3677085986102355,0 80.01106544610953,6.367609941120871,0 80.01113829497369,6.367511283631506,0 80.01121114383787,6.367412626142142,0 80.01128219597899,6.367312968198287,0 80.01135239041248,6.3672128326641655,0 80.01142258484597,6.367112697130044,0 80.01149206170554,6.367012162035148,0 80.01155933148307,6.366910397988937,0 80.01162660126057,6.366808633942727,0 80.01169290257674,6.366706330636171,0 80.01175628004837,6.366602399269351,0 80.01181965752,6.366498467902533,0 80.01188101334714,6.366393410840072,0 80.01192470938443,6.366278520422378,0 80.01196840542174,6.366163630004685,0 80.01201210145904,6.366048739586992,0 80.01207522301402,6.365944665720221,0 80.0121444306059,6.365843980691207,0 80.01221363819776,6.365743295662194,0 80.01227740241835,6.3656395796456176,0 80.01233891053215,6.3655346073796855,0 80.01240041864595,6.365429635113753,0 80.0124619560966,6.365324679183214,0 80.01252639310188,6.36522133778779,0 80.01259083010716,6.365117996392365,0 80.01265526711244,6.36501465499694,0 80.01272107883362,6.364912079073236,0 80.01278792112913,6.3648100769957425,0 80.01285476342463,6.364708074918249,0 80.01292057379776,6.364605498243924,0 80.01297549147854,6.364496856281493,0 80.01303040915934,6.364388214319062,0 80.01308532684013,6.36427957235663,0 80.01314603189802,6.364174152931697,0 80.01320812307878,6.36406950533014,0 80.01327021425955,6.363964857728583,0 80.01333436416651,6.363861356470555,0 80.01340051195606,6.363758967677038,0 80.01346665974562,6.363656578883521,0 80.01353280753517,6.363554190090005,0 80.01359648475866,6.363450425631547,0 80.01365934370115,6.363346205536418,0 80.01372220264363,6.363241985441289,0 80.0137850615861,6.363137765346162,0 80.01384792052859,6.3630335452510325,0 80.01391077947108,6.362929325155903,0 80.01397363841356,6.362825105060775,0 80.0140315560278,6.362718133526564,0 80.01408877113928,6.362610770823531,0 80.01414598625077,6.3625034081204985,0 80.01420320136224,6.3623960454174675,0 80.01426063141463,6.3622888023982025,0 80.0143233444353,6.362184501050635,0 80.01438605745597,6.362080199703067,0 80.01444877047663,6.3619758983554995,0 80.0145114834973,6.361871597007932,0 80.01456851977437,6.361764134725998,0 80.0144924516039,6.361721778313536,0 80.01443137320008,6.361826989851338,0 80.01437732719687,6.361936117182811,0 80.01431327355299,6.362039672042205,0 80.01425148445279,6.362144487848791,0 80.01418958255655,6.362249240848097,0 80.01412074294214,6.362350130774971,0 80.01405286329974,6.362451555235139,0 80.01399077538501,6.362556204655296,0 80.01392497788528,6.36265878849781,0 80.01385949880638,6.362761549643964,0 80.01380007603753,6.362867683075346,0 80.013736550009,6.362971531722447,0 80.01366918357154,6.363073241946294,0 80.0135981432569,6.363172906475386,0 80.0135352197883,6.363277090640966,0 80.01347061032207,6.363380336006396,0 80.01340477025029,6.363482896143861,0 80.01332877927543,6.363579804037625,0 80.01326942494876,6.3636859755790915,0 80.01320568740039,6.363789706447341,0 80.01315104031733,6.363898499084479,0 80.01309123479066,6.364004419387975,0 80.01303226192995,6.36411080333799,0 80.01296610078009,6.364213184692196,0 80.01289631427065,6.364313547367306,0 80.01282625248943,6.364413756765112,0 80.01276496609402,6.3645188524886604,0 80.01271593448496,6.3646307719439,0 80.01265287603377,6.364734880948241,0 80.01258841702668,6.364838210092581,0 80.01252582142986,6.364942576824307,0 80.01245239166066,6.365040910853114,0 80.01239985115804,6.365150876480068,0 80.01234226420536,6.365258032133828,0 80.01227755047871,6.3653612194447895,0 80.01221060298566,6.365463162945996,0 80.01215159508041,6.36556952738245,0 80.01209011952382,6.36567451777694,0 80.01202634935807,6.365778230483122,0 80.01197040174033,6.365886298954255,0 80.01191452418686,6.365994406438696,0 80.01185407312113,6.366099967291988,0 80.01179605771384,6.3662068843729,0 80.01173136938515,6.3663100858259805,0 80.01167062654389,6.366415484212322,0 80.0116186289644,6.366525752150687,0 80.0115550238345,6.366629556752431,0 80.01149951434238,6.366737869181426,0 80.01144047625728,6.366844216813086,0 80.01137499137006,6.366946974725057,0 80.01130703319473,6.367048355456376,0 80.01123658715827,6.36714835089249,0 80.0111652203678,6.367247833632746,0 80.01109718621346,6.367349172057303,0 80.01102136814455,6.367446176228869,0 80.01094325072295,6.367541900070811,0 80.01085632118098,6.3676327171324045,0 80.01076068372706,6.3677186854391445,0 80.01069384928311,6.367820691888556,0 80.01085592020883,6.367910936506444,0</coordinates>
          </LinearRing>
        </outerBoundaryIs>
      </Polygon>
    </Placemark>
        

    <Placemark>
      <name>MED Risk Zone (60-78)</name>
      <description><![CDATA[
        <b>Date:</b> 2026-03-26<br/>
        <b>Transects:</b> 60 to 78<br/>
        <b>Mean change:</b> -4.99 m<br/>
        <b>Worst retreat:</b> -7.81 m<br/>
      ]]></description>
      <styleUrl>#risk1</styleUrl>
      <Polygon>
        <tessellate>1</tessellate>
        <outerBoundaryIs>
          <LinearRing>
            <coordinates>80.01462442901928,6.361656044888042,0 80.01468033826417,6.361547955050083,0 80.01473624750908,6.361439865212126,0 80.01479215675397,6.361331775374167,0 80.01484806599889,6.361223685536209,0 80.01490631136967,6.361116896503975,0 80.01496634221732,6.361011101664108,0 80.01502637306497,6.360905306824242,0 80.0150864039126,6.360799511984375,0 80.01514643476027,6.360693717144508,0 80.01520646560792,6.360587922304641,0 80.01526649645557,6.360482127464774,0 80.01533087289377,6.360378752344278,0 80.01539541462388,6.360275469261924,0 80.01545995635402,6.360172186179571,0 80.01552449808415,6.360068903097217,0 80.01558903981426,6.3599656200148615,0 80.01565053812315,6.359860642289339,0 80.01568513023207,6.359740682606235,0 80.01565809074873,6.359725626433569,0 80.01560065185878,6.359832864531879,0 80.01553769469622,6.359937029935935,0 80.01547909899958,6.360043623899105,0 80.0154173656622,6.3601484707556475,0 80.01535344686289,6.360252100699439,0 80.01529265842265,6.360357473695264,0 80.01523443275431,6.360464273698247,0 80.01517595539198,6.3605709335525455,0 80.01511691732719,6.36067728119551,0 80.0150509377641,6.360779763661187,0 80.01499330680893,6.360886894813407,0 80.01492869578999,6.360990139314236,0 80.01487374103509,6.3610987606329905,0 80.01481294361754,6.361204128630058,0 80.01475243135106,6.361309655405455,0 80.01469321304248,6.361415902684754,0 80.01464125116574,6.361526190503197,0 80.01456297146082,6.3616218239822615,0 80.01462442901928,6.361656044888042,0</coordinates>
          </LinearRing>
        </outerBoundaryIs>
      </Polygon>
    </Placemark>
        

    <Placemark>
      <name>LOW Risk Zone (79-99)</name>
      <description><![CDATA[
        <b>Date:</b> 2026-03-26<br/>
        <b>Transects:</b> 79 to 99<br/>
        <b>Mean change:</b> 6.25 m<br/>
        <b>Worst retreat:</b> -0.87 m<br/>
      ]]></description>
      <styleUrl>#risk0</styleUrl>
      <Polygon>
        <tessellate>1</tessellate>
        <outerBoundaryIs>
          <LinearRing>
            <coordinates>80.015719722341,6.359620722923131,0 80.01575431444992,6.3595007632400264,0 80.01579233245756,6.359382711171877,0 80.0158421393807,6.359271223428376,0 80.01589194630381,6.359159735684874,0 80.01594175322695,6.359048247941372,0 80.01599156015007,6.35893676019787,0 80.0160413670732,6.358825272454369,0 80.01607658363089,6.35870566047793,0 80.01610856893764,6.358584249270654,0 80.01614055424439,6.358462838063378,0 80.01618385867627,6.358347729591268,0 80.01622749974311,6.358232808564827,0 80.01627114080996,6.358117887538386,0 80.0163147818768,6.358002966511944,0 80.01635842294365,6.357888045485504,0 80.01640206401049,6.357773124459063,0 80.01641599883577,6.357641662350953,0 80.01641483335224,6.3575017920623385,0 80.01637488528931,6.3573403267896476,0 80.01636052141126,6.35719310734777,0 80.0163560742485,6.357190631070789,0 80.01637714276,6.357341583798454,0 80.01642558406957,6.357507778295665,0 80.01643962296372,6.357654816779427,0 80.01644029758582,6.35779441374572,0 80.01643346583774,6.35792983100177,0 80.01639880076105,6.3580497500548425,0 80.01637333698484,6.358174792592221,0 80.01633052877595,6.358290177372087,0 80.01629726123734,6.358410874604763,0 80.01623940978989,6.358517882982077,0 80.01619912028733,6.358634670232445,0 80.01615294781426,6.358748181716818,0 80.01609168260833,6.358853289239132,0 80.01603506841892,6.358960986548644,0 80.01597748129552,6.359068142107347,0 80.01592602316741,6.359178710423991,0 80.01587584505081,6.359289991478889,0 80.01581234563965,6.359393854947119,0 80.01576262999254,6.35950539351509,0 80.01571285452627,6.3596168987744575,0 80.015719722341,6.359620722923131,0</coordinates>
          </LinearRing>
        </outerBoundaryIs>
      </Polygon>
    </Placemark>
        

    <!-- Hotspot pins -->
    
    <Placemark>
      <name>Hotspot #1: -20.59 m (HIGH)</name>
      <description><![CDATA[
        <b>Date:</b> 2026-03-26<br/>
        <b>Transect:</b> 0<br/>
        <b>Change:</b> -20.59 m<br/>
        <b>Risk:</b> HIGH<br/>
      ]]></description>
      <styleUrl>#hotspot</styleUrl>
      <Point><coordinates>80.01077488474597,6.367865814197501,0</coordinates></Point>
    </Placemark>
        

    <Placemark>
      <name>Hotspot #2: -20.21 m (HIGH)</name>
      <description><![CDATA[
        <b>Date:</b> 2026-03-26<br/>
        <b>Transect:</b> 1<br/>
        <b>Change:</b> -20.21 m<br/>
        <b>Risk:</b> HIGH<br/>
      ]]></description>
      <styleUrl>#hotspot</styleUrl>
      <Point><coordinates>80.01084021605412,6.367762970769373,0</coordinates></Point>
    </Placemark>
        

    <Placemark>
      <name>Hotspot #3: -19.77 m (HIGH)</name>
      <description><![CDATA[
        <b>Date:</b> 2026-03-26<br/>
        <b>Transect:</b> 32<br/>
        <b>Change:</b> -19.77 m<br/>
        <b>Risk:</b> HIGH<br/>
      ]]></description>
      <styleUrl>#hotspot</styleUrl>
      <Point><coordinates>80.01284276994589,6.364562175366292,0</coordinates></Point>
    </Placemark>
        

    <Placemark>
      <name>Hotspot #4: -19.01 m (HIGH)</name>
      <description><![CDATA[
        <b>Date:</b> 2026-03-26<br/>
        <b>Transect:</b> 15<br/>
        <b>Change:</b> -19.01 m<br/>
        <b>Risk:</b> HIGH<br/>
      ]]></description>
      <styleUrl>#hotspot</styleUrl>
      <Point><coordinates>80.01180619136613,6.366351748333026,0</coordinates></Point>
    </Placemark>
        

    <Placemark>
      <name>Hotspot #5: -18.96 m (HIGH)</name>
      <description><![CDATA[
        <b>Date:</b> 2026-03-26<br/>
        <b>Transect:</b> 33<br/>
        <b>Change:</b> -18.96 m<br/>
        <b>Risk:</b> HIGH<br/>
      ]]></description>
      <styleUrl>#hotspot</styleUrl>
      <Point><coordinates>80.01290087198399,6.364455306523302,0</coordinates></Point>
    </Placemark>
        

    <Placemark>
      <name>Hotspot #6: -18.93 m (HIGH)</name>
      <description><![CDATA[
        <b>Date:</b> 2026-03-26<br/>
        <b>Transect:</b> 14<br/>
        <b>Change:</b> -18.93 m<br/>
        <b>Risk:</b> HIGH<br/>
      ]]></description>
      <styleUrl>#hotspot</styleUrl>
      <Point><coordinates>80.01174514203194,6.366456976057427,0</coordinates></Point>
    </Placemark>
        

    <Placemark>
      <name>Hotspot #7: -17.64 m (HIGH)</name>
      <description><![CDATA[
        <b>Date:</b> 2026-03-26<br/>
        <b>Transect:</b> 31<br/>
        <b>Change:</b> -17.64 m<br/>
        <b>Risk:</b> HIGH<br/>
      ]]></description>
      <styleUrl>#hotspot</styleUrl>
      <Point><coordinates>80.0127853489548,6.364669423431074,0</coordinates></Point>
    </Placemark>
        

  </Document>
</kml>
