<?xml version="1.0" encoding="UTF-8"?>
<kml xmlns="http://www.opengis.net/kml/2.2">
  <Document>
    <name>WOW Risk Map — 2026-04-16</name>
    
      <description><![CDATA[
        <h3>Shoreline Risk Forecast</h3>
        <b>Date:</b> 2026-04-16<br/>
        <b>Mean change:</b> -1.53 m<br/>
        <b>Max retreat:</b> -14.28 m<br/>
        <b>Max advance:</b> 16.73 m<br/>
        <hr/>
        <b>Predicted Sea Conditions:</b><br/>Wind Speed: 1.5089 m/s<br/>Wind Gust: 4.314 m/s<br/>Sea Level Pressure: 100929.4199 Pa<br/>Total Precipitation: 0.0003 m/day<br/>Sig. Wave Height: 0.8902 m<br/>Wave Peak Period: 14.1102 s<br/>Wave Direction: 190.9624 °<br/>Wave Energy Proxy: 0.8324 m²
      ]]></description>
    

    
    <Style id="refLine">
      <LineStyle><color>ffffffff</color><width>3</width></LineStyle>
    </Style>
    <Style id="fcLine">
      <LineStyle><color>ff0000ff</color><width>3</width></LineStyle>
    </Style>
    <Style id="hotspot">
      <IconStyle>
        <scale>1.2</scale>
        <Icon><href>http://maps.google.com/mapfiles/kml/paddle/red-circle.png</href></Icon>
      </IconStyle>
      <LabelStyle><scale>0.9</scale></LabelStyle>
    </Style>
    
    
    <Style id="risk2">
      <LineStyle><color>ff0000ff</color><width>4</width></LineStyle>
      <PolyStyle><color>7f0000ff</color><fill>1</fill><outline>1</outline></PolyStyle>
    </Style>

    <Style id="risk1">
      <LineStyle><color>ff00a5ff</color><width>4</width></LineStyle>
      <PolyStyle><color>7f00a5ff</color><fill>1</fill><outline>1</outline></PolyStyle>
    </Style>

    <Style id="risk0">
      <LineStyle><color>ff00ff00</color><width>4</width></LineStyle>
      <PolyStyle><color>7f00ff00</color><fill>1</fill><outline>1</outline></PolyStyle>
    </Style>

    <!-- Reference shoreline -->
    <Placemark>
      <name>Current Shoreline (Reference)</name>
      <styleUrl>#refLine</styleUrl>
      <LineString><tessellate>1</tessellate>
        <coordinates>80.01085592020883,6.367910936506444,0 80.01091974838118,6.367807256099601,0 80.01099259724535,6.3677085986102355,0 80.01106544610953,6.367609941120871,0 80.01113829497369,6.367511283631506,0 80.01121114383787,6.367412626142142,0 80.01128219597899,6.367312968198287,0 80.01135239041248,6.3672128326641655,0 80.01142258484597,6.367112697130044,0 80.01149206170554,6.367012162035148,0 80.01155933148307,6.366910397988937,0 80.01162660126057,6.366808633942727,0 80.01169290257674,6.366706330636171,0 80.01175628004837,6.366602399269351,0 80.01181965752,6.366498467902533,0 80.01188101334714,6.366393410840072,0 80.01192470938443,6.366278520422378,0 80.01196840542174,6.366163630004685,0 80.01201210145904,6.366048739586992,0 80.01207522301402,6.365944665720221,0 80.0121444306059,6.365843980691207,0 80.01221363819776,6.365743295662194,0 80.01227740241835,6.3656395796456176,0 80.01233891053215,6.3655346073796855,0 80.01240041864595,6.365429635113753,0 80.0124619560966,6.365324679183214,0 80.01252639310188,6.36522133778779,0 80.01259083010716,6.365117996392365,0 80.01265526711244,6.36501465499694,0 80.01272107883362,6.364912079073236,0 80.01278792112913,6.3648100769957425,0 80.01285476342463,6.364708074918249,0 80.01292057379776,6.364605498243924,0 80.01297549147854,6.364496856281493,0 80.01303040915934,6.364388214319062,0 80.01308532684013,6.36427957235663,0 80.01314603189802,6.364174152931697,0 80.01320812307878,6.36406950533014,0 80.01327021425955,6.363964857728583,0 80.01333436416651,6.363861356470555,0 80.01340051195606,6.363758967677038,0 80.01346665974562,6.363656578883521,0 80.01353280753517,6.363554190090005,0 80.01359648475866,6.363450425631547,0 80.01365934370115,6.363346205536418,0 80.01372220264363,6.363241985441289,0 80.0137850615861,6.363137765346162,0 80.01384792052859,6.3630335452510325,0 80.01391077947108,6.362929325155903,0 80.01397363841356,6.362825105060775,0 80.0140315560278,6.362718133526564,0 80.01408877113928,6.362610770823531,0 80.01414598625077,6.3625034081204985,0 80.01420320136224,6.3623960454174675,0 80.01426063141463,6.3622888023982025,0 80.0143233444353,6.362184501050635,0 80.01438605745597,6.362080199703067,0 80.01444877047663,6.3619758983554995,0 80.0145114834973,6.361871597007932,0 80.01456851977437,6.361764134725998,0 80.01462442901928,6.361656044888042,0 80.01468033826417,6.361547955050083,0 80.01473624750908,6.361439865212126,0 80.01479215675397,6.361331775374167,0 80.01484806599889,6.361223685536209,0 80.01490631136967,6.361116896503975,0 80.01496634221732,6.361011101664108,0 80.01502637306497,6.360905306824242,0 80.0150864039126,6.360799511984375,0 80.01514643476027,6.360693717144508,0 80.01520646560792,6.360587922304641,0 80.01526649645557,6.360482127464774,0 80.01533087289377,6.360378752344278,0 80.01539541462388,6.360275469261924,0 80.01545995635402,6.360172186179571,0 80.01552449808415,6.360068903097217,0 80.01558903981426,6.3599656200148615,0 80.01565053812315,6.359860642289339,0 80.01568513023207,6.359740682606235,0 80.015719722341,6.359620722923131,0 80.01575431444992,6.3595007632400264,0 80.01579233245756,6.359382711171877,0 80.0158421393807,6.359271223428376,0 80.01589194630381,6.359159735684874,0 80.01594175322695,6.359048247941372,0 80.01599156015007,6.35893676019787,0 80.0160413670732,6.358825272454369,0 80.01607658363089,6.35870566047793,0 80.01610856893764,6.358584249270654,0 80.01614055424439,6.358462838063378,0 80.01618385867627,6.358347729591268,0 80.01622749974311,6.358232808564827,0 80.01627114080996,6.358117887538386,0 80.0163147818768,6.358002966511944,0 80.01635842294365,6.357888045485504,0 80.01640206401049,6.357773124459063,0 80.01641599883577,6.357641662350953,0 80.01641483335224,6.3575017920623385,0 80.01637488528931,6.3573403267896476,0 80.01636052141126,6.35719310734777,0</coordinates>
      </LineString>
    </Placemark>

    <!-- Forecast shoreline -->
    <Placemark>
      <name>Forecast Shoreline (2026-04-16)</name>
      <styleUrl>#fcLine</styleUrl>
      <LineString><tessellate>1</tessellate>
        <coordinates>80.01074354266518,6.367848362244952,0 80.01083204855746,6.367758422929517,0 80.01093662720314,6.3676774332728945,0 80.01101674205717,6.367582821644784,0 80.01109615878455,6.367487821284565,0 80.01116083309216,6.367384612024234,0 80.01122898919895,6.3672833415054555,0 80.01130240130189,6.367184997639695,0 80.01136981707442,6.367083314886687,0 80.01144581932003,6.366986413268723,0 80.01151488092233,6.3668856469495365,0 80.01157677474788,6.366780889456297,0 80.01164109617564,6.3666774837047955,0 80.01170151516723,6.366571904991922,0 80.01177427051734,6.366473195431892,0 80.0118347898406,6.366367672585869,0 80.0118858252482,6.366256868889251,0 80.01194567881939,6.366150975337996,0 80.01200795946356,6.3660464332337865,0 80.012065223641,6.365939097851753,0 80.01214246337429,6.365842885293841,0 80.01220544967892,6.365738736116729,0 80.01226452139598,6.365632407212085,0 80.01233098107515,6.365530192085493,0 80.01238428277074,6.3654206503073425,0 80.01243523557108,6.365309800613197,0 80.01249276624057,6.365202613619734,0 80.01253608596554,6.365087513663143,0 80.01259670572837,6.364982046744065,0 80.01266654334512,6.364881712526617,0 80.01272906257053,6.364777303269625,0 80.0127919124759,6.364673078142442,0 80.01285808908749,6.364570705397655,0 80.0129210228245,6.364466526949756,0 80.01297368730496,6.364356630356345,0 80.01303068926057,6.364249148963491,0 80.01309603171823,6.364146311743651,0 80.01314951408428,6.3640368705667365,0 80.0132183003751,6.363935950948143,0 80.01329037691289,6.36383686341064,0 80.01335685375388,6.363734657840115,0 80.01341878766905,6.363629922669657,0 80.01347980380417,6.363524676459294,0 80.01354315009476,6.363420727730199,0 80.01361106405632,6.363319322379677,0 80.01367999350062,6.363218482472046,0 80.01373617409605,6.363110543727967,0 80.01379595500137,6.363004609714773,0 80.01385120285937,6.3628961516022,0 80.01391109786454,6.362790281122274,0 80.01397486539047,6.362686566946178,0 80.01404067360738,6.362583989071233,0 80.01410196679436,6.3624788971293675,0 80.0141638440715,6.362374130421621,0 80.01423266016546,6.3622732273980445,0 80.0143067293611,6.362175249415795,0 80.01437190059309,6.362072316853785,0 80.01443428951372,6.361967835040261,0 80.01449629492916,6.361863139682701,0 80.01456347876689,6.361761327783347,0 80.01462555144548,6.361656669879378,0 80.01468862755138,6.361552570705565,0 80.01475123246956,6.36144820916418,0 80.01480972593538,6.3613415582766555,0 80.01486380096713,6.361232447108907,0 80.0149237001176,6.3611265789371805,0 80.01496899932593,6.361012581199997,0 80.01503201955119,6.360908450910629,0 80.01508374312772,6.360798030401452,0 80.01513616233203,6.360687997232944,0 80.01519451202317,6.3605812662885555,0 80.01524964403052,6.360472743667816,0 80.01530698208906,6.360365449424383,0 80.01536930702143,6.360260931980806,0 80.01543009112017,6.360155556567528,0 80.01549327202994,6.360051515750799,0 80.01555400458138,6.359946111634869,0 80.01561335337867,6.359839937014521,0 80.01566984028895,6.359732168833221,0 80.015725275645,6.359623815123627,0 80.01577696643434,6.35951337635783,0 80.01584466856026,6.35941185305262,0 80.01589694371225,6.359301739672662,0 80.01595746454436,6.3591962176668035,0 80.01600909263809,6.359085743990713,0 80.01606371744893,6.358976938951924,0 80.01612160648605,6.358869951505355,0 80.01616576459764,6.3587553183806795,0 80.01622060917641,6.358646635713457,0 80.01625908462519,6.358528838358474,0 80.01631270195696,6.358419472333416,0 80.01635914548048,6.3583061117758275,0 80.01639141900797,6.358184861056135,0 80.01642684149347,6.35806536374478,0 80.01645848929539,6.357943764607467,0 80.0164807095933,6.357816916030794,0 80.01647616542338,6.357675164416079,0 80.01646905890458,6.35753198602975,0 80.01639019724995,6.357348852822501,0 80.0163625203034,6.357194220374407,0</coordinates>
      </LineString>
    </Placemark>

    <!-- Risk band polygons -->
    
    <Placemark>
      <name>HIGH Risk Zone (0-1)</name>
      <description><![CDATA[
        <b>Date:</b> 2026-04-16<br/>
        <b>Transects:</b> 0 to 1<br/>
        <b>Mean change:</b> -12.71 m<br/>
        <b>Worst retreat:</b> -14.28 m<br/>
      ]]></description>
      <styleUrl>#risk2</styleUrl>
      <Polygon>
        <tessellate>1</tessellate>
        <outerBoundaryIs>
          <LinearRing>
            <coordinates>80.01085592020883,6.367910936506444,0 80.01091974838118,6.367807256099601,0 80.01083204855746,6.367758422929517,0 80.01074354266518,6.367848362244952,0 80.01085592020883,6.367910936506444,0</coordinates>
          </LinearRing>
        </outerBoundaryIs>
      </Polygon>
    </Placemark>
        

    <Placemark>
      <name>MED Risk Zone (2-16)</name>
      <description><![CDATA[
        <b>Date:</b> 2026-04-16<br/>
        <b>Transects:</b> 2 to 16<br/>
        <b>Mean change:</b> -6.19 m<br/>
        <b>Worst retreat:</b> -7.11 m<br/>
      ]]></description>
      <styleUrl>#risk1</styleUrl>
      <Polygon>
        <tessellate>1</tessellate>
        <outerBoundaryIs>
          <LinearRing>
            <coordinates>80.01099259724535,6.3677085986102355,0 80.01106544610953,6.367609941120871,0 80.01113829497369,6.367511283631506,0 80.01121114383787,6.367412626142142,0 80.01128219597899,6.367312968198287,0 80.01135239041248,6.3672128326641655,0 80.01142258484597,6.367112697130044,0 80.01149206170554,6.367012162035148,0 80.01155933148307,6.366910397988937,0 80.01162660126057,6.366808633942727,0 80.01169290257674,6.366706330636171,0 80.01175628004837,6.366602399269351,0 80.01181965752,6.366498467902533,0 80.01188101334714,6.366393410840072,0 80.01192470938443,6.366278520422378,0 80.0118858252482,6.366256868889251,0 80.0118347898406,6.366367672585869,0 80.01177427051734,6.366473195431892,0 80.01170151516723,6.366571904991922,0 80.01164109617564,6.3666774837047955,0 80.01157677474788,6.366780889456297,0 80.01151488092233,6.3668856469495365,0 80.01144581932003,6.366986413268723,0 80.01136981707442,6.367083314886687,0 80.01130240130189,6.367184997639695,0 80.01122898919895,6.3672833415054555,0 80.01116083309216,6.367384612024234,0 80.01109615878455,6.367487821284565,0 80.01101674205717,6.367582821644784,0 80.01093662720314,6.3676774332728945,0 80.01099259724535,6.3677085986102355,0</coordinates>
          </LinearRing>
        </outerBoundaryIs>
      </Polygon>
    </Placemark>
        

    <Placemark>
      <name>LOW Risk Zone (17-24)</name>
      <description><![CDATA[
        <b>Date:</b> 2026-04-16<br/>
        <b>Transects:</b> 17 to 24<br/>
        <b>Mean change:</b> -1.33 m<br/>
        <b>Worst retreat:</b> -2.89 m<br/>
      ]]></description>
      <styleUrl>#risk0</styleUrl>
      <Polygon>
        <tessellate>1</tessellate>
        <outerBoundaryIs>
          <LinearRing>
            <coordinates>80.01196840542174,6.366163630004685,0 80.01201210145904,6.366048739586992,0 80.01207522301402,6.365944665720221,0 80.0121444306059,6.365843980691207,0 80.01221363819776,6.365743295662194,0 80.01227740241835,6.3656395796456176,0 80.01233891053215,6.3655346073796855,0 80.01240041864595,6.365429635113753,0 80.01238428277074,6.3654206503073425,0 80.01233098107515,6.365530192085493,0 80.01226452139598,6.365632407212085,0 80.01220544967892,6.365738736116729,0 80.01214246337429,6.365842885293841,0 80.012065223641,6.365939097851753,0 80.01200795946356,6.3660464332337865,0 80.01194567881939,6.366150975337996,0 80.01196840542174,6.366163630004685,0</coordinates>
          </LinearRing>
        </outerBoundaryIs>
      </Polygon>
    </Placemark>
        

    <Placemark>
      <name>MED Risk Zone (25-54)</name>
      <description><![CDATA[
        <b>Date:</b> 2026-04-16<br/>
        <b>Transects:</b> 25 to 54<br/>
        <b>Mean change:</b> -6.40 m<br/>
        <b>Worst retreat:</b> -7.99 m<br/>
      ]]></description>
      <styleUrl>#risk1</styleUrl>
      <Polygon>
        <tessellate>1</tessellate>
        <outerBoundaryIs>
          <LinearRing>
            <coordinates>80.0124619560966,6.365324679183214,0 80.01252639310188,6.36522133778779,0 80.01259083010716,6.365117996392365,0 80.01265526711244,6.36501465499694,0 80.01272107883362,6.364912079073236,0 80.01278792112913,6.3648100769957425,0 80.01285476342463,6.364708074918249,0 80.01292057379776,6.364605498243924,0 80.01297549147854,6.364496856281493,0 80.01303040915934,6.364388214319062,0 80.01308532684013,6.36427957235663,0 80.01314603189802,6.364174152931697,0 80.01320812307878,6.36406950533014,0 80.01327021425955,6.363964857728583,0 80.01333436416651,6.363861356470555,0 80.01340051195606,6.363758967677038,0 80.01346665974562,6.363656578883521,0 80.01353280753517,6.363554190090005,0 80.01359648475866,6.363450425631547,0 80.01365934370115,6.363346205536418,0 80.01372220264363,6.363241985441289,0 80.0137850615861,6.363137765346162,0 80.01384792052859,6.3630335452510325,0 80.01391077947108,6.362929325155903,0 80.01397363841356,6.362825105060775,0 80.0140315560278,6.362718133526564,0 80.01408877113928,6.362610770823531,0 80.01414598625077,6.3625034081204985,0 80.01420320136224,6.3623960454174675,0 80.01426063141463,6.3622888023982025,0 80.01423266016546,6.3622732273980445,0 80.0141638440715,6.362374130421621,0 80.01410196679436,6.3624788971293675,0 80.01404067360738,6.362583989071233,0 80.01397486539047,6.362686566946178,0 80.01391109786454,6.362790281122274,0 80.01385120285937,6.3628961516022,0 80.01379595500137,6.363004609714773,0 80.01373617409605,6.363110543727967,0 80.01367999350062,6.363218482472046,0 80.01361106405632,6.363319322379677,0 80.01354315009476,6.363420727730199,0 80.01347980380417,6.363524676459294,0 80.01341878766905,6.363629922669657,0 80.01335685375388,6.363734657840115,0 80.01329037691289,6.36383686341064,0 80.0132183003751,6.363935950948143,0 80.01314951408428,6.3640368705667365,0 80.01309603171823,6.364146311743651,0 80.01303068926057,6.364249148963491,0 80.01297368730496,6.364356630356345,0 80.0129210228245,6.364466526949756,0 80.01285808908749,6.364570705397655,0 80.0127919124759,6.364673078142442,0 80.01272906257053,6.364777303269625,0 80.01266654334512,6.364881712526617,0 80.01259670572837,6.364982046744065,0 80.01253608596554,6.365087513663143,0 80.01249276624057,6.365202613619734,0 80.01243523557108,6.365309800613197,0 80.0124619560966,6.365324679183214,0</coordinates>
          </LinearRing>
        </outerBoundaryIs>
      </Polygon>
    </Placemark>
        

    <Placemark>
      <name>LOW Risk Zone (55-71)</name>
      <description><![CDATA[
        <b>Date:</b> 2026-04-16<br/>
        <b>Transects:</b> 55 to 71<br/>
        <b>Mean change:</b> -0.18 m<br/>
        <b>Worst retreat:</b> -2.14 m<br/>
      ]]></description>
      <styleUrl>#risk0</styleUrl>
      <Polygon>
        <tessellate>1</tessellate>
        <outerBoundaryIs>
          <LinearRing>
            <coordinates>80.0143233444353,6.362184501050635,0 80.01438605745597,6.362080199703067,0 80.01444877047663,6.3619758983554995,0 80.0145114834973,6.361871597007932,0 80.01456851977437,6.361764134725998,0 80.01462442901928,6.361656044888042,0 80.01468033826417,6.361547955050083,0 80.01473624750908,6.361439865212126,0 80.01479215675397,6.361331775374167,0 80.01484806599889,6.361223685536209,0 80.01490631136967,6.361116896503975,0 80.01496634221732,6.361011101664108,0 80.01502637306497,6.360905306824242,0 80.0150864039126,6.360799511984375,0 80.01514643476027,6.360693717144508,0 80.01520646560792,6.360587922304641,0 80.01526649645557,6.360482127464774,0 80.01524964403052,6.360472743667816,0 80.01519451202317,6.3605812662885555,0 80.01513616233203,6.360687997232944,0 80.01508374312772,6.360798030401452,0 80.01503201955119,6.360908450910629,0 80.01496899932593,6.361012581199997,0 80.0149237001176,6.3611265789371805,0 80.01486380096713,6.361232447108907,0 80.01480972593538,6.3613415582766555,0 80.01475123246956,6.36144820916418,0 80.01468862755138,6.361552570705565,0 80.01462555144548,6.361656669879378,0 80.01456347876689,6.361761327783347,0 80.01449629492916,6.361863139682701,0 80.01443428951372,6.361967835040261,0 80.01437190059309,6.362072316853785,0 80.0143067293611,6.362175249415795,0 80.0143233444353,6.362184501050635,0</coordinates>
          </LinearRing>
        </outerBoundaryIs>
      </Polygon>
    </Placemark>
        

    <Placemark>
      <name>MED Risk Zone (72-77)</name>
      <description><![CDATA[
        <b>Date:</b> 2026-04-16<br/>
        <b>Transects:</b> 72 to 77<br/>
        <b>Mean change:</b> -3.88 m<br/>
        <b>Worst retreat:</b> -4.72 m<br/>
      ]]></description>
      <styleUrl>#risk1</styleUrl>
      <Polygon>
        <tessellate>1</tessellate>
        <outerBoundaryIs>
          <LinearRing>
            <coordinates>80.01533087289377,6.360378752344278,0 80.01539541462388,6.360275469261924,0 80.01545995635402,6.360172186179571,0 80.01552449808415,6.360068903097217,0 80.01558903981426,6.3599656200148615,0 80.01565053812315,6.359860642289339,0 80.01561335337867,6.359839937014521,0 80.01555400458138,6.359946111634869,0 80.01549327202994,6.360051515750799,0 80.01543009112017,6.360155556567528,0 80.01536930702143,6.360260931980806,0 80.01530698208906,6.360365449424383,0 80.01533087289377,6.360378752344278,0</coordinates>
          </LinearRing>
        </outerBoundaryIs>
      </Polygon>
    </Placemark>
        

    <Placemark>
      <name>LOW Risk Zone (78-99)</name>
      <description><![CDATA[
        <b>Date:</b> 2026-04-16<br/>
        <b>Transects:</b> 78 to 99<br/>
        <b>Mean change:</b> 8.83 m<br/>
        <b>Worst retreat:</b> -1.94 m<br/>
      ]]></description>
      <styleUrl>#risk0</styleUrl>
      <Polygon>
        <tessellate>1</tessellate>
        <outerBoundaryIs>
          <LinearRing>
            <coordinates>80.01568513023207,6.359740682606235,0 80.015719722341,6.359620722923131,0 80.01575431444992,6.3595007632400264,0 80.01579233245756,6.359382711171877,0 80.0158421393807,6.359271223428376,0 80.01589194630381,6.359159735684874,0 80.01594175322695,6.359048247941372,0 80.01599156015007,6.35893676019787,0 80.0160413670732,6.358825272454369,0 80.01607658363089,6.35870566047793,0 80.01610856893764,6.358584249270654,0 80.01614055424439,6.358462838063378,0 80.01618385867627,6.358347729591268,0 80.01622749974311,6.358232808564827,0 80.01627114080996,6.358117887538386,0 80.0163147818768,6.358002966511944,0 80.01635842294365,6.357888045485504,0 80.01640206401049,6.357773124459063,0 80.01641599883577,6.357641662350953,0 80.01641483335224,6.3575017920623385,0 80.01637488528931,6.3573403267896476,0 80.01636052141126,6.35719310734777,0 80.0163625203034,6.357194220374407,0 80.01639019724995,6.357348852822501,0 80.01646905890458,6.35753198602975,0 80.01647616542338,6.357675164416079,0 80.0164807095933,6.357816916030794,0 80.01645848929539,6.357943764607467,0 80.01642684149347,6.35806536374478,0 80.01639141900797,6.358184861056135,0 80.01635914548048,6.3583061117758275,0 80.01631270195696,6.358419472333416,0 80.01625908462519,6.358528838358474,0 80.01622060917641,6.358646635713457,0 80.01616576459764,6.3587553183806795,0 80.01612160648605,6.358869951505355,0 80.01606371744893,6.358976938951924,0 80.01600909263809,6.359085743990713,0 80.01595746454436,6.3591962176668035,0 80.01589694371225,6.359301739672662,0 80.01584466856026,6.35941185305262,0 80.01577696643434,6.35951337635783,0 80.015725275645,6.359623815123627,0 80.01566984028895,6.359732168833221,0 80.01568513023207,6.359740682606235,0</coordinates>
          </LinearRing>
        </outerBoundaryIs>
      </Polygon>
    </Placemark>
        

    <!-- Hotspot pins -->
    
    <Placemark>
      <name>Hotspot #1: -14.28 m (HIGH)</name>
      <description><![CDATA[
        <b>Date:</b> 2026-04-16<br/>
        <b>Transect:</b> 0<br/>
        <b>Change:</b> -14.28 m<br/>
        <b>Risk:</b> HIGH<br/>
      ]]></description>
      <styleUrl>#hotspot</styleUrl>
      <Point><coordinates>80.010799731437,6.367879649375698,0</coordinates></Point>
    </Placemark>
        

    <Placemark>
      <name>Hotspot #2: -11.14 m (HIGH)</name>
      <description><![CDATA[
        <b>Date:</b> 2026-04-16<br/>
        <b>Transect:</b> 1<br/>
        <b>Change:</b> -11.14 m<br/>
        <b>Risk:</b> HIGH<br/>
      ]]></description>
      <styleUrl>#hotspot</styleUrl>
      <Point><coordinates>80.01087589846932,6.367782839514559,0</coordinates></Point>
    </Placemark>
        

    <Placemark>
      <name>Hotspot #3: -7.99 m (MED)</name>
      <description><![CDATA[
        <b>Date:</b> 2026-04-16<br/>
        <b>Transect:</b> 31<br/>
        <b>Change:</b> -7.99 m<br/>
        <b>Risk:</b> MED<br/>
      ]]></description>
      <styleUrl>#hotspot</styleUrl>
      <Point><coordinates>80.01282333795027,6.364690576530345,0</coordinates></Point>
    </Placemark>
        

    <Placemark>
      <name>Hotspot #4: -7.95 m (MED)</name>
      <description><![CDATA[
        <b>Date:</b> 2026-04-16<br/>
        <b>Transect:</b> 49<br/>
        <b>Change:</b> -7.95 m<br/>
        <b>Risk:</b> MED<br/>
      ]]></description>
      <styleUrl>#hotspot</styleUrl>
      <Point><coordinates>80.01394236813906,6.362807693091525,0</coordinates></Point>
    </Placemark>
        

    <Placemark>
      <name>Hotspot #5: -7.94 m (MED)</name>
      <description><![CDATA[
        <b>Date:</b> 2026-04-16<br/>
        <b>Transect:</b> 32<br/>
        <b>Change:</b> -7.94 m<br/>
        <b>Risk:</b> MED<br/>
      ]]></description>
      <styleUrl>#hotspot</styleUrl>
      <Point><coordinates>80.01288933144262,6.3645881018207895,0</coordinates></Point>
    </Placemark>
        

    <Placemark>
      <name>Hotspot #6: -7.57 m (MED)</name>
      <description><![CDATA[
        <b>Date:</b> 2026-04-16<br/>
        <b>Transect:</b> 48<br/>
        <b>Change:</b> -7.57 m<br/>
        <b>Risk:</b> MED<br/>
      ]]></description>
      <styleUrl>#hotspot</styleUrl>
      <Point><coordinates>80.01388099116522,6.362912738379052,0</coordinates></Point>
    </Placemark>
        

    <Placemark>
      <name>Hotspot #7: -7.48 m (MED)</name>
      <description><![CDATA[
        <b>Date:</b> 2026-04-16<br/>
        <b>Transect:</b> 30<br/>
        <b>Change:</b> -7.48 m<br/>
        <b>Risk:</b> MED<br/>
      ]]></description>
      <styleUrl>#hotspot</styleUrl>
      <Point><coordinates>80.01275849184984,6.364793690132684,0</coordinates></Point>
    </Placemark>
        

  </Document>
</kml>
