<?xml version="1.0" encoding="UTF-8"?>
<kml xmlns="http://www.opengis.net/kml/2.2">
  <Document>
    <name>WOW Risk Map — 2026-07-06</name>
    
      <description><![CDATA[
        <h3>Shoreline Risk Forecast</h3>
        <b>Date:</b> 2026-07-06<br/>
        <b>Mean change:</b> -6.01 m<br/>
        <b>Max retreat:</b> -17.94 m<br/>
        <b>Max advance:</b> 9.45 m<br/>
        <hr/>
        <b>Predicted Sea Conditions:</b><br/>Wind Speed: 4.2106 m/s<br/>Wind Gust: 8.4387 m/s<br/>Sea Level Pressure: 100934.1161 Pa<br/>Total Precipitation: 0.0004 m/day<br/>Sig. Wave Height: 1.741 m<br/>Wave Peak Period: 12.0941 s<br/>Wave Direction: 240.526 °<br/>Wave Energy Proxy: 3.1025 m²
      ]]></description>
    

    
    <Style id="refLine">
      <LineStyle><color>ffffffff</color><width>3</width></LineStyle>
    </Style>
    <Style id="fcLine">
      <LineStyle><color>ff0000ff</color><width>3</width></LineStyle>
    </Style>
    <Style id="hotspot">
      <IconStyle>
        <scale>1.2</scale>
        <Icon><href>http://maps.google.com/mapfiles/kml/paddle/red-circle.png</href></Icon>
      </IconStyle>
      <LabelStyle><scale>0.9</scale></LabelStyle>
    </Style>
    
    
    <Style id="risk2">
      <LineStyle><color>ff0000ff</color><width>4</width></LineStyle>
      <PolyStyle><color>7f0000ff</color><fill>1</fill><outline>1</outline></PolyStyle>
    </Style>

    <Style id="risk1">
      <LineStyle><color>ff00a5ff</color><width>4</width></LineStyle>
      <PolyStyle><color>7f00a5ff</color><fill>1</fill><outline>1</outline></PolyStyle>
    </Style>

    <Style id="risk0">
      <LineStyle><color>ff00ff00</color><width>4</width></LineStyle>
      <PolyStyle><color>7f00ff00</color><fill>1</fill><outline>1</outline></PolyStyle>
    </Style>

    <!-- Reference shoreline -->
    <Placemark>
      <name>Current Shoreline (Reference)</name>
      <styleUrl>#refLine</styleUrl>
      <LineString><tessellate>1</tessellate>
        <coordinates>80.01085592020883,6.367910936506444,0 80.01091974838118,6.367807256099601,0 80.01099259724535,6.3677085986102355,0 80.01106544610953,6.367609941120871,0 80.01113829497369,6.367511283631506,0 80.01121114383787,6.367412626142142,0 80.01128219597899,6.367312968198287,0 80.01135239041248,6.3672128326641655,0 80.01142258484597,6.367112697130044,0 80.01149206170554,6.367012162035148,0 80.01155933148307,6.366910397988937,0 80.01162660126057,6.366808633942727,0 80.01169290257674,6.366706330636171,0 80.01175628004837,6.366602399269351,0 80.01181965752,6.366498467902533,0 80.01188101334714,6.366393410840072,0 80.01192470938443,6.366278520422378,0 80.01196840542174,6.366163630004685,0 80.01201210145904,6.366048739586992,0 80.01207522301402,6.365944665720221,0 80.0121444306059,6.365843980691207,0 80.01221363819776,6.365743295662194,0 80.01227740241835,6.3656395796456176,0 80.01233891053215,6.3655346073796855,0 80.01240041864595,6.365429635113753,0 80.0124619560966,6.365324679183214,0 80.01252639310188,6.36522133778779,0 80.01259083010716,6.365117996392365,0 80.01265526711244,6.36501465499694,0 80.01272107883362,6.364912079073236,0 80.01278792112913,6.3648100769957425,0 80.01285476342463,6.364708074918249,0 80.01292057379776,6.364605498243924,0 80.01297549147854,6.364496856281493,0 80.01303040915934,6.364388214319062,0 80.01308532684013,6.36427957235663,0 80.01314603189802,6.364174152931697,0 80.01320812307878,6.36406950533014,0 80.01327021425955,6.363964857728583,0 80.01333436416651,6.363861356470555,0 80.01340051195606,6.363758967677038,0 80.01346665974562,6.363656578883521,0 80.01353280753517,6.363554190090005,0 80.01359648475866,6.363450425631547,0 80.01365934370115,6.363346205536418,0 80.01372220264363,6.363241985441289,0 80.0137850615861,6.363137765346162,0 80.01384792052859,6.3630335452510325,0 80.01391077947108,6.362929325155903,0 80.01397363841356,6.362825105060775,0 80.0140315560278,6.362718133526564,0 80.01408877113928,6.362610770823531,0 80.01414598625077,6.3625034081204985,0 80.01420320136224,6.3623960454174675,0 80.01426063141463,6.3622888023982025,0 80.0143233444353,6.362184501050635,0 80.01438605745597,6.362080199703067,0 80.01444877047663,6.3619758983554995,0 80.0145114834973,6.361871597007932,0 80.01456851977437,6.361764134725998,0 80.01462442901928,6.361656044888042,0 80.01468033826417,6.361547955050083,0 80.01473624750908,6.361439865212126,0 80.01479215675397,6.361331775374167,0 80.01484806599889,6.361223685536209,0 80.01490631136967,6.361116896503975,0 80.01496634221732,6.361011101664108,0 80.01502637306497,6.360905306824242,0 80.0150864039126,6.360799511984375,0 80.01514643476027,6.360693717144508,0 80.01520646560792,6.360587922304641,0 80.01526649645557,6.360482127464774,0 80.01533087289377,6.360378752344278,0 80.01539541462388,6.360275469261924,0 80.01545995635402,6.360172186179571,0 80.01552449808415,6.360068903097217,0 80.01558903981426,6.3599656200148615,0 80.01565053812315,6.359860642289339,0 80.01568513023207,6.359740682606235,0 80.015719722341,6.359620722923131,0 80.01575431444992,6.3595007632400264,0 80.01579233245756,6.359382711171877,0 80.0158421393807,6.359271223428376,0 80.01589194630381,6.359159735684874,0 80.01594175322695,6.359048247941372,0 80.01599156015007,6.35893676019787,0 80.0160413670732,6.358825272454369,0 80.01607658363089,6.35870566047793,0 80.01610856893764,6.358584249270654,0 80.01614055424439,6.358462838063378,0 80.01618385867627,6.358347729591268,0 80.01622749974311,6.358232808564827,0 80.01627114080996,6.358117887538386,0 80.0163147818768,6.358002966511944,0 80.01635842294365,6.357888045485504,0 80.01640206401049,6.357773124459063,0 80.01641599883577,6.357641662350953,0 80.01641483335224,6.3575017920623385,0 80.01637488528931,6.3573403267896476,0 80.01636052141126,6.35719310734777,0</coordinates>
      </LineString>
    </Placemark>

    <!-- Forecast shoreline -->
    <Placemark>
      <name>Forecast Shoreline (2026-07-06)</name>
      <styleUrl>#fcLine</styleUrl>
      <LineString><tessellate>1</tessellate>
        <coordinates>80.01071470041485,6.367832302252403,0 80.01079589128436,6.367738289773118,0 80.01092492417497,6.367670916772174,0 80.01100629658144,6.36757700537662,0 80.0110757637525,6.36747646488695,0 80.01114775559218,6.367377330187694,0 80.01121520167199,6.367275664310438,0 80.01128509751948,6.367175362517133,0 80.01134832333146,6.367071346702928,0 80.01142431330128,6.3669744382495335,0 80.01149446332695,6.366874277988169,0 80.0115670920172,6.366775497901176,0 80.01163139960634,6.366672084444024,0 80.01168777886599,6.366564256320505,0 80.01174777757097,6.366458443582904,0 80.01180446744796,6.36635078841787,0 80.01186676968852,6.3662462583389985,0 80.0119238324203,6.366138810787631,0 80.01198070354629,6.366031256545993,0 80.01204010395348,6.365925110663171,0 80.01209243041949,6.3658150258559605,0 80.0121577595734,6.365712181228301,0 80.0122167541118,6.365605809348898,0 80.0122751433386,6.365499100418823,0 80.01233823880456,6.365395012025116,0 80.0124030168023,6.3652918605017055,0 80.01246376970936,6.365186467720225,0 80.01252709047571,6.365082504778685,0 80.01259069169224,6.364978697997893,0 80.01266149699951,6.364878902611583,0 80.0127228837498,6.364773862767807,0 80.01278723282924,6.364670472413355,0 80.0128411471663,6.364561271767305,0 80.01290201817818,6.364455944749165,0 80.01296594915465,6.364352321585877,0 80.01303359063552,6.364250764512185,0 80.01309556911788,6.36414605415771,0 80.01315722345717,6.364041163313314,0 80.01320969931982,6.363931161693407,0 80.01326668132721,6.3638236691929455,0 80.01332951589626,6.363719435526157,0 80.01338736588852,6.363612426338557,0 80.01345388416344,6.363510243839357,0 80.0135214038768,6.363408618962862,0 80.0135852723106,6.363304960974462,0 80.01364755199388,6.363200418335207,0 80.01370389262667,6.3630925687034114,0 80.01376675655284,6.362988351383311,0 80.01381603892503,6.362876571558436,0 80.01387973588139,6.362772818087666,0 80.01394650134891,6.36267077323068,0 80.01400877962719,6.3625662298090875,0 80.01406947293349,6.362460803840612,0 80.01413810337955,6.362359797444257,0 80.01420771036014,6.362259334803566,0 80.01427388879274,6.362156963072772,0 80.01433413684633,6.3620512891778915,0 80.01439769401317,6.3619474578692845,0 80.01445618186577,6.361840803856202,0 80.01451438070988,6.361733988916897,0 80.01458069652327,6.361631693682701,0 80.01464668536607,6.361529216384177,0 80.014702819239,6.361421251623996,0 80.01475892376416,6.361313270522332,0 80.0148212987368,6.361208780942267,0 80.0148770317912,6.3611005929976,0 80.01492309193029,6.360987018963218,0 80.01498457194437,6.360882031050759,0 80.01504428431244,6.360776058874532,0 80.01510613658051,6.3606712782411785,0 80.01516873788866,6.36056691468965,0 80.0152254183671,6.360459254291306,0 80.015281043272,6.36035100612665,0 80.01533630584039,6.360242556205148,0 80.01539537148314,6.360136223918178,0 80.01544722725026,6.360025877015601,0 80.01550221096949,6.359917271824806,0 80.01555381732351,6.359806786043579,0 80.01561370976063,6.359700914133719,0 80.01565994499028,6.359587437593571,0 80.01571360146191,6.359478093362439,0 80.01577059488102,6.35937060721627,0 80.01582966286288,6.359264276231786,0 80.01588118131393,6.359153741504275,0 80.0159344492249,6.359044180914106,0 80.0159932640473,6.358937708964919,0 80.01604348053755,6.358826449277305,0 80.0160968740635,6.358716958632303,0 80.0161548158207,6.358610000541416,0 80.01620558739461,6.358499049936453,0 80.01625093713787,6.358385080338225,0 80.0163018629571,6.358274215620426,0 80.01634175412653,6.358157206569503,0 80.01636772884457,6.358032448535656,0 80.01639423530666,6.357907986588459,0 80.01640033697997,6.3577721628108925,0 80.0164110354435,6.357638898626137,0 80.01641691693352,6.35750295224573,0 80.0163608489264,6.357332511037362,0 80.01634496874527,6.35718444728494,0</coordinates>
      </LineString>
    </Placemark>

    <!-- Risk band polygons -->
    
    <Placemark>
      <name>HIGH Risk Zone (0-2)</name>
      <description><![CDATA[
        <b>Date:</b> 2026-07-06<br/>
        <b>Transects:</b> 0 to 2<br/>
        <b>Mean change:</b> -14.09 m<br/>
        <b>Worst retreat:</b> -17.94 m<br/>
      ]]></description>
      <styleUrl>#risk2</styleUrl>
      <Polygon>
        <tessellate>1</tessellate>
        <outerBoundaryIs>
          <LinearRing>
            <coordinates>80.01085592020883,6.367910936506444,0 80.01091974838118,6.367807256099601,0 80.01099259724535,6.3677085986102355,0 80.01092492417497,6.367670916772174,0 80.01079589128436,6.367738289773118,0 80.01071470041485,6.367832302252403,0 80.01085592020883,6.367910936506444,0</coordinates>
          </LinearRing>
        </outerBoundaryIs>
      </Polygon>
    </Placemark>
        

    <Placemark>
      <name>MED Risk Zone (3-4)</name>
      <description><![CDATA[
        <b>Date:</b> 2026-07-06<br/>
        <b>Transects:</b> 3 to 4<br/>
        <b>Mean change:</b> -7.73 m<br/>
        <b>Worst retreat:</b> -7.94 m<br/>
      ]]></description>
      <styleUrl>#risk1</styleUrl>
      <Polygon>
        <tessellate>1</tessellate>
        <outerBoundaryIs>
          <LinearRing>
            <coordinates>80.01106544610953,6.367609941120871,0 80.01113829497369,6.367511283631506,0 80.0110757637525,6.36747646488695,0 80.01100629658144,6.36757700537662,0 80.01106544610953,6.367609941120871,0</coordinates>
          </LinearRing>
        </outerBoundaryIs>
      </Polygon>
    </Placemark>
        

    <Placemark>
      <name>HIGH Risk Zone (5-10)</name>
      <description><![CDATA[
        <b>Date:</b> 2026-07-06<br/>
        <b>Transects:</b> 5 to 10<br/>
        <b>Mean change:</b> -8.57 m<br/>
        <b>Worst retreat:</b> -9.43 m<br/>
      ]]></description>
      <styleUrl>#risk2</styleUrl>
      <Polygon>
        <tessellate>1</tessellate>
        <outerBoundaryIs>
          <LinearRing>
            <coordinates>80.01121114383787,6.367412626142142,0 80.01128219597899,6.367312968198287,0 80.01135239041248,6.3672128326641655,0 80.01142258484597,6.367112697130044,0 80.01149206170554,6.367012162035148,0 80.01155933148307,6.366910397988937,0 80.01149446332695,6.366874277988169,0 80.01142431330128,6.3669744382495335,0 80.01134832333146,6.367071346702928,0 80.01128509751948,6.367175362517133,0 80.01121520167199,6.367275664310438,0 80.01114775559218,6.367377330187694,0 80.01121114383787,6.367412626142142,0</coordinates>
          </LinearRing>
        </outerBoundaryIs>
      </Polygon>
    </Placemark>
        

    <Placemark>
      <name>MED Risk Zone (11-12)</name>
      <description><![CDATA[
        <b>Date:</b> 2026-07-06<br/>
        <b>Transects:</b> 11 to 12<br/>
        <b>Mean change:</b> -7.69 m<br/>
        <b>Worst retreat:</b> -7.81 m<br/>
      ]]></description>
      <styleUrl>#risk1</styleUrl>
      <Polygon>
        <tessellate>1</tessellate>
        <outerBoundaryIs>
          <LinearRing>
            <coordinates>80.01162660126057,6.366808633942727,0 80.01169290257674,6.366706330636171,0 80.01163139960634,6.366672084444024,0 80.0115670920172,6.366775497901176,0 80.01162660126057,6.366808633942727,0</coordinates>
          </LinearRing>
        </outerBoundaryIs>
      </Polygon>
    </Placemark>
        

    <Placemark>
      <name>HIGH Risk Zone (13-15)</name>
      <description><![CDATA[
        <b>Date:</b> 2026-07-06<br/>
        <b>Transects:</b> 13 to 15<br/>
        <b>Mean change:</b> -9.19 m<br/>
        <b>Worst retreat:</b> -9.72 m<br/>
      ]]></description>
      <styleUrl>#risk2</styleUrl>
      <Polygon>
        <tessellate>1</tessellate>
        <outerBoundaryIs>
          <LinearRing>
            <coordinates>80.01175628004837,6.366602399269351,0 80.01181965752,6.366498467902533,0 80.01188101334714,6.366393410840072,0 80.01180446744796,6.36635078841787,0 80.01174777757097,6.366458443582904,0 80.01168777886599,6.366564256320505,0 80.01175628004837,6.366602399269351,0</coordinates>
          </LinearRing>
        </outerBoundaryIs>
      </Polygon>
    </Placemark>
        

    <Placemark>
      <name>MED Risk Zone (16-22)</name>
      <description><![CDATA[
        <b>Date:</b> 2026-07-06<br/>
        <b>Transects:</b> 16 to 22<br/>
        <b>Mean change:</b> -6.13 m<br/>
        <b>Worst retreat:</b> -7.71 m<br/>
      ]]></description>
      <styleUrl>#risk1</styleUrl>
      <Polygon>
        <tessellate>1</tessellate>
        <outerBoundaryIs>
          <LinearRing>
            <coordinates>80.01192470938443,6.366278520422378,0 80.01196840542174,6.366163630004685,0 80.01201210145904,6.366048739586992,0 80.01207522301402,6.365944665720221,0 80.0121444306059,6.365843980691207,0 80.01221363819776,6.365743295662194,0 80.01227740241835,6.3656395796456176,0 80.0122167541118,6.365605809348898,0 80.0121577595734,6.365712181228301,0 80.01209243041949,6.3658150258559605,0 80.01204010395348,6.365925110663171,0 80.01198070354629,6.366031256545993,0 80.0119238324203,6.366138810787631,0 80.01186676968852,6.3662462583389985,0 80.01192470938443,6.366278520422378,0</coordinates>
          </LinearRing>
        </outerBoundaryIs>
      </Polygon>
    </Placemark>
        

    <Placemark>
      <name>MED Risk Zone (24-26)</name>
      <description><![CDATA[
        <b>Date:</b> 2026-07-06<br/>
        <b>Transects:</b> 24 to 26<br/>
        <b>Mean change:</b> -7.78 m<br/>
        <b>Worst retreat:</b> -7.96 m<br/>
      ]]></description>
      <styleUrl>#risk1</styleUrl>
      <Polygon>
        <tessellate>1</tessellate>
        <outerBoundaryIs>
          <LinearRing>
            <coordinates>80.01240041864595,6.365429635113753,0 80.0124619560966,6.365324679183214,0 80.01252639310188,6.36522133778779,0 80.01246376970936,6.365186467720225,0 80.0124030168023,6.3652918605017055,0 80.01233823880456,6.365395012025116,0 80.01240041864595,6.365429635113753,0</coordinates>
          </LinearRing>
        </outerBoundaryIs>
      </Polygon>
    </Placemark>
        

    <Placemark>
      <name>HIGH Risk Zone (27-28)</name>
      <description><![CDATA[
        <b>Date:</b> 2026-07-06<br/>
        <b>Transects:</b> 27 to 28<br/>
        <b>Mean change:</b> -8.15 m<br/>
        <b>Worst retreat:</b> -8.20 m<br/>
      ]]></description>
      <styleUrl>#risk2</styleUrl>
      <Polygon>
        <tessellate>1</tessellate>
        <outerBoundaryIs>
          <LinearRing>
            <coordinates>80.01259083010716,6.365117996392365,0 80.01265526711244,6.36501465499694,0 80.01259069169224,6.364978697997893,0 80.01252709047571,6.365082504778685,0 80.01259083010716,6.365117996392365,0</coordinates>
          </LinearRing>
        </outerBoundaryIs>
      </Polygon>
    </Placemark>
        

    <Placemark>
      <name>HIGH Risk Zone (30-34)</name>
      <description><![CDATA[
        <b>Date:</b> 2026-07-06<br/>
        <b>Transects:</b> 30 to 34<br/>
        <b>Mean change:</b> -8.89 m<br/>
        <b>Worst retreat:</b> -10.09 m<br/>
      ]]></description>
      <styleUrl>#risk2</styleUrl>
      <Polygon>
        <tessellate>1</tessellate>
        <outerBoundaryIs>
          <LinearRing>
            <coordinates>80.01278792112913,6.3648100769957425,0 80.01285476342463,6.364708074918249,0 80.01292057379776,6.364605498243924,0 80.01297549147854,6.364496856281493,0 80.01303040915934,6.364388214319062,0 80.01296594915465,6.364352321585877,0 80.01290201817818,6.364455944749165,0 80.0128411471663,6.364561271767305,0 80.01278723282924,6.364670472413355,0 80.0127228837498,6.364773862767807,0 80.01278792112913,6.3648100769957425,0</coordinates>
          </LinearRing>
        </outerBoundaryIs>
      </Polygon>
    </Placemark>
        

    <Placemark>
      <name>MED Risk Zone (35-38)</name>
      <description><![CDATA[
        <b>Date:</b> 2026-07-06<br/>
        <b>Transects:</b> 35 to 38<br/>
        <b>Mean change:</b> -6.78 m<br/>
        <b>Worst retreat:</b> -7.69 m<br/>
      ]]></description>
      <styleUrl>#risk1</styleUrl>
      <Polygon>
        <tessellate>1</tessellate>
        <outerBoundaryIs>
          <LinearRing>
            <coordinates>80.01308532684013,6.36427957235663,0 80.01314603189802,6.364174152931697,0 80.01320812307878,6.36406950533014,0 80.01327021425955,6.363964857728583,0 80.01320969931982,6.363931161693407,0 80.01315722345717,6.364041163313314,0 80.01309556911788,6.36414605415771,0 80.01303359063552,6.364250764512185,0 80.01308532684013,6.36427957235663,0</coordinates>
          </LinearRing>
        </outerBoundaryIs>
      </Polygon>
    </Placemark>
        

    <Placemark>
      <name>HIGH Risk Zone (39-53)</name>
      <description><![CDATA[
        <b>Date:</b> 2026-07-06<br/>
        <b>Transects:</b> 39 to 53<br/>
        <b>Mean change:</b> -9.98 m<br/>
        <b>Worst retreat:</b> -12.04 m<br/>
      ]]></description>
      <styleUrl>#risk2</styleUrl>
      <Polygon>
        <tessellate>1</tessellate>
        <outerBoundaryIs>
          <LinearRing>
            <coordinates>80.01333436416651,6.363861356470555,0 80.01340051195606,6.363758967677038,0 80.01346665974562,6.363656578883521,0 80.01353280753517,6.363554190090005,0 80.01359648475866,6.363450425631547,0 80.01365934370115,6.363346205536418,0 80.01372220264363,6.363241985441289,0 80.0137850615861,6.363137765346162,0 80.01384792052859,6.3630335452510325,0 80.01391077947108,6.362929325155903,0 80.01397363841356,6.362825105060775,0 80.0140315560278,6.362718133526564,0 80.01408877113928,6.362610770823531,0 80.01414598625077,6.3625034081204985,0 80.01420320136224,6.3623960454174675,0 80.01413810337955,6.362359797444257,0 80.01406947293349,6.362460803840612,0 80.01400877962719,6.3625662298090875,0 80.01394650134891,6.36267077323068,0 80.01387973588139,6.362772818087666,0 80.01381603892503,6.362876571558436,0 80.01376675655284,6.362988351383311,0 80.01370389262667,6.3630925687034114,0 80.01364755199388,6.363200418335207,0 80.0135852723106,6.363304960974462,0 80.0135214038768,6.363408618962862,0 80.01345388416344,6.363510243839357,0 80.01338736588852,6.363612426338557,0 80.01332951589626,6.363719435526157,0 80.01326668132721,6.3638236691929455,0 80.01333436416651,6.363861356470555,0</coordinates>
          </LinearRing>
        </outerBoundaryIs>
      </Polygon>
    </Placemark>
        

    <Placemark>
      <name>MED Risk Zone (54-73)</name>
      <description><![CDATA[
        <b>Date:</b> 2026-07-06<br/>
        <b>Transects:</b> 54 to 73<br/>
        <b>Mean change:</b> -5.53 m<br/>
        <b>Worst retreat:</b> -7.51 m<br/>
      ]]></description>
      <styleUrl>#risk1</styleUrl>
      <Polygon>
        <tessellate>1</tessellate>
        <outerBoundaryIs>
          <LinearRing>
            <coordinates>80.01426063141463,6.3622888023982025,0 80.0143233444353,6.362184501050635,0 80.01438605745597,6.362080199703067,0 80.01444877047663,6.3619758983554995,0 80.0145114834973,6.361871597007932,0 80.01456851977437,6.361764134725998,0 80.01462442901928,6.361656044888042,0 80.01468033826417,6.361547955050083,0 80.01473624750908,6.361439865212126,0 80.01479215675397,6.361331775374167,0 80.01484806599889,6.361223685536209,0 80.01490631136967,6.361116896503975,0 80.01496634221732,6.361011101664108,0 80.01502637306497,6.360905306824242,0 80.0150864039126,6.360799511984375,0 80.01514643476027,6.360693717144508,0 80.01520646560792,6.360587922304641,0 80.01526649645557,6.360482127464774,0 80.01533087289377,6.360378752344278,0 80.01539541462388,6.360275469261924,0 80.01533630584039,6.360242556205148,0 80.015281043272,6.36035100612665,0 80.0152254183671,6.360459254291306,0 80.01516873788866,6.36056691468965,0 80.01510613658051,6.3606712782411785,0 80.01504428431244,6.360776058874532,0 80.01498457194437,6.360882031050759,0 80.01492309193029,6.360987018963218,0 80.0148770317912,6.3611005929976,0 80.0148212987368,6.361208780942267,0 80.01475892376416,6.361313270522332,0 80.014702819239,6.361421251623996,0 80.01464668536607,6.361529216384177,0 80.01458069652327,6.361631693682701,0 80.01451438070988,6.361733988916897,0 80.01445618186577,6.361840803856202,0 80.01439769401317,6.3619474578692845,0 80.01433413684633,6.3620512891778915,0 80.01427388879274,6.362156963072772,0 80.01420771036014,6.362259334803566,0 80.01426063141463,6.3622888023982025,0</coordinates>
          </LinearRing>
        </outerBoundaryIs>
      </Polygon>
    </Placemark>
        

    <Placemark>
      <name>HIGH Risk Zone (74-78)</name>
      <description><![CDATA[
        <b>Date:</b> 2026-07-06<br/>
        <b>Transects:</b> 74 to 78<br/>
        <b>Mean change:</b> -10.08 m<br/>
        <b>Worst retreat:</b> -12.29 m<br/>
      ]]></description>
      <styleUrl>#risk2</styleUrl>
      <Polygon>
        <tessellate>1</tessellate>
        <outerBoundaryIs>
          <LinearRing>
            <coordinates>80.01545995635402,6.360172186179571,0 80.01552449808415,6.360068903097217,0 80.01558903981426,6.3599656200148615,0 80.01565053812315,6.359860642289339,0 80.01568513023207,6.359740682606235,0 80.01561370976063,6.359700914133719,0 80.01555381732351,6.359806786043579,0 80.01550221096949,6.359917271824806,0 80.01544722725026,6.360025877015601,0 80.01539537148314,6.360136223918178,0 80.01545995635402,6.360172186179571,0</coordinates>
          </LinearRing>
        </outerBoundaryIs>
      </Polygon>
    </Placemark>
        

    <Placemark>
      <name>MED Risk Zone (79-80)</name>
      <description><![CDATA[
        <b>Date:</b> 2026-07-06<br/>
        <b>Transects:</b> 79 to 80<br/>
        <b>Mean change:</b> -6.38 m<br/>
        <b>Worst retreat:</b> -7.59 m<br/>
      ]]></description>
      <styleUrl>#risk1</styleUrl>
      <Polygon>
        <tessellate>1</tessellate>
        <outerBoundaryIs>
          <LinearRing>
            <coordinates>80.015719722341,6.359620722923131,0 80.01575431444992,6.3595007632400264,0 80.01571360146191,6.359478093362439,0 80.01565994499028,6.359587437593571,0 80.015719722341,6.359620722923131,0</coordinates>
          </LinearRing>
        </outerBoundaryIs>
      </Polygon>
    </Placemark>
        

    <Placemark>
      <name>LOW Risk Zone (81-99)</name>
      <description><![CDATA[
        <b>Date:</b> 2026-07-06<br/>
        <b>Transects:</b> 81 to 99<br/>
        <b>Mean change:</b> 2.34 m<br/>
        <b>Worst retreat:</b> -2.76 m<br/>
      ]]></description>
      <styleUrl>#risk0</styleUrl>
      <Polygon>
        <tessellate>1</tessellate>
        <outerBoundaryIs>
          <LinearRing>
            <coordinates>80.01579233245756,6.359382711171877,0 80.0158421393807,6.359271223428376,0 80.01589194630381,6.359159735684874,0 80.01594175322695,6.359048247941372,0 80.01599156015007,6.35893676019787,0 80.0160413670732,6.358825272454369,0 80.01607658363089,6.35870566047793,0 80.01610856893764,6.358584249270654,0 80.01614055424439,6.358462838063378,0 80.01618385867627,6.358347729591268,0 80.01622749974311,6.358232808564827,0 80.01627114080996,6.358117887538386,0 80.0163147818768,6.358002966511944,0 80.01635842294365,6.357888045485504,0 80.01640206401049,6.357773124459063,0 80.01641599883577,6.357641662350953,0 80.01641483335224,6.3575017920623385,0 80.01637488528931,6.3573403267896476,0 80.01636052141126,6.35719310734777,0 80.01634496874527,6.35718444728494,0 80.0163608489264,6.357332511037362,0 80.01641691693352,6.35750295224573,0 80.0164110354435,6.357638898626137,0 80.01640033697997,6.3577721628108925,0 80.01639423530666,6.357907986588459,0 80.01636772884457,6.358032448535656,0 80.01634175412653,6.358157206569503,0 80.0163018629571,6.358274215620426,0 80.01625093713787,6.358385080338225,0 80.01620558739461,6.358499049936453,0 80.0161548158207,6.358610000541416,0 80.0160968740635,6.358716958632303,0 80.01604348053755,6.358826449277305,0 80.0159932640473,6.358937708964919,0 80.0159344492249,6.359044180914106,0 80.01588118131393,6.359153741504275,0 80.01582966286288,6.359264276231786,0 80.01577059488102,6.35937060721627,0 80.01579233245756,6.359382711171877,0</coordinates>
          </LinearRing>
        </outerBoundaryIs>
      </Polygon>
    </Placemark>
        

    <!-- Hotspot pins -->
    
    <Placemark>
      <name>Hotspot #1: -17.94 m (HIGH)</name>
      <description><![CDATA[
        <b>Date:</b> 2026-07-06<br/>
        <b>Transect:</b> 0<br/>
        <b>Change:</b> -17.94 m<br/>
        <b>Risk:</b> HIGH<br/>
      ]]></description>
      <styleUrl>#hotspot</styleUrl>
      <Point><coordinates>80.01078531031183,6.367871619379423,0</coordinates></Point>
    </Placemark>
        

    <Placemark>
      <name>Hotspot #2: -15.74 m (HIGH)</name>
      <description><![CDATA[
        <b>Date:</b> 2026-07-06<br/>
        <b>Transect:</b> 1<br/>
        <b>Change:</b> -15.74 m<br/>
        <b>Risk:</b> HIGH<br/>
      ]]></description>
      <styleUrl>#hotspot</styleUrl>
      <Point><coordinates>80.01085781983278,6.367772772936359,0</coordinates></Point>
    </Placemark>
        

    <Placemark>
      <name>Hotspot #3: -12.29 m (HIGH)</name>
      <description><![CDATA[
        <b>Date:</b> 2026-07-06<br/>
        <b>Transect:</b> 77<br/>
        <b>Change:</b> -12.29 m<br/>
        <b>Risk:</b> HIGH<br/>
      ]]></description>
      <styleUrl>#hotspot</styleUrl>
      <Point><coordinates>80.01560217772334,6.359833714166459,0</coordinates></Point>
    </Placemark>
        

    <Placemark>
      <name>Hotspot #4: -12.04 m (HIGH)</name>
      <description><![CDATA[
        <b>Date:</b> 2026-07-06<br/>
        <b>Transect:</b> 48<br/>
        <b>Change:</b> -12.04 m<br/>
        <b>Risk:</b> HIGH<br/>
      ]]></description>
      <styleUrl>#hotspot</styleUrl>
      <Point><coordinates>80.01386340919805,6.36290294835717,0</coordinates></Point>
    </Placemark>
        

    <Placemark>
      <name>Hotspot #5: -11.93 m (HIGH)</name>
      <description><![CDATA[
        <b>Date:</b> 2026-07-06<br/>
        <b>Transect:</b> 49<br/>
        <b>Change:</b> -11.93 m<br/>
        <b>Risk:</b> HIGH<br/>
      ]]></description>
      <styleUrl>#hotspot</styleUrl>
      <Point><coordinates>80.01392668714747,6.362798961574221,0</coordinates></Point>
    </Placemark>
        

    <Placemark>
      <name>Hotspot #6: -11.03 m (HIGH)</name>
      <description><![CDATA[
        <b>Date:</b> 2026-07-06<br/>
        <b>Transect:</b> 76<br/>
        <b>Change:</b> -11.03 m<br/>
        <b>Risk:</b> HIGH<br/>
      ]]></description>
      <styleUrl>#hotspot</styleUrl>
      <Point><coordinates>80.01554562539187,6.359941445919834,0</coordinates></Point>
    </Placemark>
        

    <Placemark>
      <name>Hotspot #7: -10.81 m (HIGH)</name>
      <description><![CDATA[
        <b>Date:</b> 2026-07-06<br/>
        <b>Transect:</b> 50<br/>
        <b>Change:</b> -10.81 m<br/>
        <b>Risk:</b> HIGH<br/>
      ]]></description>
      <styleUrl>#hotspot</styleUrl>
      <Point><coordinates>80.01398902868836,6.362694453378622,0</coordinates></Point>
    </Placemark>
        

  </Document>
</kml>
