<?xml version="1.0" encoding="UTF-8"?>
<kml xmlns="http://www.opengis.net/kml/2.2">
  <Document>
    <name>WOW Risk Map — 2026-03-12</name>
    
      <description><![CDATA[
        <h3>Shoreline Risk Forecast</h3>
        <b>Date:</b> 2026-03-12<br/>
        <b>Mean change:</b> -5.42 m<br/>
        <b>Max retreat:</b> -27.86 m<br/>
        <b>Max advance:</b> 23.92 m<br/>
        <hr/>
        <b>Predicted Sea Conditions:</b><br/>Wind Speed: 0.9831 m/s<br/>Wind Gust: 4.0433 m/s<br/>Sea Level Pressure: 101099.0252 Pa<br/>Total Precipitation: 0.0002 m/day<br/>Sig. Wave Height: 0.7188 m<br/>Wave Peak Period: 13.4675 s<br/>Wave Direction: 193.3045 °<br/>Wave Energy Proxy: 0.5284 m²
      ]]></description>
    

    
    <Style id="refLine">
      <LineStyle><color>ffffffff</color><width>3</width></LineStyle>
    </Style>
    <Style id="fcLine">
      <LineStyle><color>ff0000ff</color><width>3</width></LineStyle>
    </Style>
    <Style id="hotspot">
      <IconStyle>
        <scale>1.2</scale>
        <Icon><href>http://maps.google.com/mapfiles/kml/paddle/red-circle.png</href></Icon>
      </IconStyle>
      <LabelStyle><scale>0.9</scale></LabelStyle>
    </Style>
    
    
    <Style id="risk2">
      <LineStyle><color>ff0000ff</color><width>4</width></LineStyle>
      <PolyStyle><color>7f0000ff</color><fill>1</fill><outline>1</outline></PolyStyle>
    </Style>

    <Style id="risk1">
      <LineStyle><color>ff00a5ff</color><width>4</width></LineStyle>
      <PolyStyle><color>7f00a5ff</color><fill>1</fill><outline>1</outline></PolyStyle>
    </Style>

    <Style id="risk0">
      <LineStyle><color>ff00ff00</color><width>4</width></LineStyle>
      <PolyStyle><color>7f00ff00</color><fill>1</fill><outline>1</outline></PolyStyle>
    </Style>

    <!-- Reference shoreline -->
    <Placemark>
      <name>Current Shoreline (Reference)</name>
      <styleUrl>#refLine</styleUrl>
      <LineString><tessellate>1</tessellate>
        <coordinates>80.01085592020883,6.367910936506444,0 80.01091974838118,6.367807256099601,0 80.01099259724535,6.3677085986102355,0 80.01106544610953,6.367609941120871,0 80.01113829497369,6.367511283631506,0 80.01121114383787,6.367412626142142,0 80.01128219597899,6.367312968198287,0 80.01135239041248,6.3672128326641655,0 80.01142258484597,6.367112697130044,0 80.01149206170554,6.367012162035148,0 80.01155933148307,6.366910397988937,0 80.01162660126057,6.366808633942727,0 80.01169290257674,6.366706330636171,0 80.01175628004837,6.366602399269351,0 80.01181965752,6.366498467902533,0 80.01188101334714,6.366393410840072,0 80.01192470938443,6.366278520422378,0 80.01196840542174,6.366163630004685,0 80.01201210145904,6.366048739586992,0 80.01207522301402,6.365944665720221,0 80.0121444306059,6.365843980691207,0 80.01221363819776,6.365743295662194,0 80.01227740241835,6.3656395796456176,0 80.01233891053215,6.3655346073796855,0 80.01240041864595,6.365429635113753,0 80.0124619560966,6.365324679183214,0 80.01252639310188,6.36522133778779,0 80.01259083010716,6.365117996392365,0 80.01265526711244,6.36501465499694,0 80.01272107883362,6.364912079073236,0 80.01278792112913,6.3648100769957425,0 80.01285476342463,6.364708074918249,0 80.01292057379776,6.364605498243924,0 80.01297549147854,6.364496856281493,0 80.01303040915934,6.364388214319062,0 80.01308532684013,6.36427957235663,0 80.01314603189802,6.364174152931697,0 80.01320812307878,6.36406950533014,0 80.01327021425955,6.363964857728583,0 80.01333436416651,6.363861356470555,0 80.01340051195606,6.363758967677038,0 80.01346665974562,6.363656578883521,0 80.01353280753517,6.363554190090005,0 80.01359648475866,6.363450425631547,0 80.01365934370115,6.363346205536418,0 80.01372220264363,6.363241985441289,0 80.0137850615861,6.363137765346162,0 80.01384792052859,6.3630335452510325,0 80.01391077947108,6.362929325155903,0 80.01397363841356,6.362825105060775,0 80.0140315560278,6.362718133526564,0 80.01408877113928,6.362610770823531,0 80.01414598625077,6.3625034081204985,0 80.01420320136224,6.3623960454174675,0 80.01426063141463,6.3622888023982025,0 80.0143233444353,6.362184501050635,0 80.01438605745597,6.362080199703067,0 80.01444877047663,6.3619758983554995,0 80.0145114834973,6.361871597007932,0 80.01456851977437,6.361764134725998,0 80.01462442901928,6.361656044888042,0 80.01468033826417,6.361547955050083,0 80.01473624750908,6.361439865212126,0 80.01479215675397,6.361331775374167,0 80.01484806599889,6.361223685536209,0 80.01490631136967,6.361116896503975,0 80.01496634221732,6.361011101664108,0 80.01502637306497,6.360905306824242,0 80.0150864039126,6.360799511984375,0 80.01514643476027,6.360693717144508,0 80.01520646560792,6.360587922304641,0 80.01526649645557,6.360482127464774,0 80.01533087289377,6.360378752344278,0 80.01539541462388,6.360275469261924,0 80.01545995635402,6.360172186179571,0 80.01552449808415,6.360068903097217,0 80.01558903981426,6.3599656200148615,0 80.01565053812315,6.359860642289339,0 80.01568513023207,6.359740682606235,0 80.015719722341,6.359620722923131,0 80.01575431444992,6.3595007632400264,0 80.01579233245756,6.359382711171877,0 80.0158421393807,6.359271223428376,0 80.01589194630381,6.359159735684874,0 80.01594175322695,6.359048247941372,0 80.01599156015007,6.35893676019787,0 80.0160413670732,6.358825272454369,0 80.01607658363089,6.35870566047793,0 80.01610856893764,6.358584249270654,0 80.01614055424439,6.358462838063378,0 80.01618385867627,6.358347729591268,0 80.01622749974311,6.358232808564827,0 80.01627114080996,6.358117887538386,0 80.0163147818768,6.358002966511944,0 80.01635842294365,6.357888045485504,0 80.01640206401049,6.357773124459063,0 80.01641599883577,6.357641662350953,0 80.01641483335224,6.3575017920623385,0 80.01637488528931,6.3573403267896476,0 80.01636052141126,6.35719310734777,0</coordinates>
      </LineString>
    </Placemark>

    <!-- Forecast shoreline -->
    <Placemark>
      <name>Forecast Shoreline (2026-03-12)</name>
      <styleUrl>#fcLine</styleUrl>
      <LineString><tessellate>1</tessellate>
        <coordinates>80.0106366601298,6.367788847723636,0 80.01071366184262,6.367692502630756,0 80.01082033407816,6.367612678730521,0 80.01092063231181,6.367529305647347,0 80.01100292898829,6.36743590890545,0 80.0110678672032,6.367332846594438,0 80.01113970714701,6.367233627316267,0 80.01121423544214,6.36713590497061,0 80.01129018667363,6.367038974946874,0 80.01135922426006,6.366938195255135,0 80.01141571931316,6.366830431607923,0 80.01147826001412,6.3667260343089875,0 80.01153968100427,6.366621013530716,0 80.01161689666456,6.366524787568447,0 80.01168941272218,6.3664259447651546,0 80.01174956106712,6.366320215350325,0 80.01181547397867,6.366217695771626,0 80.01187036983583,6.366109041657329,0 80.0119306839751,6.366003404560398,0 80.01199005065901,6.36589723989971,0 80.01205133676596,6.365792144015533,0 80.01210278672593,6.365681571150693,0 80.01216954321825,6.36557952129612,0 80.01223414671875,6.36547627260886,0 80.01230341081693,6.365375619043793,0 80.01236302905359,6.365269594453143,0 80.01242740976635,6.365166221712815,0 80.01248412174303,6.36505857885338,0 80.0125475435762,6.364954672188039,0 80.01260922299913,6.364849795310758,0 80.01267851950342,6.364749159790116,0 80.0127348085567,6.3646412814377245,0 80.01279558928837,6.364535904149597,0 80.01286012710237,6.364432618886662,0 80.01292480470262,6.364329411459738,0 80.01298952953299,6.3642262303315835,0 80.01304521325912,6.364118014919872,0 80.01310552122276,6.3640123743842185,0 80.01317078871476,6.363909495421873,0 80.01323556919964,6.363806345283351,0 80.01329542123476,6.363700450876779,0 80.01335598147907,6.363594950816495,0 80.0134279234185,6.3634957883317025,0 80.01349414079525,6.363393438285846,0 80.013557766808,6.3632896453121335,0 80.01362471119438,6.3631877000810615,0 80.01368413152838,6.36308156529391,0 80.01374338111039,6.362975335428337,0 80.01380764046438,6.36287189511281,0 80.01387641650295,6.362770969785525,0 80.01394352991387,6.362669118670998,0 80.01400420564042,6.362563682913727,0 80.01406633147536,6.362459054608375,0 80.01413264651464,6.362356758943139,0 80.01419836917775,6.362254133429963,0 80.01426246842303,6.362150603962421,0 80.01432867907855,6.362048250174039,0 80.01438988507851,6.361943109684554,0 80.01445291216889,6.361838983217837,0 80.01452292065204,6.361738744142504,0 80.0145953004948,6.361639825491819,0 80.014670975302,6.361542741549021,0 80.0147337238921,6.361438460007286,0 80.01479628462296,6.361334073861439,0 80.01485244156805,6.361226121948331,0 80.0149114286086,6.3611197458939595,0 80.01496320223654,6.361009353254494,0 80.01502435021212,6.360904180455765,0 80.01508890320123,6.360800903642659,0 80.0151468279374,6.36069393607409,0 80.01520788209235,6.360588711033993,0 80.01526986893217,6.360484005333127,0 80.01532904545006,6.360377734783863,0 80.0153967826398,6.360276231002947,0 80.0154544894146,6.360169142068744,0 80.01551562493971,6.36006396233733,0 80.01557450182831,6.359957524947951,0 80.01563634159508,6.359852737353616,0 80.0156940117779,6.359745628044201,0 80.01574973240136,6.359637433177721,0 80.0158119740069,6.3595328693359425,0 80.01587676058978,6.359429722592935,0 80.01594429300214,6.359328104787523,0 80.01599822692934,6.359218915049693,0 80.01606585383739,6.3591173498615285,0 80.01611689587966,6.359006549859248,0 80.01617394801471,6.358899096407394,0 80.01622719036196,6.358789521582797,0 80.01627373929318,6.358676219718518,0 80.01632879289136,6.358567653437833,0 80.01636994926697,6.358451348881254,0 80.01641032945889,6.358334612128705,0 80.01644682856121,6.35821571430102,0 80.0164629303302,6.358085458794322,0 80.01648450865271,6.35795825275177,0 80.01649759890071,6.357826320364655,0 80.01649918074601,6.3576879798485,0 80.01648834757982,6.357542726383827,0 80.01642122775058,6.357366131280437,0 80.01636272713648,6.357194335543565,0</coordinates>
      </LineString>
    </Placemark>

    <!-- Risk band polygons -->
    
    <Placemark>
      <name>HIGH Risk Zone (0-53)</name>
      <description><![CDATA[
        <b>Date:</b> 2026-03-12<br/>
        <b>Transects:</b> 0 to 53<br/>
        <b>Mean change:</b> -14.70 m<br/>
        <b>Worst retreat:</b> -27.86 m<br/>
      ]]></description>
      <styleUrl>#risk2</styleUrl>
      <Polygon>
        <tessellate>1</tessellate>
        <outerBoundaryIs>
          <LinearRing>
            <coordinates>80.01085592020883,6.367910936506444,0 80.01091974838118,6.367807256099601,0 80.01099259724535,6.3677085986102355,0 80.01106544610953,6.367609941120871,0 80.01113829497369,6.367511283631506,0 80.01121114383787,6.367412626142142,0 80.01128219597899,6.367312968198287,0 80.01135239041248,6.3672128326641655,0 80.01142258484597,6.367112697130044,0 80.01149206170554,6.367012162035148,0 80.01155933148307,6.366910397988937,0 80.01162660126057,6.366808633942727,0 80.01169290257674,6.366706330636171,0 80.01175628004837,6.366602399269351,0 80.01181965752,6.366498467902533,0 80.01188101334714,6.366393410840072,0 80.01192470938443,6.366278520422378,0 80.01196840542174,6.366163630004685,0 80.01201210145904,6.366048739586992,0 80.01207522301402,6.365944665720221,0 80.0121444306059,6.365843980691207,0 80.01221363819776,6.365743295662194,0 80.01227740241835,6.3656395796456176,0 80.01233891053215,6.3655346073796855,0 80.01240041864595,6.365429635113753,0 80.0124619560966,6.365324679183214,0 80.01252639310188,6.36522133778779,0 80.01259083010716,6.365117996392365,0 80.01265526711244,6.36501465499694,0 80.01272107883362,6.364912079073236,0 80.01278792112913,6.3648100769957425,0 80.01285476342463,6.364708074918249,0 80.01292057379776,6.364605498243924,0 80.01297549147854,6.364496856281493,0 80.01303040915934,6.364388214319062,0 80.01308532684013,6.36427957235663,0 80.01314603189802,6.364174152931697,0 80.01320812307878,6.36406950533014,0 80.01327021425955,6.363964857728583,0 80.01333436416651,6.363861356470555,0 80.01340051195606,6.363758967677038,0 80.01346665974562,6.363656578883521,0 80.01353280753517,6.363554190090005,0 80.01359648475866,6.363450425631547,0 80.01365934370115,6.363346205536418,0 80.01372220264363,6.363241985441289,0 80.0137850615861,6.363137765346162,0 80.01384792052859,6.3630335452510325,0 80.01391077947108,6.362929325155903,0 80.01397363841356,6.362825105060775,0 80.0140315560278,6.362718133526564,0 80.01408877113928,6.362610770823531,0 80.01414598625077,6.3625034081204985,0 80.01420320136224,6.3623960454174675,0 80.01413264651464,6.362356758943139,0 80.01406633147536,6.362459054608375,0 80.01400420564042,6.362563682913727,0 80.01394352991387,6.362669118670998,0 80.01387641650295,6.362770969785525,0 80.01380764046438,6.36287189511281,0 80.01374338111039,6.362975335428337,0 80.01368413152838,6.36308156529391,0 80.01362471119438,6.3631877000810615,0 80.013557766808,6.3632896453121335,0 80.01349414079525,6.363393438285846,0 80.0134279234185,6.3634957883317025,0 80.01335598147907,6.363594950816495,0 80.01329542123476,6.363700450876779,0 80.01323556919964,6.363806345283351,0 80.01317078871476,6.363909495421873,0 80.01310552122276,6.3640123743842185,0 80.01304521325912,6.364118014919872,0 80.01298952953299,6.3642262303315835,0 80.01292480470262,6.364329411459738,0 80.01286012710237,6.364432618886662,0 80.01279558928837,6.364535904149597,0 80.0127348085567,6.3646412814377245,0 80.01267851950342,6.364749159790116,0 80.01260922299913,6.364849795310758,0 80.0125475435762,6.364954672188039,0 80.01248412174303,6.36505857885338,0 80.01242740976635,6.365166221712815,0 80.01236302905359,6.365269594453143,0 80.01230341081693,6.365375619043793,0 80.01223414671875,6.36547627260886,0 80.01216954321825,6.36557952129612,0 80.01210278672593,6.365681571150693,0 80.01205133676596,6.365792144015533,0 80.01199005065901,6.36589723989971,0 80.0119306839751,6.366003404560398,0 80.01187036983583,6.366109041657329,0 80.01181547397867,6.366217695771626,0 80.01174956106712,6.366320215350325,0 80.01168941272218,6.3664259447651546,0 80.01161689666456,6.366524787568447,0 80.01153968100427,6.366621013530716,0 80.01147826001412,6.3667260343089875,0 80.01141571931316,6.366830431607923,0 80.01135922426006,6.366938195255135,0 80.01129018667363,6.367038974946874,0 80.01121423544214,6.36713590497061,0 80.01113970714701,6.367233627316267,0 80.0110678672032,6.367332846594438,0 80.01100292898829,6.36743590890545,0 80.01092063231181,6.367529305647347,0 80.01082033407816,6.367612678730521,0 80.01071366184262,6.367692502630756,0 80.0106366601298,6.367788847723636,0 80.01085592020883,6.367910936506444,0</coordinates>
          </LinearRing>
        </outerBoundaryIs>
      </Polygon>
    </Placemark>
        

    <Placemark>
      <name>MED Risk Zone (54-60)</name>
      <description><![CDATA[
        <b>Date:</b> 2026-03-12<br/>
        <b>Transects:</b> 54 to 60<br/>
        <b>Mean change:</b> -6.76 m<br/>
        <b>Worst retreat:</b> -7.91 m<br/>
      ]]></description>
      <styleUrl>#risk1</styleUrl>
      <Polygon>
        <tessellate>1</tessellate>
        <outerBoundaryIs>
          <LinearRing>
            <coordinates>80.01426063141463,6.3622888023982025,0 80.0143233444353,6.362184501050635,0 80.01438605745597,6.362080199703067,0 80.01444877047663,6.3619758983554995,0 80.0145114834973,6.361871597007932,0 80.01456851977437,6.361764134725998,0 80.01462442901928,6.361656044888042,0 80.0145953004948,6.361639825491819,0 80.01452292065204,6.361738744142504,0 80.01445291216889,6.361838983217837,0 80.01438988507851,6.361943109684554,0 80.01432867907855,6.362048250174039,0 80.01426246842303,6.362150603962421,0 80.01419836917775,6.362254133429963,0 80.01426063141463,6.3622888023982025,0</coordinates>
          </LinearRing>
        </outerBoundaryIs>
      </Polygon>
    </Placemark>
        

    <Placemark>
      <name>LOW Risk Zone (61-99)</name>
      <description><![CDATA[
        <b>Date:</b> 2026-03-12<br/>
        <b>Transects:</b> 61 to 99<br/>
        <b>Mean change:</b> 7.67 m<br/>
        <b>Worst retreat:</b> -1.85 m<br/>
      ]]></description>
      <styleUrl>#risk0</styleUrl>
      <Polygon>
        <tessellate>1</tessellate>
        <outerBoundaryIs>
          <LinearRing>
            <coordinates>80.01468033826417,6.361547955050083,0 80.01473624750908,6.361439865212126,0 80.01479215675397,6.361331775374167,0 80.01484806599889,6.361223685536209,0 80.01490631136967,6.361116896503975,0 80.01496634221732,6.361011101664108,0 80.01502637306497,6.360905306824242,0 80.0150864039126,6.360799511984375,0 80.01514643476027,6.360693717144508,0 80.01520646560792,6.360587922304641,0 80.01526649645557,6.360482127464774,0 80.01533087289377,6.360378752344278,0 80.01539541462388,6.360275469261924,0 80.01545995635402,6.360172186179571,0 80.01552449808415,6.360068903097217,0 80.01558903981426,6.3599656200148615,0 80.01565053812315,6.359860642289339,0 80.01568513023207,6.359740682606235,0 80.015719722341,6.359620722923131,0 80.01575431444992,6.3595007632400264,0 80.01579233245756,6.359382711171877,0 80.0158421393807,6.359271223428376,0 80.01589194630381,6.359159735684874,0 80.01594175322695,6.359048247941372,0 80.01599156015007,6.35893676019787,0 80.0160413670732,6.358825272454369,0 80.01607658363089,6.35870566047793,0 80.01610856893764,6.358584249270654,0 80.01614055424439,6.358462838063378,0 80.01618385867627,6.358347729591268,0 80.01622749974311,6.358232808564827,0 80.01627114080996,6.358117887538386,0 80.0163147818768,6.358002966511944,0 80.01635842294365,6.357888045485504,0 80.01640206401049,6.357773124459063,0 80.01641599883577,6.357641662350953,0 80.01641483335224,6.3575017920623385,0 80.01637488528931,6.3573403267896476,0 80.01636052141126,6.35719310734777,0 80.01636272713648,6.357194335543565,0 80.01642122775058,6.357366131280437,0 80.01648834757982,6.357542726383827,0 80.01649918074601,6.3576879798485,0 80.01649759890071,6.357826320364655,0 80.01648450865271,6.35795825275177,0 80.0164629303302,6.358085458794322,0 80.01644682856121,6.35821571430102,0 80.01641032945889,6.358334612128705,0 80.01636994926697,6.358451348881254,0 80.01632879289136,6.358567653437833,0 80.01627373929318,6.358676219718518,0 80.01622719036196,6.358789521582797,0 80.01617394801471,6.358899096407394,0 80.01611689587966,6.359006549859248,0 80.01606585383739,6.3591173498615285,0 80.01599822692934,6.359218915049693,0 80.01594429300214,6.359328104787523,0 80.01587676058978,6.359429722592935,0 80.0158119740069,6.3595328693359425,0 80.01574973240136,6.359637433177721,0 80.0156940117779,6.359745628044201,0 80.01563634159508,6.359852737353616,0 80.01557450182831,6.359957524947951,0 80.01551562493971,6.36006396233733,0 80.0154544894146,6.360169142068744,0 80.0153967826398,6.360276231002947,0 80.01532904545006,6.360377734783863,0 80.01526986893217,6.360484005333127,0 80.01520788209235,6.360588711033993,0 80.0151468279374,6.36069393607409,0 80.01508890320123,6.360800903642659,0 80.01502435021212,6.360904180455765,0 80.01496320223654,6.361009353254494,0 80.0149114286086,6.3611197458939595,0 80.01485244156805,6.361226121948331,0 80.01479628462296,6.361334073861439,0 80.0147337238921,6.361438460007286,0 80.014670975302,6.361542741549021,0 80.01468033826417,6.361547955050083,0</coordinates>
          </LinearRing>
        </outerBoundaryIs>
      </Polygon>
    </Placemark>
        

    <!-- Hotspot pins -->
    
    <Placemark>
      <name>Hotspot #1: -27.86 m (HIGH)</name>
      <description><![CDATA[
        <b>Date:</b> 2026-03-12<br/>
        <b>Transect:</b> 0<br/>
        <b>Change:</b> -27.86 m<br/>
        <b>Risk:</b> HIGH<br/>
      ]]></description>
      <styleUrl>#hotspot</styleUrl>
      <Point><coordinates>80.01074629016932,6.36784989211504,0</coordinates></Point>
    </Placemark>
        

    <Placemark>
      <name>Hotspot #2: -26.18 m (HIGH)</name>
      <description><![CDATA[
        <b>Date:</b> 2026-03-12<br/>
        <b>Transect:</b> 1<br/>
        <b>Change:</b> -26.18 m<br/>
        <b>Risk:</b> HIGH<br/>
      ]]></description>
      <styleUrl>#hotspot</styleUrl>
      <Point><coordinates>80.01081670511189,6.367749879365178,0</coordinates></Point>
    </Placemark>
        

    <Placemark>
      <name>Hotspot #3: -21.89 m (HIGH)</name>
      <description><![CDATA[
        <b>Date:</b> 2026-03-12<br/>
        <b>Transect:</b> 2<br/>
        <b>Change:</b> -21.89 m<br/>
        <b>Risk:</b> HIGH<br/>
      ]]></description>
      <styleUrl>#hotspot</styleUrl>
      <Point><coordinates>80.01090646566175,6.367660638670378,0</coordinates></Point>
    </Placemark>
        

    <Placemark>
      <name>Hotspot #4: -19.47 m (HIGH)</name>
      <description><![CDATA[
        <b>Date:</b> 2026-03-12<br/>
        <b>Transect:</b> 12<br/>
        <b>Change:</b> -19.47 m<br/>
        <b>Risk:</b> HIGH<br/>
      ]]></description>
      <styleUrl>#hotspot</styleUrl>
      <Point><coordinates>80.0116162917905,6.366663672083444,0</coordinates></Point>
    </Placemark>
        

    <Placemark>
      <name>Hotspot #5: -18.85 m (HIGH)</name>
      <description><![CDATA[
        <b>Date:</b> 2026-03-12<br/>
        <b>Transect:</b> 11<br/>
        <b>Change:</b> -18.85 m<br/>
        <b>Risk:</b> HIGH<br/>
      ]]></description>
      <styleUrl>#hotspot</styleUrl>
      <Point><coordinates>80.01155243063735,6.366767334125857,0</coordinates></Point>
    </Placemark>
        

    <Placemark>
      <name>Hotspot #6: -18.40 m (HIGH)</name>
      <description><![CDATA[
        <b>Date:</b> 2026-03-12<br/>
        <b>Transect:</b> 3<br/>
        <b>Change:</b> -18.40 m<br/>
        <b>Risk:</b> HIGH<br/>
      ]]></description>
      <styleUrl>#hotspot</styleUrl>
      <Point><coordinates>80.01099303921066,6.367569623384108,0</coordinates></Point>
    </Placemark>
        

    <Placemark>
      <name>Hotspot #7: -18.25 m (HIGH)</name>
      <description><![CDATA[
        <b>Date:</b> 2026-03-12<br/>
        <b>Transect:</b> 10<br/>
        <b>Change:</b> -18.25 m<br/>
        <b>Risk:</b> HIGH<br/>
      ]]></description>
      <styleUrl>#hotspot</styleUrl>
      <Point><coordinates>80.01148752539811,6.36687041479843,0</coordinates></Point>
    </Placemark>
        

  </Document>
</kml>
