<?xml version="1.0" encoding="UTF-8"?>
<kml xmlns="http://www.opengis.net/kml/2.2">
  <Document>
    <name>WOW Risk Map — 2026-05-22</name>
    
      <description><![CDATA[
        <h3>Shoreline Risk Forecast</h3>
        <b>Date:</b> 2026-05-22<br/>
        <b>Mean change:</b> -2.28 m<br/>
        <b>Max retreat:</b> -14.90 m<br/>
        <b>Max advance:</b> 16.04 m<br/>
        <hr/>
        <b>Predicted Sea Conditions:</b><br/>Wind Speed: 3.8185 m/s<br/>Wind Gust: 7.4892 m/s<br/>Sea Level Pressure: 100899.7308 Pa<br/>Total Precipitation: 0.0005 m/day<br/>Sig. Wave Height: 1.5381 m<br/>Wave Peak Period: 10.9686 s<br/>Wave Direction: 225.5055 °<br/>Wave Energy Proxy: 2.6383 m²
      ]]></description>
    

    
    <Style id="refLine">
      <LineStyle><color>ffffffff</color><width>3</width></LineStyle>
    </Style>
    <Style id="fcLine">
      <LineStyle><color>ff0000ff</color><width>3</width></LineStyle>
    </Style>
    <Style id="hotspot">
      <IconStyle>
        <scale>1.2</scale>
        <Icon><href>http://maps.google.com/mapfiles/kml/paddle/red-circle.png</href></Icon>
      </IconStyle>
      <LabelStyle><scale>0.9</scale></LabelStyle>
    </Style>
    
    
    <Style id="risk2">
      <LineStyle><color>ff0000ff</color><width>4</width></LineStyle>
      <PolyStyle><color>7f0000ff</color><fill>1</fill><outline>1</outline></PolyStyle>
    </Style>

    <Style id="risk1">
      <LineStyle><color>ff00a5ff</color><width>4</width></LineStyle>
      <PolyStyle><color>7f00a5ff</color><fill>1</fill><outline>1</outline></PolyStyle>
    </Style>

    <Style id="risk0">
      <LineStyle><color>ff00ff00</color><width>4</width></LineStyle>
      <PolyStyle><color>7f00ff00</color><fill>1</fill><outline>1</outline></PolyStyle>
    </Style>

    <!-- Reference shoreline -->
    <Placemark>
      <name>Current Shoreline (Reference)</name>
      <styleUrl>#refLine</styleUrl>
      <LineString><tessellate>1</tessellate>
        <coordinates>80.01085592020883,6.367910936506444,0 80.01091974838118,6.367807256099601,0 80.01099259724535,6.3677085986102355,0 80.01106544610953,6.367609941120871,0 80.01113829497369,6.367511283631506,0 80.01121114383787,6.367412626142142,0 80.01128219597899,6.367312968198287,0 80.01135239041248,6.3672128326641655,0 80.01142258484597,6.367112697130044,0 80.01149206170554,6.367012162035148,0 80.01155933148307,6.366910397988937,0 80.01162660126057,6.366808633942727,0 80.01169290257674,6.366706330636171,0 80.01175628004837,6.366602399269351,0 80.01181965752,6.366498467902533,0 80.01188101334714,6.366393410840072,0 80.01192470938443,6.366278520422378,0 80.01196840542174,6.366163630004685,0 80.01201210145904,6.366048739586992,0 80.01207522301402,6.365944665720221,0 80.0121444306059,6.365843980691207,0 80.01221363819776,6.365743295662194,0 80.01227740241835,6.3656395796456176,0 80.01233891053215,6.3655346073796855,0 80.01240041864595,6.365429635113753,0 80.0124619560966,6.365324679183214,0 80.01252639310188,6.36522133778779,0 80.01259083010716,6.365117996392365,0 80.01265526711244,6.36501465499694,0 80.01272107883362,6.364912079073236,0 80.01278792112913,6.3648100769957425,0 80.01285476342463,6.364708074918249,0 80.01292057379776,6.364605498243924,0 80.01297549147854,6.364496856281493,0 80.01303040915934,6.364388214319062,0 80.01308532684013,6.36427957235663,0 80.01314603189802,6.364174152931697,0 80.01320812307878,6.36406950533014,0 80.01327021425955,6.363964857728583,0 80.01333436416651,6.363861356470555,0 80.01340051195606,6.363758967677038,0 80.01346665974562,6.363656578883521,0 80.01353280753517,6.363554190090005,0 80.01359648475866,6.363450425631547,0 80.01365934370115,6.363346205536418,0 80.01372220264363,6.363241985441289,0 80.0137850615861,6.363137765346162,0 80.01384792052859,6.3630335452510325,0 80.01391077947108,6.362929325155903,0 80.01397363841356,6.362825105060775,0 80.0140315560278,6.362718133526564,0 80.01408877113928,6.362610770823531,0 80.01414598625077,6.3625034081204985,0 80.01420320136224,6.3623960454174675,0 80.01426063141463,6.3622888023982025,0 80.0143233444353,6.362184501050635,0 80.01438605745597,6.362080199703067,0 80.01444877047663,6.3619758983554995,0 80.0145114834973,6.361871597007932,0 80.01456851977437,6.361764134725998,0 80.01462442901928,6.361656044888042,0 80.01468033826417,6.361547955050083,0 80.01473624750908,6.361439865212126,0 80.01479215675397,6.361331775374167,0 80.01484806599889,6.361223685536209,0 80.01490631136967,6.361116896503975,0 80.01496634221732,6.361011101664108,0 80.01502637306497,6.360905306824242,0 80.0150864039126,6.360799511984375,0 80.01514643476027,6.360693717144508,0 80.01520646560792,6.360587922304641,0 80.01526649645557,6.360482127464774,0 80.01533087289377,6.360378752344278,0 80.01539541462388,6.360275469261924,0 80.01545995635402,6.360172186179571,0 80.01552449808415,6.360068903097217,0 80.01558903981426,6.3599656200148615,0 80.01565053812315,6.359860642289339,0 80.01568513023207,6.359740682606235,0 80.015719722341,6.359620722923131,0 80.01575431444992,6.3595007632400264,0 80.01579233245756,6.359382711171877,0 80.0158421393807,6.359271223428376,0 80.01589194630381,6.359159735684874,0 80.01594175322695,6.359048247941372,0 80.01599156015007,6.35893676019787,0 80.0160413670732,6.358825272454369,0 80.01607658363089,6.35870566047793,0 80.01610856893764,6.358584249270654,0 80.01614055424439,6.358462838063378,0 80.01618385867627,6.358347729591268,0 80.01622749974311,6.358232808564827,0 80.01627114080996,6.358117887538386,0 80.0163147818768,6.358002966511944,0 80.01635842294365,6.357888045485504,0 80.01640206401049,6.357773124459063,0 80.01641599883577,6.357641662350953,0 80.01641483335224,6.3575017920623385,0 80.01637488528931,6.3573403267896476,0 80.01636052141126,6.35719310734777,0</coordinates>
      </LineString>
    </Placemark>

    <!-- Forecast shoreline -->
    <Placemark>
      <name>Forecast Shoreline (2026-05-22)</name>
      <styleUrl>#fcLine</styleUrl>
      <LineString><tessellate>1</tessellate>
        <coordinates>80.01073865637002,6.3678456414494935,0 80.01083522015746,6.3677601889454065,0 80.01092142021555,6.3676689656913235,0 80.01099995728579,6.36757347551887,0 80.01107977656703,6.367478699309398,0 80.01116275999044,6.367385684963125,0 80.01122594185533,6.367281644678216,0 80.01129088676849,6.367178586096953,0 80.01136442160075,6.3670803105695475,0 80.0114293856907,6.366977262666337,0 80.0114985334687,6.366876544331648,0 80.0115697422641,6.366776973616308,0 80.01163951519814,6.366676603382124,0 80.01170270506238,6.366572567551433,0 80.01177133647884,6.366471561695417,0 80.01183792224646,6.366369416777606,0 80.01189059678968,6.366259525787377,0 80.01194901141756,6.366152831001169,0 80.01200992993203,6.366047530433506,0 80.01207352421666,6.365943719792889,0 80.01214064990162,6.365841875512808,0 80.01220639606716,6.365739263086295,0 80.01226894914133,6.365634872677038,0 80.01232726663697,6.365528123805495,0 80.01238092410283,6.365418780127969,0 80.0124370665651,6.365310820150508,0 80.01249345192427,6.365202995423342,0 80.01254925184803,6.3650948447129885,0 80.01260384254552,6.364986020679146,0 80.01266221270463,6.364879301131769,0 80.01272679826661,6.364776042455936,0 80.01278774882609,6.364670759731631,0 80.01284925674533,6.364565787357364,0 80.01290827622019,6.3644594293631265,0 80.01296298643972,6.364350671881742,0 80.01302282548441,6.364244770241815,0 80.0130883189372,6.364142017099359,0 80.01315253814602,6.364038554430115,0 80.0132138531234,6.363933474621626,0 80.01328426460594,6.36383345994513,0 80.01334407788902,6.363727543960573,0 80.0134135042446,6.363626980743961,0 80.0134851811656,6.363527670691146,0 80.01355060168594,6.363424876938298,0 80.0136088311979,6.36331807907552,0 80.01367106867679,6.363213512935939,0 80.01372821321301,6.363106110935074,0 80.01378566327212,6.362998879055988,0 80.01384737136638,6.362894018143531,0 80.01391075044758,6.3627900876729555,0 80.01397790667096,6.36268826039733,0 80.01404030412542,6.362583783335634,0 80.01410100882148,6.362478363709224,0 80.01416582561653,6.362375233789005,0 80.01423317233898,6.362273512587402,0 80.01429395778976,6.362168137926986,0 80.0143524704926,6.362061497751052,0 80.01441117488308,6.361954964310974,0 80.01447154264703,6.361849357073437,0 80.01452968006261,6.361742507929386,0 80.01459333534795,6.361638731255293,0 80.01465158867182,6.36153194665151,0 80.01471064836159,6.3614256110498015,0 80.01476915608137,6.361318968099196,0 80.01483119757282,6.3612142928295405,0 80.0148925531396,6.3611092356221155,0 80.01495094701906,6.361002529282737,0 80.01501054171919,6.360896491586446,0 80.01507165156411,6.360791297555739,0 80.01513146972947,6.36068538428974,0 80.01519056993696,6.360579071249182,0 80.01524965568525,6.360472750157431,0 80.0153076146643,6.36036580165604,0 80.01537102203311,6.360261886936629,0 80.01543680020535,6.360159292332145,0 80.01550144865121,6.360056068671432,0 80.01556515256719,6.3599523190759335,0 80.01562416570911,6.3598459575553745,0 80.01568021152613,6.359737943763746,0 80.01573832918271,6.359631083617457,0 80.01578889391642,6.359520017839377,0 80.01584114868861,6.359409893111499,0 80.01588845668782,6.359297013912786,0 80.01593979507436,6.359186378921439,0 80.01599425145328,6.359077480096086,0 80.01605081247911,6.358969753183932,0 80.01611061932459,6.358863833614784,0 80.01616377078606,6.358754208183013,0 80.01621125181246,6.358641425329602,0 80.0162635698833,6.358531335847775,0 80.01630662468975,6.3584160883788,0 80.01635378310527,6.358303125888637,0 80.01638985786167,6.358183991775908,0 80.01642423932869,6.358063914802811,0 80.01645654031263,6.357942679371459,0 80.01647491088407,6.357813687183329,0 80.01647791758063,6.357676140055361,0 80.01645677147152,6.357525144119669,0 80.01638962291052,6.3573485330178094,0 80.01636480341122,6.357195491658522,0</coordinates>
      </LineString>
    </Placemark>

    <!-- Risk band polygons -->
    
    <Placemark>
      <name>HIGH Risk Zone (0-3)</name>
      <description><![CDATA[
        <b>Date:</b> 2026-05-22<br/>
        <b>Transects:</b> 0 to 3<br/>
        <b>Mean change:</b> -10.75 m<br/>
        <b>Worst retreat:</b> -14.90 m<br/>
      ]]></description>
      <styleUrl>#risk2</styleUrl>
      <Polygon>
        <tessellate>1</tessellate>
        <outerBoundaryIs>
          <LinearRing>
            <coordinates>80.01085592020883,6.367910936506444,0 80.01091974838118,6.367807256099601,0 80.01099259724535,6.3677085986102355,0 80.01106544610953,6.367609941120871,0 80.01099995728579,6.36757347551887,0 80.01092142021555,6.3676689656913235,0 80.01083522015746,6.3677601889454065,0 80.01073865637002,6.3678456414494935,0 80.01085592020883,6.367910936506444,0</coordinates>
          </LinearRing>
        </outerBoundaryIs>
      </Polygon>
    </Placemark>
        

    <Placemark>
      <name>MED Risk Zone (4-16)</name>
      <description><![CDATA[
        <b>Date:</b> 2026-05-22<br/>
        <b>Transects:</b> 4 to 16<br/>
        <b>Mean change:</b> -6.80 m<br/>
        <b>Worst retreat:</b> -7.96 m<br/>
      ]]></description>
      <styleUrl>#risk1</styleUrl>
      <Polygon>
        <tessellate>1</tessellate>
        <outerBoundaryIs>
          <LinearRing>
            <coordinates>80.01113829497369,6.367511283631506,0 80.01121114383787,6.367412626142142,0 80.01128219597899,6.367312968198287,0 80.01135239041248,6.3672128326641655,0 80.01142258484597,6.367112697130044,0 80.01149206170554,6.367012162035148,0 80.01155933148307,6.366910397988937,0 80.01162660126057,6.366808633942727,0 80.01169290257674,6.366706330636171,0 80.01175628004837,6.366602399269351,0 80.01181965752,6.366498467902533,0 80.01188101334714,6.366393410840072,0 80.01192470938443,6.366278520422378,0 80.01189059678968,6.366259525787377,0 80.01183792224646,6.366369416777606,0 80.01177133647884,6.366471561695417,0 80.01170270506238,6.366572567551433,0 80.01163951519814,6.366676603382124,0 80.0115697422641,6.366776973616308,0 80.0114985334687,6.366876544331648,0 80.0114293856907,6.366977262666337,0 80.01136442160075,6.3670803105695475,0 80.01129088676849,6.367178586096953,0 80.01122594185533,6.367281644678216,0 80.01116275999044,6.367385684963125,0 80.01107977656703,6.367478699309398,0 80.01113829497369,6.367511283631506,0</coordinates>
          </LinearRing>
        </outerBoundaryIs>
      </Polygon>
    </Placemark>
        

    <Placemark>
      <name>LOW Risk Zone (17-24)</name>
      <description><![CDATA[
        <b>Date:</b> 2026-05-22<br/>
        <b>Transects:</b> 17 to 24<br/>
        <b>Mean change:</b> -1.17 m<br/>
        <b>Worst retreat:</b> -2.48 m<br/>
      ]]></description>
      <styleUrl>#risk0</styleUrl>
      <Polygon>
        <tessellate>1</tessellate>
        <outerBoundaryIs>
          <LinearRing>
            <coordinates>80.01196840542174,6.366163630004685,0 80.01201210145904,6.366048739586992,0 80.01207522301402,6.365944665720221,0 80.0121444306059,6.365843980691207,0 80.01221363819776,6.365743295662194,0 80.01227740241835,6.3656395796456176,0 80.01233891053215,6.3655346073796855,0 80.01240041864595,6.365429635113753,0 80.01238092410283,6.365418780127969,0 80.01232726663697,6.365528123805495,0 80.01226894914133,6.365634872677038,0 80.01220639606716,6.365739263086295,0 80.01214064990162,6.365841875512808,0 80.01207352421666,6.365943719792889,0 80.01200992993203,6.366047530433506,0 80.01194901141756,6.366152831001169,0 80.01196840542174,6.366163630004685,0</coordinates>
          </LinearRing>
        </outerBoundaryIs>
      </Polygon>
    </Placemark>
        

    <Placemark>
      <name>MED Risk Zone (25-30)</name>
      <description><![CDATA[
        <b>Date:</b> 2026-05-22<br/>
        <b>Transects:</b> 25 to 30<br/>
        <b>Mean change:</b> -5.73 m<br/>
        <b>Worst retreat:</b> -7.77 m<br/>
      ]]></description>
      <styleUrl>#risk1</styleUrl>
      <Polygon>
        <tessellate>1</tessellate>
        <outerBoundaryIs>
          <LinearRing>
            <coordinates>80.0124619560966,6.365324679183214,0 80.01252639310188,6.36522133778779,0 80.01259083010716,6.365117996392365,0 80.01265526711244,6.36501465499694,0 80.01272107883362,6.364912079073236,0 80.01278792112913,6.3648100769957425,0 80.01272679826661,6.364776042455936,0 80.01266221270463,6.364879301131769,0 80.01260384254552,6.364986020679146,0 80.01254925184803,6.3650948447129885,0 80.01249345192427,6.365202995423342,0 80.0124370665651,6.365310820150508,0 80.0124619560966,6.365324679183214,0</coordinates>
          </LinearRing>
        </outerBoundaryIs>
      </Polygon>
    </Placemark>
        

    <Placemark>
      <name>HIGH Risk Zone (31-34)</name>
      <description><![CDATA[
        <b>Date:</b> 2026-05-22<br/>
        <b>Transects:</b> 31 to 34<br/>
        <b>Mean change:</b> -8.67 m<br/>
        <b>Worst retreat:</b> -9.06 m<br/>
      ]]></description>
      <styleUrl>#risk2</styleUrl>
      <Polygon>
        <tessellate>1</tessellate>
        <outerBoundaryIs>
          <LinearRing>
            <coordinates>80.01285476342463,6.364708074918249,0 80.01292057379776,6.364605498243924,0 80.01297549147854,6.364496856281493,0 80.01303040915934,6.364388214319062,0 80.01296298643972,6.364350671881742,0 80.01290827622019,6.3644594293631265,0 80.01284925674533,6.364565787357364,0 80.01278774882609,6.364670759731631,0 80.01285476342463,6.364708074918249,0</coordinates>
          </LinearRing>
        </outerBoundaryIs>
      </Polygon>
    </Placemark>
        

    <Placemark>
      <name>MED Risk Zone (35-47)</name>
      <description><![CDATA[
        <b>Date:</b> 2026-05-22<br/>
        <b>Transects:</b> 35 to 47<br/>
        <b>Mean change:</b> -6.90 m<br/>
        <b>Worst retreat:</b> -7.94 m<br/>
      ]]></description>
      <styleUrl>#risk1</styleUrl>
      <Polygon>
        <tessellate>1</tessellate>
        <outerBoundaryIs>
          <LinearRing>
            <coordinates>80.01308532684013,6.36427957235663,0 80.01314603189802,6.364174152931697,0 80.01320812307878,6.36406950533014,0 80.01327021425955,6.363964857728583,0 80.01333436416651,6.363861356470555,0 80.01340051195606,6.363758967677038,0 80.01346665974562,6.363656578883521,0 80.01353280753517,6.363554190090005,0 80.01359648475866,6.363450425631547,0 80.01365934370115,6.363346205536418,0 80.01372220264363,6.363241985441289,0 80.0137850615861,6.363137765346162,0 80.01384792052859,6.3630335452510325,0 80.01378566327212,6.362998879055988,0 80.01372821321301,6.363106110935074,0 80.01367106867679,6.363213512935939,0 80.0136088311979,6.36331807907552,0 80.01355060168594,6.363424876938298,0 80.0134851811656,6.363527670691146,0 80.0134135042446,6.363626980743961,0 80.01334407788902,6.363727543960573,0 80.01328426460594,6.36383345994513,0 80.0132138531234,6.363933474621626,0 80.01315253814602,6.364038554430115,0 80.0130883189372,6.364142017099359,0 80.01302282548441,6.364244770241815,0 80.01308532684013,6.36427957235663,0</coordinates>
          </LinearRing>
        </outerBoundaryIs>
      </Polygon>
    </Placemark>
        

    <Placemark>
      <name>MED Risk Zone (49-62)</name>
      <description><![CDATA[
        <b>Date:</b> 2026-05-22<br/>
        <b>Transects:</b> 49 to 62<br/>
        <b>Mean change:</b> -4.90 m<br/>
        <b>Worst retreat:</b> -7.99 m<br/>
      ]]></description>
      <styleUrl>#risk1</styleUrl>
      <Polygon>
        <tessellate>1</tessellate>
        <outerBoundaryIs>
          <LinearRing>
            <coordinates>80.01397363841356,6.362825105060775,0 80.0140315560278,6.362718133526564,0 80.01408877113928,6.362610770823531,0 80.01414598625077,6.3625034081204985,0 80.01420320136224,6.3623960454174675,0 80.01426063141463,6.3622888023982025,0 80.0143233444353,6.362184501050635,0 80.01438605745597,6.362080199703067,0 80.01444877047663,6.3619758983554995,0 80.0145114834973,6.361871597007932,0 80.01456851977437,6.361764134725998,0 80.01462442901928,6.361656044888042,0 80.01468033826417,6.361547955050083,0 80.01473624750908,6.361439865212126,0 80.01471064836159,6.3614256110498015,0 80.01465158867182,6.36153194665151,0 80.01459333534795,6.361638731255293,0 80.01452968006261,6.361742507929386,0 80.01447154264703,6.361849357073437,0 80.01441117488308,6.361954964310974,0 80.0143524704926,6.362061497751052,0 80.01429395778976,6.362168137926986,0 80.01423317233898,6.362273512587402,0 80.01416582561653,6.362375233789005,0 80.01410100882148,6.362478363709224,0 80.01404030412542,6.362583783335634,0 80.01397790667096,6.36268826039733,0 80.01391075044758,6.3627900876729555,0 80.01397363841356,6.362825105060775,0</coordinates>
          </LinearRing>
        </outerBoundaryIs>
      </Polygon>
    </Placemark>
        

    <Placemark>
      <name>LOW Risk Zone (63-72)</name>
      <description><![CDATA[
        <b>Date:</b> 2026-05-22<br/>
        <b>Transects:</b> 63 to 72<br/>
        <b>Mean change:</b> -2.17 m<br/>
        <b>Worst retreat:</b> -2.95 m<br/>
      ]]></description>
      <styleUrl>#risk0</styleUrl>
      <Polygon>
        <tessellate>1</tessellate>
        <outerBoundaryIs>
          <LinearRing>
            <coordinates>80.01479215675397,6.361331775374167,0 80.01484806599889,6.361223685536209,0 80.01490631136967,6.361116896503975,0 80.01496634221732,6.361011101664108,0 80.01502637306497,6.360905306824242,0 80.0150864039126,6.360799511984375,0 80.01514643476027,6.360693717144508,0 80.01520646560792,6.360587922304641,0 80.01526649645557,6.360482127464774,0 80.01533087289377,6.360378752344278,0 80.0153076146643,6.36036580165604,0 80.01524965568525,6.360472750157431,0 80.01519056993696,6.360579071249182,0 80.01513146972947,6.36068538428974,0 80.01507165156411,6.360791297555739,0 80.01501054171919,6.360896491586446,0 80.01495094701906,6.361002529282737,0 80.0148925531396,6.3611092356221155,0 80.01483119757282,6.3612142928295405,0 80.01476915608137,6.361318968099196,0 80.01479215675397,6.361331775374167,0</coordinates>
          </LinearRing>
        </outerBoundaryIs>
      </Polygon>
    </Placemark>
        

    <Placemark>
      <name>LOW Risk Zone (74-75)</name>
      <description><![CDATA[
        <b>Date:</b> 2026-05-22<br/>
        <b>Transects:</b> 74 to 75<br/>
        <b>Mean change:</b> -2.94 m<br/>
        <b>Worst retreat:</b> -2.94 m<br/>
      ]]></description>
      <styleUrl>#risk0</styleUrl>
      <Polygon>
        <tessellate>1</tessellate>
        <outerBoundaryIs>
          <LinearRing>
            <coordinates>80.01545995635402,6.360172186179571,0 80.01552449808415,6.360068903097217,0 80.01550144865121,6.360056068671432,0 80.01543680020535,6.360159292332145,0 80.01545995635402,6.360172186179571,0</coordinates>
          </LinearRing>
        </outerBoundaryIs>
      </Polygon>
    </Placemark>
        

    <Placemark>
      <name>MED Risk Zone (76-77)</name>
      <description><![CDATA[
        <b>Date:</b> 2026-05-22<br/>
        <b>Transects:</b> 76 to 77<br/>
        <b>Mean change:</b> -3.19 m<br/>
        <b>Worst retreat:</b> -3.35 m<br/>
      ]]></description>
      <styleUrl>#risk1</styleUrl>
      <Polygon>
        <tessellate>1</tessellate>
        <outerBoundaryIs>
          <LinearRing>
            <coordinates>80.01558903981426,6.3599656200148615,0 80.01565053812315,6.359860642289339,0 80.01562416570911,6.3598459575553745,0 80.01556515256719,6.3599523190759335,0 80.01558903981426,6.3599656200148615,0</coordinates>
          </LinearRing>
        </outerBoundaryIs>
      </Polygon>
    </Placemark>
        

    <Placemark>
      <name>LOW Risk Zone (78-99)</name>
      <description><![CDATA[
        <b>Date:</b> 2026-05-22<br/>
        <b>Transects:</b> 78 to 99<br/>
        <b>Mean change:</b> 8.41 m<br/>
        <b>Worst retreat:</b> -0.62 m<br/>
      ]]></description>
      <styleUrl>#risk0</styleUrl>
      <Polygon>
        <tessellate>1</tessellate>
        <outerBoundaryIs>
          <LinearRing>
            <coordinates>80.01568513023207,6.359740682606235,0 80.015719722341,6.359620722923131,0 80.01575431444992,6.3595007632400264,0 80.01579233245756,6.359382711171877,0 80.0158421393807,6.359271223428376,0 80.01589194630381,6.359159735684874,0 80.01594175322695,6.359048247941372,0 80.01599156015007,6.35893676019787,0 80.0160413670732,6.358825272454369,0 80.01607658363089,6.35870566047793,0 80.01610856893764,6.358584249270654,0 80.01614055424439,6.358462838063378,0 80.01618385867627,6.358347729591268,0 80.01622749974311,6.358232808564827,0 80.01627114080996,6.358117887538386,0 80.0163147818768,6.358002966511944,0 80.01635842294365,6.357888045485504,0 80.01640206401049,6.357773124459063,0 80.01641599883577,6.357641662350953,0 80.01641483335224,6.3575017920623385,0 80.01637488528931,6.3573403267896476,0 80.01636052141126,6.35719310734777,0 80.01636480341122,6.357195491658522,0 80.01638962291052,6.3573485330178094,0 80.01645677147152,6.357525144119669,0 80.01647791758063,6.357676140055361,0 80.01647491088407,6.357813687183329,0 80.01645654031263,6.357942679371459,0 80.01642423932869,6.358063914802811,0 80.01638985786167,6.358183991775908,0 80.01635378310527,6.358303125888637,0 80.01630662468975,6.3584160883788,0 80.0162635698833,6.358531335847775,0 80.01621125181246,6.358641425329602,0 80.01616377078606,6.358754208183013,0 80.01611061932459,6.358863833614784,0 80.01605081247911,6.358969753183932,0 80.01599425145328,6.359077480096086,0 80.01593979507436,6.359186378921439,0 80.01588845668782,6.359297013912786,0 80.01584114868861,6.359409893111499,0 80.01578889391642,6.359520017839377,0 80.01573832918271,6.359631083617457,0 80.01568021152613,6.359737943763746,0 80.01568513023207,6.359740682606235,0</coordinates>
          </LinearRing>
        </outerBoundaryIs>
      </Polygon>
    </Placemark>
        

    <!-- Hotspot pins -->
    
    <Placemark>
      <name>Hotspot #1: -14.90 m (HIGH)</name>
      <description><![CDATA[
        <b>Date:</b> 2026-05-22<br/>
        <b>Transect:</b> 0<br/>
        <b>Change:</b> -14.90 m<br/>
        <b>Risk:</b> HIGH<br/>
      ]]></description>
      <styleUrl>#hotspot</styleUrl>
      <Point><coordinates>80.01079728828942,6.367878288977969,0</coordinates></Point>
    </Placemark>
        

    <Placemark>
      <name>Hotspot #2: -10.74 m (HIGH)</name>
      <description><![CDATA[
        <b>Date:</b> 2026-05-22<br/>
        <b>Transect:</b> 1<br/>
        <b>Change:</b> -10.74 m<br/>
        <b>Risk:</b> HIGH<br/>
      ]]></description>
      <styleUrl>#hotspot</styleUrl>
      <Point><coordinates>80.01087748426932,6.367783722522503,0</coordinates></Point>
    </Placemark>
        

    <Placemark>
      <name>Hotspot #3: -9.06 m (HIGH)</name>
      <description><![CDATA[
        <b>Date:</b> 2026-05-22<br/>
        <b>Transect:</b> 32<br/>
        <b>Change:</b> -9.06 m<br/>
        <b>Risk:</b> HIGH<br/>
      ]]></description>
      <styleUrl>#hotspot</styleUrl>
      <Point><coordinates>80.01288491527154,6.364585642800645,0</coordinates></Point>
    </Placemark>
        

    <Placemark>
      <name>Hotspot #4: -9.04 m (HIGH)</name>
      <description><![CDATA[
        <b>Date:</b> 2026-05-22<br/>
        <b>Transect:</b> 2<br/>
        <b>Change:</b> -9.04 m<br/>
        <b>Risk:</b> HIGH<br/>
      ]]></description>
      <styleUrl>#hotspot</styleUrl>
      <Point><coordinates>80.01095700873046,6.367688782150779,0</coordinates></Point>
    </Placemark>
        

    <Placemark>
      <name>Hotspot #5: -8.57 m (HIGH)</name>
      <description><![CDATA[
        <b>Date:</b> 2026-05-22<br/>
        <b>Transect:</b> 34<br/>
        <b>Change:</b> -8.57 m<br/>
        <b>Risk:</b> HIGH<br/>
      ]]></description>
      <styleUrl>#hotspot</styleUrl>
      <Point><coordinates>80.01299669779954,6.3643694431004025,0</coordinates></Point>
    </Placemark>
        

    <Placemark>
      <name>Hotspot #6: -8.54 m (HIGH)</name>
      <description><![CDATA[
        <b>Date:</b> 2026-05-22<br/>
        <b>Transect:</b> 33<br/>
        <b>Change:</b> -8.54 m<br/>
        <b>Risk:</b> HIGH<br/>
      ]]></description>
      <styleUrl>#hotspot</styleUrl>
      <Point><coordinates>80.01294188384936,6.36447814282231,0</coordinates></Point>
    </Placemark>
        

    <Placemark>
      <name>Hotspot #7: -8.51 m (HIGH)</name>
      <description><![CDATA[
        <b>Date:</b> 2026-05-22<br/>
        <b>Transect:</b> 31<br/>
        <b>Change:</b> -8.51 m<br/>
        <b>Risk:</b> HIGH<br/>
      ]]></description>
      <styleUrl>#hotspot</styleUrl>
      <Point><coordinates>80.01282125612536,6.364689417324939,0</coordinates></Point>
    </Placemark>
        

  </Document>
</kml>
