<?xml version="1.0" encoding="UTF-8"?>
<kml xmlns="http://www.opengis.net/kml/2.2" xmlns:gx="http://www.google.com/kml/ext/2.2" xmlns:kml="http://www.opengis.net/kml/2.2" xmlns:atom="http://www.w3.org/2005/Atom">
<Document>
	<name>SWnew 4302020.kml</name>
	<StyleMap id="m_ylw-pushpin">
		<Pair>
			<key>normal</key>
			<styleUrl>#s_ylw-pushpin</styleUrl>
		</Pair>
		<Pair>
			<key>highlight</key>
			<styleUrl>#s_ylw-pushpin_hl</styleUrl>
		</Pair>
	</StyleMap>
	<Style id="s_ylw-pushpin">
		<IconStyle>
			<scale>1.1</scale>
			<Icon>
				<href>http://maps.google.com/mapfiles/kml/pushpin/ylw-pushpin.png</href>
			</Icon>
			<hotSpot x="20" y="2" xunits="pixels" yunits="pixels"/>
		</IconStyle>
	</Style>
	<Style id="s_ylw-pushpin_hl">
		<IconStyle>
			<scale>1.3</scale>
			<Icon>
				<href>http://maps.google.com/mapfiles/kml/pushpin/ylw-pushpin.png</href>
			</Icon>
			<hotSpot x="20" y="2" xunits="pixels" yunits="pixels"/>
		</IconStyle>
	</Style>
	<Placemark>
		<name>SWnew 4/30/2020</name>
		<styleUrl>#m_ylw-pushpin</styleUrl>
		<LineString>
			<tessellate>1</tessellate>
			<coordinates>
				80.01065652810364,6.367791149422001,0 80.01078912795673,6.367708841714627,0 80.01099428822242,6.367524172188846,0 80.01128455356049,6.367139854696784,0 80.01150052173696,6.366815551440556,0 80.01176416270184,6.366296124113645,0 80.01204422894564,6.365915671458736,0 80.01213503137407,6.365563013383339,0 80.01234739716337,6.365289424557307,0 80.01262684121497,6.364940757761693,0 80.01288305936077,6.364565910882201,0 80.01316281608968,6.364086904738761,0 80.01340838927342,6.363661114162213,0 80.0136872284078,6.363251100949347,0 80.01388213797549,6.362852383274445,0 80.01399400222923,6.362720451834263,0 80.01409687124193,6.362517941563307,0 80.0143038218112,6.362212231920208,0 80.01450604707232,6.361937631961797,0 80.01469781442417,6.361667260857287,0 80.01512120571826,6.360884699132744,0 80.01551376039824,6.360186193166027,0 80.01583706904731,6.359615484026497,0 80.01609404640828,6.359154029229042,0 80.01627680350563,6.358816385347324,0 80.01635176237035,6.358483976505647,0 80.01646404886507,6.358178484297861,0 80.01652598378203,6.357761809868369,0 80.0164663480821,6.357470470984895,0 80.01632297914512,6.357212873348627,0 
			</coordinates>
		</LineString>
		<atom:link rel="app" href="https://www.google.com/earth/about/versions/#earth-pro" title="Google Earth Pro 7.3.6.10441"></atom:link>
	</Placemark>
</Document>
</kml>
