<?xml version="1.0" encoding="UTF-8"?>
<kml xmlns="http://www.opengis.net/kml/2.2" xmlns:gx="http://www.google.com/kml/ext/2.2" xmlns:kml="http://www.opengis.net/kml/2.2" xmlns:atom="http://www.w3.org/2005/Atom">
<Document>
	<name>SWnew 12302015.kml</name>
	<StyleMap id="m_ylw-pushpin">
		<Pair>
			<key>normal</key>
			<styleUrl>#s_ylw-pushpin</styleUrl>
		</Pair>
		<Pair>
			<key>highlight</key>
			<styleUrl>#s_ylw-pushpin_hl</styleUrl>
		</Pair>
	</StyleMap>
	<Style id="s_ylw-pushpin">
		<IconStyle>
			<scale>1.1</scale>
			<Icon>
				<href>http://maps.google.com/mapfiles/kml/pushpin/ylw-pushpin.png</href>
			</Icon>
			<hotSpot x="20" y="2" xunits="pixels" yunits="pixels"/>
		</IconStyle>
	</Style>
	<Style id="s_ylw-pushpin_hl">
		<IconStyle>
			<scale>1.3</scale>
			<Icon>
				<href>http://maps.google.com/mapfiles/kml/pushpin/ylw-pushpin.png</href>
			</Icon>
			<hotSpot x="20" y="2" xunits="pixels" yunits="pixels"/>
		</IconStyle>
	</Style>
	<Placemark>
		<name>SWnew 12/30/2015</name>
		<styleUrl>#m_ylw-pushpin</styleUrl>
		<LineString>
			<tessellate>1</tessellate>
			<coordinates>
				80.01061649076097,6.367730919434853,0 80.01071304799031,6.367637480831571,0 80.01097115670514,6.367489534780709,0 80.01106146002563,6.367251351285831,0 80.01131875197881,6.366979052439811,0 80.011388200071,6.366703528860914,0 80.01162193546394,6.366363853982111,0 80.01178669009494,6.366043910385004,0 80.01197233481351,6.365721833820261,0 80.01209949257459,6.365527842052177,0 80.01229689246952,6.365249845625449,0 80.01238564704353,6.365002798959706,0 80.01251281242165,6.364793323380796,0 80.01264914035507,6.364620691212332,0 80.01277910418952,6.364407434392761,0 80.01295570783863,6.36416450460205,0 80.01315830469062,6.36386438443864,0 80.01332812163001,6.363584435141524,0 80.01346173016879,6.363346529950293,0 80.01355579275416,6.3631812450312,0 80.01375254362426,6.362893441659041,0 80.01389111861306,6.362619577225087,0 80.01398810059139,6.362498182838947,0 80.01418957362863,6.362231893560865,0 80.0143624471486,6.361960722858357,0 80.01445222438939,6.361746321358769,0 80.01458399831503,6.361596739202384,0 80.0147308463536,6.361328502251457,0 80.01485672889078,6.361137012653813,0 80.01501812199697,6.360865537774711,0 80.01515047990367,6.360605540290112,0 80.01527982385267,6.360383991112104,0 80.01539338333541,6.360220925948932,0 80.01549298818223,6.360037239070992,0 80.01561365633187,6.359844763767606,0 80.01570142848477,6.359694866103132,0 80.01576698481733,6.359506921441432,0 80.01584648921963,6.359330639965031,0 80.01595444728596,6.359115008085396,0 80.01605293160124,6.358921470283394,0 80.01616519341184,6.358730328699517,0 80.01621400902621,6.358634457899515,0 80.01631255179009,6.358405411978778,0 80.01636974358905,6.358215179389411,0 80.0164242909364,6.358066585644822,0 80.01646055037899,6.357946613726807,0 80.01648220454329,6.357752220503095,0 80.01648634044588,6.357586211034525,0 80.01648548090735,6.357482324019186,0 80.01645595356635,6.357349546597573,0 80.01636211432448,6.357229781085321,0 
			</coordinates>
		</LineString>
		<atom:link rel="app" href="https://www.google.com/earth/about/versions/#earth-pro" title="Google Earth Pro 7.3.6.10441"></atom:link>
	</Placemark>
</Document>
</kml>
