<?xml version="1.0" encoding="UTF-8"?>
<kml xmlns="http://www.opengis.net/kml/2.2" xmlns:gx="http://www.google.com/kml/ext/2.2" xmlns:kml="http://www.opengis.net/kml/2.2" xmlns:atom="http://www.w3.org/2005/Atom">
<Document>
	<name>SWnew 3302018.kml</name>
	<StyleMap id="m_ylw-pushpin">
		<Pair>
			<key>normal</key>
			<styleUrl>#s_ylw-pushpin</styleUrl>
		</Pair>
		<Pair>
			<key>highlight</key>
			<styleUrl>#s_ylw-pushpin_hl</styleUrl>
		</Pair>
	</StyleMap>
	<Style id="s_ylw-pushpin">
		<IconStyle>
			<scale>1.1</scale>
			<Icon>
				<href>http://maps.google.com/mapfiles/kml/pushpin/ylw-pushpin.png</href>
			</Icon>
			<hotSpot x="20" y="2" xunits="pixels" yunits="pixels"/>
		</IconStyle>
	</Style>
	<Style id="s_ylw-pushpin_hl">
		<IconStyle>
			<scale>1.3</scale>
			<Icon>
				<href>http://maps.google.com/mapfiles/kml/pushpin/ylw-pushpin.png</href>
			</Icon>
			<hotSpot x="20" y="2" xunits="pixels" yunits="pixels"/>
		</IconStyle>
	</Style>
	<Placemark>
		<name>SWnew 3/30/2018</name>
		<styleUrl>#m_ylw-pushpin</styleUrl>
		<LineString>
			<tessellate>1</tessellate>
			<coordinates>
				80.01074896416941,6.36774625886665,0 80.01094674557658,6.367672874812783,0 80.01110526164575,6.367437060187687,0 80.01127927061178,6.367189908917849,0 80.01145264179488,6.366970387464399,0 80.01162214794459,6.366691823735604,0 80.0118035737286,6.366358827459024,0 80.01195971384151,6.366054102494177,0 80.01213456841035,6.365725139393422,0 80.01231675956339,6.365418785435742,0 80.01248047557506,6.365142935348507,0 80.01267870496019,6.364858604954663,0 80.01288269309833,6.36450620616297,0 80.01308743932834,6.36417359162852,0 80.01322666792633,6.363880775413116,0 80.01340823974699,6.363561700731247,0 80.01360216865396,6.363247213911674,0 80.01376935922724,6.362928635621635,0 80.01394656310012,6.36263006878258,0 80.01413218111578,6.362303569434754,0 80.01424556051816,6.36210937283654,0 80.01435769704084,6.36189418315533,0 80.01454079031643,6.361598627198594,0 80.01476550155289,6.361313747313242,0 80.01491468386979,6.360958001925386,0 80.01494055182188,6.360828669573968,0 80.01508651997814,6.360556614069375,0 80.01527061043107,6.360188707568127,0 80.01546706612649,6.359800680965223,0 80.01559753560969,6.359483631718218,0 80.01571463425415,6.35933252696464,0 80.01582238970371,6.359118894141148,0 80.015992734544,6.358843577341766,0 80.01612060666605,6.358496865261998,0 80.01627373241296,6.358157375680025,0 80.01630865216333,6.357972022299892,0 80.01635322215428,6.357711969639096,0 80.01638103121046,6.357526085905865,0 80.01637821390119,6.35743900986123,0 80.01631835943084,6.357229840029329,0 
			</coordinates>
		</LineString>
		<atom:link rel="app" href="https://www.google.com/earth/about/versions/#earth-pro" title="Google Earth Pro 7.3.6.10441"></atom:link>
	</Placemark>
</Document>
</kml>
