<?xml version="1.0" encoding="UTF-8"?>
<kml xmlns="http://www.opengis.net/kml/2.2" xmlns:gx="http://www.google.com/kml/ext/2.2" xmlns:kml="http://www.opengis.net/kml/2.2" xmlns:atom="http://www.w3.org/2005/Atom">
<Document>
	<name>SWnew 11302020.kml</name>
	<StyleMap id="m_ylw-pushpin">
		<Pair>
			<key>normal</key>
			<styleUrl>#s_ylw-pushpin</styleUrl>
		</Pair>
		<Pair>
			<key>highlight</key>
			<styleUrl>#s_ylw-pushpin_hl</styleUrl>
		</Pair>
	</StyleMap>
	<Style id="s_ylw-pushpin">
		<IconStyle>
			<scale>1.1</scale>
			<Icon>
				<href>http://maps.google.com/mapfiles/kml/pushpin/ylw-pushpin.png</href>
			</Icon>
			<hotSpot x="20" y="2" xunits="pixels" yunits="pixels"/>
		</IconStyle>
	</Style>
	<Style id="s_ylw-pushpin_hl">
		<IconStyle>
			<scale>1.3</scale>
			<Icon>
				<href>http://maps.google.com/mapfiles/kml/pushpin/ylw-pushpin.png</href>
			</Icon>
			<hotSpot x="20" y="2" xunits="pixels" yunits="pixels"/>
		</IconStyle>
	</Style>
	<Placemark>
		<name>SWnew 11/30/2020</name>
		<styleUrl>#m_ylw-pushpin</styleUrl>
		<LineString>
			<tessellate>1</tessellate>
			<coordinates>
				80.01075190572482,6.367790363610904,0 80.01096909495243,6.367710283260927,0 80.01125981622161,6.367316892527668,0 80.01143220677132,6.366999758861224,0 80.01166124070805,6.366763323043075,0 80.01178242985591,6.366511660020923,0 80.01194281046638,6.366186625524243,0 80.01205527250683,6.365947417417128,0 80.01225561458389,6.365648014092455,0 80.01241188618781,6.365350007117814,0 80.01259470300681,6.365040862749907,0 80.01274462401622,6.364774111425805,0 80.01289548496352,6.364596174092963,0 80.01303498926727,6.364279003284151,0 80.01318655796186,6.364117822684707,0 80.01329084529947,6.363856544854467,0 80.01344293626008,6.363609543929495,0 80.0136301115467,6.363228646232833,0 80.01390953227961,6.362727930898028,0 80.01421513080007,6.362212707693608,0 80.01438687354511,6.361880361020602,0 80.01457172545713,6.361525769540528,0 80.01477703163818,6.361147507255582,0 80.0149945592255,6.360765644001258,0 80.01523233531498,6.360342264152504,0 80.0154730771556,6.359920504576156,0 80.01569789144706,6.359500939368688,0 80.01579666851416,6.359270504810143,0 80.0159790158899,6.359019472357502,0 80.01605927226933,6.358834701455087,0 80.01615977672229,6.358626532148651,0 80.01632850720566,6.358292436621614,0 80.01640068980544,6.358094511006165,0 80.0164901324366,6.357605069357267,0 80.01648505630568,6.357441216795745,0 80.01635529888871,6.357190199333584,0 
			</coordinates>
		</LineString>
		<atom:link rel="app" href="https://www.google.com/earth/about/versions/#earth-pro" title="Google Earth Pro 7.3.6.10441"></atom:link>
	</Placemark>
</Document>
</kml>
