<?xml version="1.0" encoding="UTF-8"?>
<kml xmlns="http://www.opengis.net/kml/2.2" xmlns:gx="http://www.google.com/kml/ext/2.2" xmlns:kml="http://www.opengis.net/kml/2.2" xmlns:atom="http://www.w3.org/2005/Atom">
<Document>
	<name>SWnew 5302019.kml</name>
	<StyleMap id="m_ylw-pushpin">
		<Pair>
			<key>normal</key>
			<styleUrl>#s_ylw-pushpin</styleUrl>
		</Pair>
		<Pair>
			<key>highlight</key>
			<styleUrl>#s_ylw-pushpin_hl</styleUrl>
		</Pair>
	</StyleMap>
	<Style id="s_ylw-pushpin">
		<IconStyle>
			<scale>1.1</scale>
			<Icon>
				<href>http://maps.google.com/mapfiles/kml/pushpin/ylw-pushpin.png</href>
			</Icon>
			<hotSpot x="20" y="2" xunits="pixels" yunits="pixels"/>
		</IconStyle>
	</Style>
	<Style id="s_ylw-pushpin_hl">
		<IconStyle>
			<scale>1.3</scale>
			<Icon>
				<href>http://maps.google.com/mapfiles/kml/pushpin/ylw-pushpin.png</href>
			</Icon>
			<hotSpot x="20" y="2" xunits="pixels" yunits="pixels"/>
		</IconStyle>
	</Style>
	<Placemark>
		<name>SWnew 5/30/2019</name>
		<styleUrl>#m_ylw-pushpin</styleUrl>
		<LineString>
			<tessellate>1</tessellate>
			<coordinates>
				80.0106751789896,6.367696937556174,0 80.0107846289028,6.367658051878714,0 80.01106108191247,6.367376909733992,0 80.01127096463014,6.367045602155889,0 80.01154089645114,6.366722069207345,0 80.01178205915413,6.366319744594152,0 80.01201237169808,6.3659010617793,0 80.01222156772276,6.365574276112052,0 80.01250611376547,6.365212593026893,0 80.01257814334411,6.364791874471048,0 80.01287177424365,6.364276433006022,0 80.0130364981501,6.364028708591682,0 80.01326036253649,6.363688531593086,0 80.01345248777838,6.363429011630324,0 80.01368854966825,6.363120382298116,0 80.0138194893585,6.362765373424516,0 80.01391916148539,6.362667370674408,0 80.01411785632425,6.362377046879726,0 80.01433134603155,6.361975900934919,0 80.01456503147107,6.361605893544104,0 80.01486589948308,6.361101384929403,0 80.01518640406661,6.360545423028422,0 80.0154517741688,6.360127658806975,0 80.01575048703486,6.359660722993552,0 80.01595869801757,6.359239466157999,0 80.01613012042242,6.358871384419565,0 80.01629223532618,6.35851677905094,0 80.01637689806606,6.358240083230705,0 80.0164666760186,6.358112204460028,0 80.01650152751039,6.357898373076406,0 80.01646868130572,6.35760933394008,0 80.01634210402537,6.357223618543704,0 
			</coordinates>
		</LineString>
		<atom:link rel="app" href="https://www.google.com/earth/about/versions/#earth-pro" title="Google Earth Pro 7.3.6.10441"></atom:link>
	</Placemark>
</Document>
</kml>
